{"type":"FeatureCollection","features":[{"type":"Feature","properties":{"osm_id":3730713,"name":"Portway","ref":"A4","corridor":"A4 Portway"},"geometry":{"type":"LineString","coordinates":[[-2.6484939,51.4773224],[-2.6483542,51.477687],[-2.6482029,51.4780625],[-2.6480481,51.4784673],[-2.6479614,51.4786942],[-2.6478984,51.4789261],[-2.647877,51.4790162],[-2.6478595,51.4792475],[-2.6479058,51.4796492],[-2.6479909,51.4799706],[-2.6481042,51.4802112],[-2.6481958,51.480359],[-2.6482567,51.480448]]}},{"type":"Feature","properties":{"osm_id":4002780,"name":"Portway","ref":"A4","corridor":"A4 Portway"},"geometry":{"type":"LineString","coordinates":[[-2.6899867,51.4976452],[-2.6900437,51.4975319],[-2.6900828,51.4974284],[-2.6900888,51.4972601],[-2.6900525,51.4971858],[-2.6898739,51.4967845],[-2.6895141,51.4959831],[-2.6893356,51.4955428],[-2.6891697,51.4950429],[-2.6891029,51.4947152],[-2.6890724,51.4943214]]}},{"type":"Feature","properties":{"osm_id":26390125,"name":"Portway","ref":"A4","corridor":"A4 Portway"},"geometry":{"type":"LineString","coordinates":[[-2.6482567,51.480448],[-2.6490685,51.4813973]]}},{"type":"Feature","properties":{"osm_id":27376667,"name":"Portway","ref":"A4","corridor":"A4 Portway"},"geometry":{"type":"LineString","coordinates":[[-2.6890906,51.4921934],[-2.6890392,51.4920069],[-2.6889502,51.4918218],[-2.688896,51.4916985],[-2.6888547,51.4916045],[-2.688836,51.4915619],[-2.688682,51.491182],[-2.6884767,51.4908944],[-2.6882338,51.4905795],[-2.6878772,51.4901995],[-2.6877293,51.4900487],[-2.6875345,51.4898651],[-2.6873951,51.4897347]]}},{"type":"Feature","properties":{"osm_id":27376668,"name":"Portway","ref":"A4","corridor":"A4 Portway"},"geometry":{"type":"LineString","coordinates":[[-2.6875533,51.4897593],[-2.6878239,51.4900174],[-2.6881541,51.4903426]]}},{"type":"Feature","properties":{"osm_id":90145461,"name":"Portway","ref":"A4","corridor":"A4 Portway"},"geometry":{"type":"LineString","coordinates":[[-2.6689865,51.487313],[-2.6690153,51.4873043],[-2.6699342,51.4870263],[-2.6704485,51.4868707],[-2.6719316,51.4864108],[-2.6731011,51.486026],[-2.673598,51.4858725],[-2.6737669,51.4858214],[-2.6740923,51.4857283],[-2.6752833,51.4853875],[-2.6758656,51.4852523],[-2.6764866,51.4851461],[-2.6765397,51.4851371],[-2.6765998,51.4851268],[-2.6768644,51.4850896],[-2.6771709,51.4850555],[-2.6779622,51.4849937],[-2.6784217,51.4849866],[-2.6788704,51.4849971],[-2.6796916,51.4850448],[-2.6801708,51.4850977]]}},{"type":"Feature","properties":{"osm_id":90145467,"name":"Portway","ref":"A4","corridor":"A4 Portway"},"geometry":{"type":"LineString","coordinates":[[-2.6891834,51.4918361],[-2.6893134,51.4925995],[-2.6893177,51.4927328],[-2.6893218,51.4928364],[-2.6893196,51.4929321],[-2.6893032,51.4931697],[-2.6892395,51.4936349]]}},{"type":"Feature","properties":{"osm_id":90145491,"name":"Portway","ref":"A4","corridor":"A4 Portway"},"geometry":{"type":"LineString","coordinates":[[-2.6881541,51.4903426],[-2.6886038,51.4908293],[-2.6888192,51.4911159],[-2.6889646,51.4913353]]}},{"type":"Feature","properties":{"osm_id":90145499,"name":"Portway","ref":"A4","corridor":"A4 Portway"},"geometry":{"type":"LineString","coordinates":[[-2.6890724,51.4943214],[-2.6890501,51.4938307],[-2.6890682,51.4936219],[-2.689077,51.493513]]}},{"type":"Feature","properties":{"osm_id":90145506,"name":"Portway","ref":"A4","corridor":"A4 Portway"},"geometry":{"type":"LineString","coordinates":[[-2.6801708,51.4850977],[-2.6804012,51.4851436],[-2.6805746,51.4851799],[-2.6810737,51.4853104],[-2.6813936,51.48541],[-2.6816763,51.4855227],[-2.6819056,51.4856376],[-2.6822668,51.485866],[-2.682382,51.4859729]]}},{"type":"Feature","properties":{"osm_id":90145510,"name":"Portway","ref":"A4","corridor":"A4 Portway"},"geometry":{"type":"LineString","coordinates":[[-2.6892395,51.4936349],[-2.6892228,51.4938508],[-2.68923,51.4943055],[-2.6893156,51.495],[-2.6895225,51.4956254],[-2.6896931,51.4960555],[-2.6899404,51.4966066]]}},{"type":"Feature","properties":{"osm_id":90145519,"name":"Portway","ref":"A4","corridor":"A4 Portway"},"geometry":{"type":"LineString","coordinates":[[-2.6672354,51.4878755],[-2.6669581,51.4879517],[-2.6666314,51.488033],[-2.6652521,51.4882886],[-2.6642855,51.4884275],[-2.6634872,51.4884949],[-2.6629769,51.4885097],[-2.6624703,51.4885089],[-2.6620211,51.4884932],[-2.6609605,51.4884115],[-2.6603817,51.4883514],[-2.6597417,51.4882559],[-2.6593221,51.488182],[-2.6588081,51.4880588],[-2.6584057,51.4879515],[-2.6579565,51.4878032],[-2.6572292,51.487543],[-2.6569428,51.4874151]]}},{"type":"Feature","properties":{"osm_id":90145520,"name":"Portway","ref":"A4","corridor":"A4 Portway"},"geometry":{"type":"LineString","coordinates":[[-2.6768921,51.4851745],[-2.6767084,51.485208],[-2.6757013,51.4853776],[-2.6750249,51.4855492],[-2.673924,51.4858805],[-2.6735195,51.4860048],[-2.6719279,51.4864939],[-2.6698222,51.4871454],[-2.6690742,51.4873768],[-2.6690529,51.4873834]]}},{"type":"Feature","properties":{"osm_id":90145523,"name":"Portway","ref":"A4","corridor":"A4 Portway"},"geometry":{"type":"LineString","coordinates":[[-2.689077,51.493513],[-2.6890889,51.4933663],[-2.6891366,51.4929522]]}},{"type":"Feature","properties":{"osm_id":103974545,"name":"Portway","corridor":"A4 Portway"},"geometry":{"type":"LineString","coordinates":[[-2.6483579,51.4804355],[-2.6491252,51.4813744]]}},{"type":"Feature","properties":{"osm_id":103974580,"name":"Portway","corridor":"A4 Portway"},"geometry":{"type":"LineString","coordinates":[[-2.6480565,51.4790408],[-2.6479737,51.4790249],[-2.6479483,51.4790927],[-2.6479457,51.4794618],[-2.6480074,51.4797565],[-2.6480973,51.4800145],[-2.6481751,51.4802],[-2.6482368,51.4803111],[-2.6483579,51.4804355]]}},{"type":"Feature","properties":{"osm_id":106059925,"name":"Portway","corridor":"A4 Portway"},"geometry":{"type":"LineString","coordinates":[[-2.6890791,51.4954739],[-2.688556,51.4955336],[-2.6885226,51.4955336],[-2.688498,51.4955245],[-2.6884793,51.4955129],[-2.6884653,51.4954952],[-2.6883566,51.4951499],[-2.6883643,51.4951219],[-2.6883819,51.4951064],[-2.6884076,51.4950944],[-2.6884436,51.4950844],[-2.6889377,51.495018]]}},{"type":"Feature","properties":{"osm_id":106059942,"name":"Portway","corridor":"A4 Portway"},"geometry":{"type":"LineString","coordinates":[[-2.689496,51.4968145],[-2.6895649,51.4967807],[-2.6896048,51.496731],[-2.689322,51.4961329],[-2.6890791,51.4954739],[-2.6890753,51.4954615],[-2.6889377,51.495018],[-2.6888543,51.4943657],[-2.6888362,51.4936682],[-2.6888454,51.4935095],[-2.6888714,51.4930624],[-2.6888326,51.4930114],[-2.6883299,51.4928265],[-2.688035,51.492718],[-2.6879423,51.4926555]]}},{"type":"Feature","properties":{"osm_id":107474564,"name":"Portway","corridor":"A4 Portway"},"geometry":{"type":"LineString","coordinates":[[-2.690159,51.4965335],[-2.6901727,51.4963947],[-2.6902833,51.4962239],[-2.6900143,51.4960762],[-2.6898961,51.4959577],[-2.6898448,51.4958301],[-2.6897545,51.4955996],[-2.6897146,51.495479],[-2.6897317,51.4953726],[-2.6897861,51.4952047],[-2.6897964,51.4951861],[-2.6898562,51.4950782],[-2.6895911,51.4949844],[-2.6895223,51.4948872],[-2.6894698,51.4944288],[-2.6894429,51.4938205],[-2.6894667,51.4937206],[-2.6895166,51.4936679],[-2.690091,51.4932989]]}},{"type":"Feature","properties":{"osm_id":133638238,"name":"Portway","ref":"A4","corridor":"A4 Portway"},"geometry":{"type":"LineString","coordinates":[[-2.6323862,51.4670792],[-2.6320375,51.4665309],[-2.6318372,51.4660508],[-2.6316955,51.4656411],[-2.631584,51.4650829],[-2.6314508,51.4646566],[-2.6312486,51.4641675],[-2.6310061,51.4636381],[-2.6309291,51.4634804],[-2.6306566,51.4629749],[-2.6305059,51.4625955],[-2.6300984,51.4617532],[-2.6298141,51.4610689],[-2.6297467,51.4607851],[-2.6297173,51.460372],[-2.6297101,51.4600327],[-2.6297462,51.4596748],[-2.6298435,51.4592817],[-2.6299083,51.4590821]]}},{"type":"Feature","properties":{"osm_id":144776655,"name":"Portway","corridor":"A4 Portway"},"geometry":{"type":"LineString","coordinates":[[-2.6407772,51.4703192],[-2.6401782,51.4701874],[-2.6394182,51.4700391],[-2.6379671,51.4698168],[-2.6376093,51.4697482],[-2.6371218,51.4696425],[-2.636728,51.4694964],[-2.6357767,51.4690957],[-2.6348959,51.4686783],[-2.6341846,51.4682861],[-2.6335223,51.4679068],[-2.6331807,51.4676864],[-2.6330433,51.4675939],[-2.632659,51.4672403],[-2.6325692,51.4671576],[-2.6324961,51.4670515],[-2.6321696,51.4665779],[-2.6320612,51.466386],[-2.6319312,51.4660255],[-2.6317515,51.4652976],[-2.6315826,51.4646952],[-2.6313337,51.464101],[-2.6308031,51.4630081],[-2.6302991,51.4618942],[-2.6299936,51.4611887],[-2.6298579,51.4606913],[-2.6298077,51.4602637],[-2.6298258,51.4596559],[-2.629854,51.459481],[-2.6300579,51.4589283],[-2.6301155,51.4587083],[-2.6301274,51.4585578],[-2.6300996,51.4583473],[-2.6300258,51.458058],[-2.62983,51.4576876],[-2.6295731,51.457303],[-2.6295156,51.4572258],[-2.6292787,51.456981],[-2.62908,51.4568142],[-2.6288693,51.4566795],[-2.628442,51.4564065],[-2.6282153,51.4562463],[-2.6280077,51.4561129],[-2.6277534,51.4558867],[-2.6275941,51.4556879],[-2.6273437,51.4552991],[-2.6271329,51.4548851],[-2.6270827,51.4547963],[-2.6270476,51.4546906],[-2.6270264,51.4545457],[-2.6270166,51.4542564],[-2.6270187,51.4539987],[-2.6269576,51.4537436],[-2.6268176,51.4533368],[-2.6266467,51.4528777],[-2.6265203,51.4525967],[-2.626469,51.4524988],[-2.6260558,51.4519649],[-2.6257411,51.451535],[-2.6255679,51.4512723],[-2.6253047,51.4508147],[-2.6249947,51.4503924],[-2.6249203,51.4502993],[-2.6247877,51.450184],[-2.6245864,51.4500444]]}},{"type":"Feature","properties":{"osm_id":163658956,"name":"Portway","ref":"A4","corridor":"A4 Portway"},"geometry":{"type":"LineString","coordinates":[[-2.6299083,51.4590821],[-2.630021,51.4586588],[-2.6300153,51.4584026],[-2.6299308,51.458117],[-2.6297417,51.4577035]]}},{"type":"Feature","properties":{"osm_id":164051498,"name":"Portway","ref":"A4","corridor":"A4 Portway"},"geometry":{"type":"LineString","coordinates":[[-2.6466636,51.4728903],[-2.6468691,51.4729726],[-2.6472746,51.4732423],[-2.6475693,51.4734898],[-2.6480104,51.4739219],[-2.6482254,51.4741988],[-2.6484013,51.4744703],[-2.6484682,51.4745797],[-2.6485828,51.4748012],[-2.6486322,51.4749092],[-2.648676,51.4750207],[-2.6487265,51.4751568],[-2.6488122,51.4754595],[-2.6488531,51.4756397],[-2.6488685,51.4758215],[-2.6488655,51.47606],[-2.6488343,51.4763642],[-2.6487677,51.4766026]]}},{"type":"Feature","properties":{"osm_id":164051499,"name":"Portway","corridor":"A4 Portway"},"geometry":{"type":"LineString","coordinates":[[-2.6488647,51.4765851],[-2.6489171,51.4763661],[-2.6489645,51.4759146],[-2.6489427,51.4755867],[-2.6488912,51.4754255],[-2.6488563,51.4752466],[-2.6487157,51.4749133],[-2.6484469,51.4744107],[-2.6481209,51.4739661],[-2.6476097,51.4734475],[-2.6472914,51.4731784],[-2.6469636,51.4729608],[-2.6462254,51.4725072],[-2.6454107,51.4720615],[-2.6447275,51.4716767],[-2.6438606,51.471321],[-2.6428307,51.4708987],[-2.6416897,51.4705282],[-2.6407772,51.4703192]]}},{"type":"Feature","properties":{"osm_id":164051501,"name":"Portway","ref":"A4","corridor":"A4 Portway"},"geometry":{"type":"LineString","coordinates":[[-2.6487677,51.4766026],[-2.6486718,51.4768808],[-2.64858,51.4771026],[-2.6484939,51.4773224]]}},{"type":"Feature","properties":{"osm_id":164189606,"name":"Portway","corridor":"A4 Portway"},"geometry":{"type":"LineString","coordinates":[[-2.6491252,51.4813744],[-2.6491834,51.4814283],[-2.6495799,51.4817804],[-2.6505179,51.4825005],[-2.6505589,51.482532],[-2.6511536,51.4830382],[-2.6514862,51.4833756],[-2.6520985,51.4839785],[-2.6531062,51.4848471],[-2.6538804,51.4854311],[-2.6551715,51.4862735],[-2.65546,51.4864403],[-2.655753,51.4866031],[-2.6563279,51.4869493],[-2.6565307,51.4870675],[-2.656898,51.4872706],[-2.6575012,51.4875265],[-2.6582032,51.4877967],[-2.658287,51.4878216],[-2.6586004,51.4879146],[-2.6589484,51.4880001],[-2.6592917,51.4880844],[-2.6597616,51.4881799],[-2.660303,51.4882632],[-2.6611691,51.4883531],[-2.6619515,51.4884159],[-2.6623778,51.4884375],[-2.6628807,51.4884367],[-2.6630761,51.4884312],[-2.6632854,51.4884253],[-2.6636889,51.4884011],[-2.6639231,51.4883805],[-2.6652639,51.4882203],[-2.6665867,51.4879772],[-2.6669282,51.4878916],[-2.6678442,51.4876174],[-2.6681247,51.4875124],[-2.668759,51.4872975],[-2.6689643,51.4872361],[-2.6694922,51.4870782],[-2.6697278,51.4869872],[-2.6699771,51.4869115],[-2.6702219,51.4868395],[-2.6707902,51.4866649],[-2.6710933,51.4865672],[-2.6715305,51.4864344],[-2.6719221,51.4863092],[-2.6723137,51.4861847],[-2.6726705,51.4860753],[-2.6729534,51.4859885],[-2.6734161,51.4858499],[-2.6735384,51.4858117],[-2.6737203,51.4857551],[-2.6739646,51.4856795],[-2.6742288,51.4855977],[-2.6744394,51.48554],[-2.6747532,51.4854448],[-2.6750657,51.4853563],[-2.6755282,51.4852501],[-2.6757968,51.4851889],[-2.6760441,51.4851411],[-2.67638,51.4850899],[-2.6765836,51.4850586],[-2.6766839,51.4850448],[-2.6767417,51.4850236],[-2.6768425,51.4850102],[-2.6769429,51.4849988],[-2.6771556,51.4850014],[-2.6778335,51.4849367],[-2.6782519,51.4849242],[-2.6788433,51.4849276],[-2.6794187,51.4849551],[-2.6795085,51.4849432],[-2.6797113,51.4849585],[-2.6799915,51.4849972],[-2.6802014,51.4850281],[-2.6804631,51.4850628],[-2.6806018,51.4850903],[-2.6809639,51.4851805],[-2.6812374,51.4852569],[-2.681705,51.4854244],[-2.6820434,51.4855726],[-2.6822875,51.4857296],[-2.6825866,51.4859041],[-2.6826922,51.4859713],[-2.6837285,51.4866306],[-2.6843206,51.4870073],[-2.6846465,51.4872453],[-2.6848289,51.4873706],[-2.6853198,51.4877443],[-2.6856979,51.4880666],[-2.6860466,51.4882854],[-2.6862693,51.4884975],[-2.6865428,51.4886896],[-2.6866248,51.4887532],[-2.6868593,51.4889351],[-2.6871973,51.489229],[-2.687347,51.4893745],[-2.6874203,51.4894457],[-2.6875144,51.4895588],[-2.6875812,51.489551],[-2.6876484,51.4895487],[-2.6878013,51.4895387],[-2.6879408,51.4895487],[-2.6880667,51.4895693],[-2.6881884,51.4896018]]}},{"type":"Feature","properties":{"osm_id":203169217,"name":"Portway","ref":"A4","corridor":"A4 Portway"},"geometry":{"type":"LineString","coordinates":[[-2.6871164,51.4894179],[-2.6871956,51.4894437],[-2.6873017,51.4895273],[-2.6874855,51.4896931]]}},{"type":"Feature","properties":{"osm_id":203169218,"name":"Portway","ref":"A4","corridor":"A4 Portway"},"geometry":{"type":"LineString","coordinates":[[-2.6873951,51.4897347],[-2.6871343,51.4894779],[-2.6871164,51.4894179]]}},{"type":"Feature","properties":{"osm_id":270499916,"name":"Portway","ref":"A4","corridor":"A4 Portway"},"geometry":{"type":"LineString","coordinates":[[-2.6422421,51.4707923],[-2.6421233,51.4707505],[-2.6412755,51.4705108],[-2.6404499,51.470314],[-2.639631,51.4701495],[-2.6387279,51.469993],[-2.6379131,51.4698946],[-2.6375014,51.4698118],[-2.6372036,51.4697439],[-2.6370573,51.4697083],[-2.636848,51.4696515],[-2.6365103,51.4695268]]}},{"type":"Feature","properties":{"osm_id":279668599,"name":"Portway","ref":"A4","corridor":"A4 Portway"},"geometry":{"type":"LineString","coordinates":[[-2.6466636,51.4728903],[-2.6461917,51.4725896],[-2.6453171,51.4720859],[-2.6447532,51.4717996],[-2.6438332,51.4713894],[-2.6430954,51.4710922],[-2.6422421,51.4707923]]}},{"type":"Feature","properties":{"osm_id":361213638,"name":"Portway","ref":"A4","corridor":"A4 Portway"},"geometry":{"type":"LineString","coordinates":[[-2.629026,51.4568445],[-2.6291159,51.4568978],[-2.6292076,51.4569687],[-2.6293773,51.4571437],[-2.629463,51.4572423],[-2.6295634,51.4573681],[-2.629672,51.4575281],[-2.6297417,51.4577035]]}},{"type":"Feature","properties":{"osm_id":361213646,"name":"Portway","ref":"A4","corridor":"A4 Portway"},"geometry":{"type":"LineString","coordinates":[[-2.6293515,51.4572708],[-2.6291909,51.4570866]]}},{"type":"Feature","properties":{"osm_id":372135648,"name":"Portway","ref":"A4","corridor":"A4 Portway"},"geometry":{"type":"LineString","coordinates":[[-2.6490685,51.4813973],[-2.649192,51.4815245],[-2.6495813,51.4818631],[-2.6499938,51.4821983],[-2.6500905,51.4822712],[-2.6504413,51.4825356],[-2.651223,51.4832383],[-2.6516211,51.4836496],[-2.6520378,51.4840587],[-2.6527652,51.4847367],[-2.6528814,51.4848314],[-2.6531088,51.4849989]]}},{"type":"Feature","properties":{"osm_id":372135649,"name":"Portway","ref":"A4","corridor":"A4 Portway"},"geometry":{"type":"LineString","coordinates":[[-2.6546658,51.4861808],[-2.6537624,51.4856326],[-2.6527921,51.4848998],[-2.6526665,51.4847984],[-2.6526499,51.4847826],[-2.6519431,51.4841113],[-2.6515264,51.4837021],[-2.6511404,51.4832858],[-2.6507346,51.4829163],[-2.6502983,51.4825439],[-2.649843,51.4822011],[-2.6495374,51.4819561],[-2.6494291,51.4818692],[-2.6490961,51.481564],[-2.6489566,51.4814184]]}},{"type":"Feature","properties":{"osm_id":519598329,"name":"Portway","ref":"A4","corridor":"A4 Portway"},"geometry":{"type":"LineString","coordinates":[[-2.648648,51.4765979],[-2.6487143,51.4763519],[-2.6487456,51.4760478],[-2.6487485,51.4758092],[-2.6487331,51.4756275],[-2.6486923,51.4754473],[-2.648585,51.475153],[-2.6485346,51.4750177],[-2.6484914,51.4749417],[-2.6484232,51.4747995],[-2.6483187,51.4745997],[-2.6482479,51.4744727],[-2.6481684,51.4743383],[-2.6480773,51.474202],[-2.647885,51.4739535],[-2.6476641,51.4737185],[-2.6474158,51.4734904],[-2.6471023,51.4732401],[-2.6467867,51.4729988],[-2.6466636,51.4728903]]}},{"type":"Feature","properties":{"osm_id":519598331,"name":"Portway","ref":"A4","corridor":"A4 Portway"},"geometry":{"type":"LineString","coordinates":[[-2.6483834,51.4773053],[-2.6484603,51.4770979],[-2.6485521,51.4768761],[-2.648648,51.4765979]]}},{"type":"Feature","properties":{"osm_id":519598332,"name":"Portway","ref":"A4","corridor":"A4 Portway"},"geometry":{"type":"LineString","coordinates":[[-2.6479945,51.4782759],[-2.6482088,51.4777451],[-2.6483834,51.4773053]]}},{"type":"Feature","properties":{"osm_id":519598334,"name":"Portway","ref":"A4","corridor":"A4 Portway"},"geometry":{"type":"LineString","coordinates":[[-2.6477599,51.4793062],[-2.6477582,51.4791865],[-2.647769,51.479014],[-2.6477772,51.4789538],[-2.6477823,51.4789187],[-2.6478234,51.4787335]]}},{"type":"Feature","properties":{"osm_id":519598337,"name":"Portway","ref":"A4","corridor":"A4 Portway"},"geometry":{"type":"LineString","coordinates":[[-2.6481615,51.4804748],[-2.6481043,51.4804017],[-2.6479953,51.4802355],[-2.6478928,51.4799924],[-2.6478466,51.4798377],[-2.6477889,51.4796442],[-2.6477614,51.4794494],[-2.6477599,51.4793062]]}},{"type":"Feature","properties":{"osm_id":519598339,"name":"Portway","ref":"A4","corridor":"A4 Portway"},"geometry":{"type":"LineString","coordinates":[[-2.6489566,51.4814184],[-2.6481615,51.4804748]]}},{"type":"Feature","properties":{"osm_id":569776080,"name":"Portway","ref":"A4","corridor":"A4 Portway"},"geometry":{"type":"LineString","coordinates":[[-2.6794035,51.4851212],[-2.6788794,51.4850877],[-2.6783696,51.4850811],[-2.6778687,51.4850935]]}},{"type":"Feature","properties":{"osm_id":569776081,"name":"Portway","ref":"A4","corridor":"A4 Portway"},"geometry":{"type":"LineString","coordinates":[[-2.682382,51.4859729],[-2.6822018,51.485917],[-2.6815998,51.4855742],[-2.6810614,51.4853962],[-2.6806386,51.4852914],[-2.6802439,51.4852102],[-2.6798733,51.4851519],[-2.6795071,51.4851253],[-2.6794035,51.4851212]]}},{"type":"Feature","properties":{"osm_id":570382397,"name":"Portway","ref":"A4","corridor":"A4 Portway"},"geometry":{"type":"LineString","coordinates":[[-2.6556308,51.4866377],[-2.656252,51.4869986],[-2.6564129,51.487092],[-2.6567991,51.4872924],[-2.6569428,51.4874151]]}},{"type":"Feature","properties":{"osm_id":570382398,"name":"Portway","ref":"A4","corridor":"A4 Portway"},"geometry":{"type":"LineString","coordinates":[[-2.6531088,51.4849989],[-2.6547605,51.4861283],[-2.6553829,51.4864919]]}},{"type":"Feature","properties":{"osm_id":637315628,"name":"Portway","ref":"A4","corridor":"A4 Portway"},"geometry":{"type":"LineString","coordinates":[[-2.668342,51.4875934],[-2.6681781,51.4876369]]}},{"type":"Feature","properties":{"osm_id":700846874,"name":"Portway","ref":"A4","corridor":"A4 Portway"},"geometry":{"type":"LineString","coordinates":[[-2.6902666,51.4971626],[-2.6905438,51.497435],[-2.6907515,51.4976557]]}},{"type":"Feature","properties":{"osm_id":724417605,"name":"Portway","ref":"A4","corridor":"A4 Portway"},"geometry":{"type":"LineString","coordinates":[[-2.6555482,51.4867362],[-2.6554484,51.4866762],[-2.6553193,51.486603]]}},{"type":"Feature","properties":{"osm_id":724417606,"name":"Portway","ref":"A4","corridor":"A4 Portway"},"geometry":{"type":"LineString","coordinates":[[-2.6569428,51.4874151],[-2.6567066,51.4873634],[-2.6557944,51.4868656],[-2.6555482,51.4867362]]}},{"type":"Feature","properties":{"osm_id":724417608,"name":"Portway","ref":"A4","corridor":"A4 Portway"},"geometry":{"type":"LineString","coordinates":[[-2.6553829,51.4864919],[-2.6556308,51.4866377]]}},{"type":"Feature","properties":{"osm_id":852198154,"name":"Portway","ref":"A4","corridor":"A4 Portway"},"geometry":{"type":"LineString","coordinates":[[-2.6891366,51.4929522],[-2.6891557,51.4927869],[-2.689151,51.4927356],[-2.6891363,51.4924371],[-2.6891177,51.4923492],[-2.6890906,51.4921934]]}},{"type":"Feature","properties":{"osm_id":852198155,"name":"Portway","ref":"A4","corridor":"A4 Portway"},"geometry":{"type":"LineString","coordinates":[[-2.6856325,51.4881716],[-2.6859985,51.4884556],[-2.6863155,51.4887118]]}},{"type":"Feature","properties":{"osm_id":853035226,"name":"Portway","ref":"A4","corridor":"A4 Portway"},"geometry":{"type":"LineString","coordinates":[[-2.6686444,51.4875032],[-2.6685271,51.4875371]]}},{"type":"Feature","properties":{"osm_id":853035227,"name":"Portway","ref":"A4","corridor":"A4 Portway"},"geometry":{"type":"LineString","coordinates":[[-2.6685271,51.4875371],[-2.668342,51.4875934]]}},{"type":"Feature","properties":{"osm_id":853035228,"name":"Portway","ref":"A4","corridor":"A4 Portway"},"geometry":{"type":"LineString","coordinates":[[-2.6682937,51.4875163],[-2.6684518,51.4874669]]}},{"type":"Feature","properties":{"osm_id":853035229,"name":"Portway","ref":"A4","corridor":"A4 Portway"},"geometry":{"type":"LineString","coordinates":[[-2.6672354,51.4878755],[-2.6672678,51.4878456],[-2.6679489,51.4876258],[-2.6682937,51.4875163]]}},{"type":"Feature","properties":{"osm_id":853035235,"name":"Portway","ref":"A4","corridor":"A4 Portway"},"geometry":{"type":"LineString","coordinates":[[-2.682382,51.4859729],[-2.6825368,51.4860658],[-2.6827175,51.4861776],[-2.6832289,51.4864869],[-2.6835923,51.4867077],[-2.6839563,51.4869407],[-2.6843276,51.4871974],[-2.6847996,51.4875324],[-2.6852094,51.4878428],[-2.6856325,51.4881716]]}},{"type":"Feature","properties":{"osm_id":853035237,"name":"Portway","ref":"A4","corridor":"A4 Portway"},"geometry":{"type":"LineString","coordinates":[[-2.6866878,51.4890055],[-2.6871164,51.4894179]]}},{"type":"Feature","properties":{"osm_id":977861424,"name":"Portway","ref":"A4","corridor":"A4 Portway"},"geometry":{"type":"LineString","coordinates":[[-2.6297417,51.4577035],[-2.6295705,51.4575035]]}},{"type":"Feature","properties":{"osm_id":977861426,"name":"Portway","ref":"A4","corridor":"A4 Portway"},"geometry":{"type":"LineString","coordinates":[[-2.6295705,51.4575035],[-2.6294278,51.4573519],[-2.629381,51.4573021],[-2.6293515,51.4572708]]}},{"type":"Feature","properties":{"osm_id":977861427,"name":"Portway","ref":"A4","corridor":"A4 Portway"},"geometry":{"type":"LineString","coordinates":[[-2.6291909,51.4570866],[-2.6290244,51.4569541]]}},{"type":"Feature","properties":{"osm_id":1017995150,"name":"Portway","ref":"A4","corridor":"A4 Portway"},"geometry":{"type":"LineString","coordinates":[[-2.6690529,51.4873834],[-2.6688692,51.4874368]]}},{"type":"Feature","properties":{"osm_id":1017995151,"name":"Portway","ref":"A4","corridor":"A4 Portway"},"geometry":{"type":"LineString","coordinates":[[-2.6688692,51.4874368],[-2.6686444,51.4875032]]}},{"type":"Feature","properties":{"osm_id":1017995153,"name":"Portway","ref":"A4","corridor":"A4 Portway"},"geometry":{"type":"LineString","coordinates":[[-2.6329601,51.4676494],[-2.6328052,51.4675097],[-2.6325611,51.4672734],[-2.6323862,51.4670792]]}},{"type":"Feature","properties":{"osm_id":1017995154,"name":"Portway","ref":"A4","corridor":"A4 Portway"},"geometry":{"type":"LineString","coordinates":[[-2.6333093,51.4679106],[-2.6330775,51.4677355],[-2.6329601,51.4676494]]}},{"type":"Feature","properties":{"osm_id":1017995155,"name":"Portway","ref":"A4","corridor":"A4 Portway"},"geometry":{"type":"LineString","coordinates":[[-2.6365103,51.4695268],[-2.6358086,51.4692163],[-2.6356043,51.469108],[-2.6353191,51.4689755],[-2.6345881,51.468643],[-2.6343034,51.4685023],[-2.633889,51.4682787],[-2.6333093,51.4679106]]}},{"type":"Feature","properties":{"osm_id":1017995156,"name":"Portway","ref":"A4","corridor":"A4 Portway"},"geometry":{"type":"LineString","coordinates":[[-2.6478234,51.4787335],[-2.6479945,51.4782759]]}},{"type":"Feature","properties":{"osm_id":1018635750,"name":"Portway","ref":"A4","corridor":"A4 Portway"},"geometry":{"type":"LineString","coordinates":[[-2.6899404,51.4966066],[-2.6900934,51.4968999],[-2.6901725,51.4970393],[-2.6902666,51.4971626]]}},{"type":"Feature","properties":{"osm_id":1107191673,"name":"Portway","ref":"A4","corridor":"A4 Portway"},"geometry":{"type":"LineString","coordinates":[[-2.6890516,51.4915516],[-2.6891834,51.4918361]]}},{"type":"Feature","properties":{"osm_id":1107191674,"name":"Portway","ref":"A4","corridor":"A4 Portway"},"geometry":{"type":"LineString","coordinates":[[-2.6889646,51.4913353],[-2.6889979,51.4914416],[-2.6890193,51.4914798],[-2.6890516,51.4915516]]}},{"type":"Feature","properties":{"osm_id":1253910149,"name":"Portway","ref":"A4","corridor":"A4 Portway"},"geometry":{"type":"LineString","coordinates":[[-2.6684518,51.4874669],[-2.6685617,51.4874348]]}},{"type":"Feature","properties":{"osm_id":1253910150,"name":"Portway","ref":"A4","corridor":"A4 Portway"},"geometry":{"type":"LineString","coordinates":[[-2.6685617,51.4874348],[-2.6688101,51.4873609]]}},{"type":"Feature","properties":{"osm_id":1253910151,"name":"Portway","ref":"A4","corridor":"A4 Portway"},"geometry":{"type":"LineString","coordinates":[[-2.6688101,51.4873609],[-2.6689865,51.487313]]}},{"type":"Feature","properties":{"osm_id":1365580847,"name":"Portway","ref":"A4","corridor":"A4 Portway"},"geometry":{"type":"LineString","coordinates":[[-2.6553193,51.486603],[-2.6549037,51.4863345],[-2.6546658,51.4861808]]}},{"type":"Feature","properties":{"osm_id":1365580848,"name":"Portway","ref":"A4","corridor":"A4 Portway"},"geometry":{"type":"LineString","coordinates":[[-2.6778687,51.4850935],[-2.6772134,51.4851482],[-2.6771698,51.4851517],[-2.6771318,51.4851547],[-2.6768921,51.4851745]]}},{"type":"Feature","properties":{"osm_id":1365580852,"name":"Portway","ref":"A4","corridor":"A4 Portway"},"geometry":{"type":"LineString","coordinates":[[-2.6863155,51.4887118],[-2.6864626,51.4888274],[-2.6866878,51.4890055]]}},{"type":"Feature","properties":{"osm_id":1507870736,"name":"Portway","ref":"A4","corridor":"A4 Portway"},"geometry":{"type":"LineString","coordinates":[[-2.6681781,51.4876369],[-2.6679879,51.4876899],[-2.6673073,51.487884],[-2.6672354,51.4878755]]}},{"type":"Feature","properties":{"osm_id":1508570698,"name":"Portway","ref":"A4","corridor":"A4 Portway"},"geometry":{"type":"LineString","coordinates":[[-2.6874855,51.4896931],[-2.6875533,51.4897593]]}}]}