{"type":"FeatureCollection","features":[{"type":"Feature","properties":{"osm_id":3994824,"name":"Redcliff Hill","ref":"A38","corridor":"Bedminster Bridges"},"geometry":{"type":"LineString","coordinates":[[-2.5900815,51.4487727],[-2.5901484,51.4487333],[-2.5902184,51.4486839],[-2.5902655,51.4486358],[-2.5903052,51.4485805],[-2.5903282,51.4485317],[-2.5903569,51.4483918]]}},{"type":"Feature","properties":{"osm_id":3994825,"name":"Redcliff Hill","ref":"A38","corridor":"Bedminster Bridges"},"geometry":{"type":"LineString","coordinates":[[-2.5912361,51.4460378],[-2.5911983,51.4460655],[-2.5911486,51.4461053],[-2.5911065,51.4461427]]}},{"type":"Feature","properties":{"osm_id":32846153,"name":"Bedminster Parade","ref":"A38","corridor":"Bedminster Bridges"},"geometry":{"type":"LineString","coordinates":[[-2.5912559,51.4452155],[-2.5914159,51.4451585]]}},{"type":"Feature","properties":{"osm_id":107437537,"name":"East Street","ref":"A38","corridor":"Bedminster Bridges"},"geometry":{"type":"LineString","coordinates":[[-2.5957155,51.4424031],[-2.5957025,51.4424145],[-2.5956884,51.4424283],[-2.5955909,51.4424953],[-2.5953995,51.4426401],[-2.5953262,51.4426955],[-2.5946977,51.4431995]]}},{"type":"Feature","properties":{"osm_id":107437561,"name":"Bedminster Parade","ref":"A38","corridor":"Bedminster Bridges"},"geometry":{"type":"LineString","coordinates":[[-2.5944379,51.4433936],[-2.5944133,51.4434131],[-2.5940869,51.443672],[-2.5940438,51.4437023],[-2.5938419,51.443844]]}},{"type":"Feature","properties":{"osm_id":121381301,"name":"Bedminster Parade","ref":"A38","corridor":"Bedminster Bridges"},"geometry":{"type":"LineString","coordinates":[[-2.5914159,51.4451585],[-2.5915125,51.4451472],[-2.5915748,51.445151],[-2.5916222,51.4451615],[-2.5916679,51.4451749],[-2.5917043,51.4451914],[-2.5917118,51.4451975],[-2.5917258,51.445209],[-2.5917971,51.4452892]]}},{"type":"Feature","properties":{"osm_id":121389308,"name":"Redcliff Hill","ref":"A38","corridor":"Bedminster Bridges"},"geometry":{"type":"LineString","coordinates":[[-2.5905169,51.4482143],[-2.5904316,51.4485969],[-2.59043,51.4486263],[-2.5904375,51.4486663],[-2.5904521,51.4487058],[-2.5904737,51.4487451],[-2.5905076,51.4487939]]}},{"type":"Feature","properties":{"osm_id":126832771,"name":"Bedminster Parade","ref":"A38","corridor":"Bedminster Bridges"},"geometry":{"type":"LineString","coordinates":[[-2.5927252,51.4447476],[-2.5926471,51.4448086],[-2.5925877,51.4448482],[-2.5924986,51.4448898],[-2.5923049,51.4449602],[-2.5920363,51.4450508]]}},{"type":"Feature","properties":{"osm_id":145816669,"name":"East Street","corridor":"Bedminster Bridges"},"geometry":{"type":"LineString","coordinates":[[-2.5986784,51.4412928],[-2.5984227,51.4413902],[-2.5982182,51.4415121],[-2.5980371,51.4416053],[-2.5977063,51.4417735],[-2.5972115,51.4419031],[-2.5971094,51.4419439],[-2.5969533,51.4419869],[-2.5965696,51.4420885],[-2.5963812,51.4421473],[-2.5962776,51.4421846],[-2.5958925,51.4423351],[-2.5958433,51.4423552],[-2.5957633,51.4423577]]}},{"type":"Feature","properties":{"osm_id":180662479,"name":"East Street","ref":"A38","corridor":"Bedminster Bridges"},"geometry":{"type":"LineString","coordinates":[[-2.5957633,51.4423577],[-2.5957155,51.4424031]]}},{"type":"Feature","properties":{"osm_id":202761600,"name":"Bedminster Parade","ref":"A38","corridor":"Bedminster Bridges"},"geometry":{"type":"LineString","coordinates":[[-2.5914159,51.4451585],[-2.5915904,51.4451005],[-2.5916473,51.4450824],[-2.5916999,51.445066],[-2.5919792,51.4449832]]}},{"type":"Feature","properties":{"osm_id":203792898,"name":"Bedminster Parade","ref":"A38","corridor":"Bedminster Bridges"},"geometry":{"type":"LineString","coordinates":[[-2.5938419,51.443844],[-2.5937264,51.4439152],[-2.5935493,51.4440457],[-2.5933287,51.4442351],[-2.5932677,51.4442875],[-2.5931671,51.4443739],[-2.5927252,51.4447476]]}},{"type":"Feature","properties":{"osm_id":203794617,"name":"Redcliff Hill","ref":"A38","corridor":"Bedminster Bridges"},"geometry":{"type":"LineString","coordinates":[[-2.5906557,51.4471841],[-2.5907105,51.4470055],[-2.5907311,51.4468939],[-2.5907758,51.4466772],[-2.5907887,51.4465969]]}},{"type":"Feature","properties":{"osm_id":229612931,"name":"East Street","ref":"A38","corridor":"Bedminster Bridges"},"geometry":{"type":"LineString","coordinates":[[-2.5946977,51.4431995],[-2.5944379,51.4433936]]}},{"type":"Feature","properties":{"osm_id":229612935,"name":"Redcliff Hill","ref":"A38","corridor":"Bedminster Bridges"},"geometry":{"type":"LineString","coordinates":[[-2.5908544,51.4462147],[-2.5908599,51.4461429],[-2.5908418,51.446025],[-2.5908154,51.4459682]]}},{"type":"Feature","properties":{"osm_id":229612936,"name":"Redcliff Hill","ref":"A38","corridor":"Bedminster Bridges"},"geometry":{"type":"LineString","coordinates":[[-2.5907887,51.4465969],[-2.5908252,51.4463946],[-2.590842,51.4462926],[-2.5908515,51.4462424],[-2.5908544,51.4462147]]}},{"type":"Feature","properties":{"osm_id":229612938,"name":"Redcliff Hill","ref":"A38","corridor":"Bedminster Bridges"},"geometry":{"type":"LineString","coordinates":[[-2.5903569,51.4483918],[-2.5904135,51.4481339],[-2.5904998,51.4477909],[-2.5905738,51.4474804],[-2.5906256,51.4472853],[-2.5906557,51.4471841]]}},{"type":"Feature","properties":{"osm_id":248853629,"name":"Bedminster Parade","ref":"A38","corridor":"Bedminster Bridges"},"geometry":{"type":"LineString","coordinates":[[-2.5920363,51.4450508],[-2.5919778,51.4450722],[-2.5919355,51.4450932],[-2.5919075,51.4451106],[-2.5918713,51.4451398],[-2.5918438,51.4451703],[-2.5918151,51.4452265],[-2.5917971,51.4452892]]}},{"type":"Feature","properties":{"osm_id":248853632,"name":"Redcliff Hill","ref":"A38","corridor":"Bedminster Bridges"},"geometry":{"type":"LineString","coordinates":[[-2.5910421,51.4462241],[-2.5909976,51.4463109],[-2.5909719,51.4463663],[-2.5909583,51.4464261],[-2.5909286,51.4466366]]}},{"type":"Feature","properties":{"osm_id":469255579,"name":"Bedminster Parade","ref":"A38","corridor":"Bedminster Bridges"},"geometry":{"type":"LineString","coordinates":[[-2.5919792,51.4449832],[-2.5924653,51.4448317],[-2.5927252,51.4447476]]}},{"type":"Feature","properties":{"osm_id":1392740514,"name":"Redcliff Hill","ref":"A38","corridor":"Bedminster Bridges"},"geometry":{"type":"LineString","coordinates":[[-2.5911065,51.4461427],[-2.5910801,51.4461687],[-2.5910655,51.4461877],[-2.5910421,51.4462241]]}},{"type":"Feature","properties":{"osm_id":1392740515,"name":"Redcliff Hill","ref":"A38","corridor":"Bedminster Bridges"},"geometry":{"type":"LineString","coordinates":[[-2.5908453,51.4470263],[-2.5907943,51.447199],[-2.5907511,51.4473202],[-2.590742,51.4473527],[-2.5906758,51.4475429],[-2.5905169,51.4482143]]}},{"type":"Feature","properties":{"osm_id":1392740516,"name":"Redcliff Hill","ref":"A38","corridor":"Bedminster Bridges"},"geometry":{"type":"LineString","coordinates":[[-2.5909286,51.4466366],[-2.590914,51.4467375],[-2.590889,51.4468653],[-2.5908453,51.4470263]]}},{"type":"Feature","properties":{"osm_id":34639888,"name":"Bedminster Bridge Roundabout","corridor":"Bedminster Bridges"},"geometry":{"type":"LineString","coordinates":[[-2.59171,51.4456153],[-2.5915352,51.4458033]]}},{"type":"Feature","properties":{"osm_id":34639889,"name":"Bedminster Bridge Roundabout","corridor":"Bedminster Bridges"},"geometry":{"type":"LineString","coordinates":[[-2.5913523,51.4459693],[-2.5913029,51.4460047],[-2.591247,51.446035]]}},{"type":"Feature","properties":{"osm_id":39020138,"name":"Bedminster Bridge Roundabout","corridor":"Bedminster Bridges"},"geometry":{"type":"LineString","coordinates":[[-2.5912559,51.4452155],[-2.5913466,51.4452096],[-2.5914194,51.4452103],[-2.5915288,51.4452203],[-2.5916146,51.4452436],[-2.5916786,51.4452704],[-2.5917373,51.4453185],[-2.5917694,51.4453656],[-2.5917763,51.4454092]]}},{"type":"Feature","properties":{"osm_id":121381299,"name":"Bedminster Bridge Roundabout","corridor":"Bedminster Bridges"},"geometry":{"type":"LineString","coordinates":[[-2.5914392,51.4458808],[-2.5913942,51.4459309],[-2.5913523,51.4459693]]}},{"type":"Feature","properties":{"osm_id":180662477,"name":"Bedminster Bridge Roundabout","corridor":"Bedminster Bridges"},"geometry":{"type":"LineString","coordinates":[[-2.5917763,51.4454092],[-2.5917717,51.4454474],[-2.5917627,51.4454914],[-2.5917441,51.4455416],[-2.5917197,51.4455901],[-2.59171,51.4456153]]}},{"type":"Feature","properties":{"osm_id":203633552,"name":"Bedminster Bridge Roundabout","corridor":"Bedminster Bridges"},"geometry":{"type":"LineString","coordinates":[[-2.591247,51.446035],[-2.5912361,51.4460378]]}},{"type":"Feature","properties":{"osm_id":1506069633,"name":"Bedminster Bridge Roundabout","corridor":"Bedminster Bridges"},"geometry":{"type":"LineString","coordinates":[[-2.5915352,51.4458033],[-2.5914816,51.4458364],[-2.5914392,51.4458808]]}}]}