{"type":"FeatureCollection","features":[{"type":"Feature","properties":{"osm_id":3526934,"name":"Newfoundland Circus","ref":"A4032","corridor":"Bond Street"},"geometry":{"type":"LineString","coordinates":[[-2.5829821,51.4602485],[-2.5827983,51.4602954],[-2.5826941,51.4603119],[-2.5825948,51.4603133],[-2.5825112,51.4602927],[-2.5823311,51.4602364]]}},{"type":"Feature","properties":{"osm_id":3526937,"name":"Newfoundland Circus","corridor":"Bond Street"},"geometry":{"type":"LineString","coordinates":[[-2.5823311,51.4602364],[-2.582482,51.4601039],[-2.5829031,51.4599276],[-2.5829501,51.4599079]]}},{"type":"Feature","properties":{"osm_id":3526938,"name":"Newfoundland Circus","corridor":"Bond Street"},"geometry":{"type":"LineString","coordinates":[[-2.5840666,51.4597591],[-2.583973,51.4597986],[-2.5839068,51.4598285],[-2.5829821,51.4602485]]}},{"type":"Feature","properties":{"osm_id":3527219,"name":"Newfoundland Circus","corridor":"Bond Street"},"geometry":{"type":"LineString","coordinates":[[-2.5835558,51.4596597],[-2.5836998,51.4596406],[-2.5838986,51.4595955],[-2.5840459,51.459565]]}},{"type":"Feature","properties":{"osm_id":3527220,"name":"Bond Street","ref":"A4044","corridor":"Bond Street"},"geometry":{"type":"LineString","coordinates":[[-2.5901682,51.4596839],[-2.5899505,51.4595861]]}},{"type":"Feature","properties":{"osm_id":4013288,"name":"Newfoundland Road","corridor":"Bond Street"},"geometry":{"type":"LineString","coordinates":[[-2.5807185,51.461573],[-2.580682,51.4615727],[-2.5806395,51.4615793],[-2.5805868,51.4615969],[-2.580548,51.461617],[-2.580507,51.4616429],[-2.5804762,51.461668],[-2.5803778,51.461768]]}},{"type":"Feature","properties":{"osm_id":26230151,"name":"Newfoundland Road","corridor":"Bond Street"},"geometry":{"type":"LineString","coordinates":[[-2.5773391,51.4644565],[-2.5773172,51.4645096],[-2.5773011,51.4645372],[-2.5772746,51.4645731],[-2.5770704,51.4647896],[-2.5770587,51.46481],[-2.5770505,51.4648276],[-2.577045,51.4648503]]}},{"type":"Feature","properties":{"osm_id":37282864,"name":"Bond Street","ref":"A4044","corridor":"Bond Street"},"geometry":{"type":"LineString","coordinates":[[-2.5844447,51.4594665],[-2.5845999,51.4594112],[-2.5848234,51.4593388],[-2.584863,51.4593282],[-2.5850288,51.459278],[-2.5853621,51.4592077],[-2.5856103,51.4591879],[-2.585852,51.4591979],[-2.586881,51.4592856],[-2.586964,51.4592919],[-2.5872243,51.4593149]]}},{"type":"Feature","properties":{"osm_id":107378822,"name":"Newfoundland Road","corridor":"Bond Street"},"geometry":{"type":"LineString","coordinates":[[-2.5763987,51.4656398],[-2.5763866,51.4656351],[-2.5763736,51.465629],[-2.5763632,51.4656217],[-2.5763548,51.4656132],[-2.5763477,51.4656032],[-2.5763449,51.465591],[-2.5763439,51.4655786],[-2.5763481,51.4655661],[-2.5766694,51.4652091],[-2.5769622,51.4648823],[-2.5769725,51.4648738],[-2.5769833,51.4648666],[-2.5769939,51.4648613],[-2.5770062,51.4648566],[-2.5770242,51.4648527],[-2.577045,51.4648503]]}},{"type":"Feature","properties":{"osm_id":108234587,"name":"Bond Street","corridor":"Bond Street"},"geometry":{"type":"LineString","coordinates":[[-2.5840459,51.459565],[-2.5841445,51.4595424],[-2.5844447,51.4594665]]}},{"type":"Feature","properties":{"osm_id":194944264,"name":"Bond Street","ref":"A4044","corridor":"Bond Street"},"geometry":{"type":"LineString","coordinates":[[-2.5872243,51.4593149],[-2.5877902,51.45933],[-2.5882204,51.4593409]]}},{"type":"Feature","properties":{"osm_id":194944269,"name":"Bond Street","ref":"A4044","corridor":"Bond Street"},"geometry":{"type":"LineString","coordinates":[[-2.5872066,51.4594245],[-2.5871216,51.4594191],[-2.5870536,51.459414],[-2.5868767,51.459397],[-2.586292,51.4593265],[-2.5860495,51.4593033],[-2.5858336,51.4592919],[-2.5856308,51.4592966],[-2.5854224,51.4593165],[-2.5851942,51.4593633],[-2.5851593,51.4593728],[-2.5851025,51.4593896],[-2.584881,51.4594595],[-2.5846506,51.4595323],[-2.5842706,51.4596736],[-2.5842083,51.4596995]]}},{"type":"Feature","properties":{"osm_id":203022640,"name":"Bond Street","ref":"A4044","corridor":"Bond Street"},"geometry":{"type":"LineString","coordinates":[[-2.5880591,51.4594324],[-2.5879326,51.4594344],[-2.5875018,51.4594339],[-2.5872066,51.4594245]]}},{"type":"Feature","properties":{"osm_id":203022643,"name":"Bond Street","ref":"A4044","corridor":"Bond Street"},"geometry":{"type":"LineString","coordinates":[[-2.5899505,51.4595861],[-2.5898529,51.4595266],[-2.5897076,51.4594548],[-2.5895881,51.4594213],[-2.5894382,51.4594019]]}},{"type":"Feature","properties":{"osm_id":365406619,"name":"Bond Street","ref":"A4044","corridor":"Bond Street"},"geometry":{"type":"LineString","coordinates":[[-2.5895789,51.4593167],[-2.5899337,51.4593135],[-2.5899697,51.4593135],[-2.5900195,51.459313],[-2.5902104,51.4593056]]}},{"type":"Feature","properties":{"osm_id":365415331,"name":"Bond Street","ref":"A4044","corridor":"Bond Street"},"geometry":{"type":"LineString","coordinates":[[-2.5894382,51.4594019],[-2.5892123,51.4594016],[-2.589061,51.4594061],[-2.5889915,51.459406],[-2.5888748,51.4594074],[-2.5883261,51.4594346],[-2.5880591,51.4594324]]}},{"type":"Feature","properties":{"osm_id":382884738,"name":"Bond Street","ref":"A4044","corridor":"Bond Street"},"geometry":{"type":"LineString","coordinates":[[-2.5842083,51.4596995],[-2.5840666,51.4597591]]}},{"type":"Feature","properties":{"osm_id":519432808,"name":"Bond Street","ref":"A4044","corridor":"Bond Street"},"geometry":{"type":"LineString","coordinates":[[-2.5891863,51.4593191],[-2.5895252,51.4593163],[-2.5895789,51.4593167]]}},{"type":"Feature","properties":{"osm_id":686353632,"name":"Bond Street","ref":"A4044","corridor":"Bond Street"},"geometry":{"type":"LineString","coordinates":[[-2.5882204,51.4593409],[-2.5890042,51.4593232],[-2.5891863,51.4593191]]}},{"type":"Feature","properties":{"osm_id":952165607,"name":"Newfoundland Road","corridor":"Bond Street"},"geometry":{"type":"LineString","coordinates":[[-2.5777312,51.4641427],[-2.5774584,51.4643473],[-2.5773391,51.4644565]]}},{"type":"Feature","properties":{"osm_id":1364006095,"name":"Newfoundland Road","corridor":"Bond Street"},"geometry":{"type":"LineString","coordinates":[[-2.5803778,51.461768],[-2.5798621,51.4623075],[-2.5796744,51.4624906],[-2.5793882,51.4627759],[-2.5791957,51.4629641],[-2.5790379,51.4631058],[-2.5788124,51.4632907],[-2.5782712,51.4637171],[-2.5777312,51.4641427]]}},{"type":"Feature","properties":{"osm_id":1413912970,"name":"Newfoundland Circus","corridor":"Bond Street"},"geometry":{"type":"LineString","coordinates":[[-2.5829501,51.4599079],[-2.5831765,51.459813],[-2.5835558,51.4596597]]}}]}