{"type":"FeatureCollection","features":[{"type":"Feature","properties":{"osm_id":4234842,"name":"Pembroke Street","corridor":"Bond Street cycle route"},"geometry":{"type":"LineString","coordinates":[[-2.5873836,51.4599989],[-2.5865096,51.4601412],[-2.5863432,51.4601771],[-2.5856936,51.4603664]]}},{"type":"Feature","properties":{"osm_id":72343225,"name":"Wilson Street","corridor":"Bond Street cycle route"},"geometry":{"type":"LineString","coordinates":[[-2.5847023,51.4606087],[-2.58397,51.4608134],[-2.5823631,51.4612995],[-2.5822997,51.4613282],[-2.5821764,51.4613989]]}},{"type":"Feature","properties":{"osm_id":72343243,"name":"Portland Square","corridor":"Bond Street cycle route"},"geometry":{"type":"LineString","coordinates":[[-2.5851477,51.4606754],[-2.5853154,51.4606319],[-2.5853238,51.4606294],[-2.5854102,51.4606038],[-2.5855161,51.4605919],[-2.5856324,51.4605958],[-2.5857105,51.4606156],[-2.585789,51.4606428],[-2.5858681,51.4606807],[-2.5859193,51.4607236]]}},{"type":"Feature","properties":{"osm_id":235296249,"name":"Portland Square","corridor":"Bond Street cycle route"},"geometry":{"type":"LineString","coordinates":[[-2.5847499,51.4606745],[-2.5847939,51.4607012],[-2.5848462,51.4607204],[-2.5849024,51.4607302],[-2.5849619,51.4607262],[-2.5851477,51.4606754]]}},{"type":"Feature","properties":{"osm_id":692748721,"name":"Portland Square","corridor":"Bond Street cycle route"},"geometry":{"type":"LineString","coordinates":[[-2.5849499,51.4609461],[-2.5847499,51.4606745]]}}]}