{"type":"FeatureCollection","features":[{"type":"Feature","properties":{"osm_id":5173883,"name":"School Close","corridor":"Bristol School Streets","school":"Wansdyke Primary School"},"geometry":{"type":"LineString","coordinates":[[-2.5804782,51.4075533],[-2.5806897,51.4070716],[-2.5809199,51.4063385],[-2.5809419,51.4062685]]}},{"type":"Feature","properties":{"osm_id":107175620,"name":"Ellfield Close","corridor":"Bristol School Streets","school":"St Peter's CofE Primary School"},"geometry":{"type":"LineString","coordinates":[[-2.6223644,51.4170698],[-2.6216316,51.4165631]]}},{"type":"Feature","properties":{"osm_id":8454004,"name":"Victoria Avenue","corridor":"Bristol School Streets","school":"Redfield Educate Together Primary Academy"},"geometry":{"type":"LineString","coordinates":[[-2.5545936,51.4577278],[-2.5546707,51.4577209],[-2.5547893,51.4577103],[-2.5559134,51.4575694],[-2.5560408,51.4575539]]}},{"type":"Feature","properties":{"osm_id":25972805,"name":"Victoria Avenue","corridor":"Bristol School Streets","school":"Redfield Educate Together Primary Academy"},"geometry":{"type":"LineString","coordinates":[[-2.5597095,51.4570945],[-2.5601199,51.4570263],[-2.5611146,51.4568754],[-2.5614474,51.4568199],[-2.5617514,51.4567659],[-2.5619049,51.4567261]]}},{"type":"Feature","properties":{"osm_id":515693489,"name":"Victoria Avenue","corridor":"Bristol School Streets","school":"Redfield Educate Together Primary Academy"},"geometry":{"type":"LineString","coordinates":[[-2.5619049,51.4567261],[-2.5619572,51.4567089],[-2.5622063,51.4566535],[-2.5622744,51.4566339]]}},{"type":"Feature","properties":{"osm_id":1003154800,"name":"Victoria Avenue","corridor":"Bristol School Streets","school":"Redfield Educate Together Primary Academy"},"geometry":{"type":"LineString","coordinates":[[-2.5584451,51.4572753],[-2.5585254,51.457264]]}},{"type":"Feature","properties":{"osm_id":1003154804,"name":"Victoria Avenue","corridor":"Bristol School Streets","school":"Redfield Educate Together Primary Academy"},"geometry":{"type":"LineString","coordinates":[[-2.5582091,51.4572727],[-2.5582864,51.4572674],[-2.558343,51.4572753],[-2.5583833,51.4572809],[-2.5584451,51.4572753]]}},{"type":"Feature","properties":{"osm_id":1389889178,"name":"Victoria Avenue","corridor":"Bristol School Streets","school":"Redfield Educate Together Primary Academy"},"geometry":{"type":"LineString","coordinates":[[-2.5573045,51.4573956],[-2.5578702,51.4573197],[-2.5579831,51.4572997]]}},{"type":"Feature","properties":{"osm_id":1389905777,"name":"Victoria Avenue","corridor":"Bristol School Streets","school":"Redfield Educate Together Primary Academy"},"geometry":{"type":"LineString","coordinates":[[-2.5579831,51.4572997],[-2.5581414,51.4572785],[-2.5581783,51.4572744],[-2.5582091,51.4572727]]}},{"type":"Feature","properties":{"osm_id":1389905778,"name":"Victoria Avenue","corridor":"Bristol School Streets","school":"Redfield Educate Together Primary Academy"},"geometry":{"type":"LineString","coordinates":[[-2.5587041,51.4572404],[-2.5590077,51.4571954],[-2.5591527,51.4571705],[-2.5594044,51.4571361],[-2.5597095,51.4570945]]}},{"type":"Feature","properties":{"osm_id":1390298127,"name":"Victoria Avenue","corridor":"Bristol School Streets","school":"Redfield Educate Together Primary Academy"},"geometry":{"type":"LineString","coordinates":[[-2.5585254,51.457264],[-2.5587041,51.4572404]]}},{"type":"Feature","properties":{"osm_id":1415220015,"name":"Victoria Avenue","corridor":"Bristol School Streets","school":"Redfield Educate Together Primary Academy"},"geometry":{"type":"LineString","coordinates":[[-2.5560408,51.4575539],[-2.5566795,51.4574795]]}},{"type":"Feature","properties":{"osm_id":1415220016,"name":"Victoria Avenue","corridor":"Bristol School Streets","school":"Redfield Educate Together Primary Academy"},"geometry":{"type":"LineString","coordinates":[[-2.5566795,51.4574795],[-2.5571011,51.4574229],[-2.5573045,51.4573956]]}},{"type":"Feature","properties":{"osm_id":4436654,"name":"Atlas Road","corridor":"Bristol School Streets","school":"Victoria Park Primary School"},"geometry":{"type":"LineString","coordinates":[[-2.5893806,51.4364311],[-2.5893408,51.4365291],[-2.5892921,51.436571],[-2.5886519,51.4369324],[-2.5880711,51.4372802]]}},{"type":"Feature","properties":{"osm_id":4436660,"name":"Raymend Road","corridor":"Bristol School Streets","school":"Victoria Park Primary School"},"geometry":{"type":"LineString","coordinates":[[-2.5902908,51.4388994],[-2.5897346,51.4384968],[-2.5894593,51.4383006],[-2.5891594,51.4380929],[-2.5886061,51.4376897]]}},{"type":"Feature","properties":{"osm_id":4439163,"name":"Raymend Road","corridor":"Bristol School Streets","school":"Victoria Park Primary School"},"geometry":{"type":"LineString","coordinates":[[-2.5871718,51.4366243],[-2.5880711,51.4372802]]}},{"type":"Feature","properties":{"osm_id":1343490849,"name":"Raymend Road","corridor":"Bristol School Streets","school":"Victoria Park Primary School"},"geometry":{"type":"LineString","coordinates":[[-2.5880711,51.4372802],[-2.5886061,51.4376897]]}},{"type":"Feature","properties":{"osm_id":780102010,"name":"Abingdon Road","corridor":"Bristol School Streets","school":"Chester Park Junior School"},"geometry":{"type":"LineString","coordinates":[[-2.5317603,51.4739802],[-2.5318466,51.4740168],[-2.5322146,51.474173],[-2.5323165,51.4742686],[-2.5323945,51.4743601],[-2.5324604,51.4744375]]}},{"type":"Feature","properties":{"osm_id":1074568239,"name":"Abingdon Road","corridor":"Bristol School Streets","school":"Chester Park Junior School"},"geometry":{"type":"LineString","coordinates":[[-2.5305877,51.4733676],[-2.5305762,51.4733439],[-2.5305502,51.4732905],[-2.5305351,51.4731613],[-2.5305682,51.4730284],[-2.5307816,51.4727631],[-2.5308208,51.4727131],[-2.5308778,51.4726426],[-2.5309218,51.4725988],[-2.5309613,51.4725486],[-2.5317177,51.4716371]]}},{"type":"Feature","properties":{"osm_id":1457177462,"name":"Abingdon Road","corridor":"Bristol School Streets","school":"Chester Park Junior School"},"geometry":{"type":"LineString","coordinates":[[-2.5317603,51.4739802],[-2.5316697,51.4739428],[-2.5308597,51.4736087],[-2.5307635,51.4735507],[-2.5306884,51.4735001],[-2.5306012,51.4733953],[-2.5305877,51.4733676]]}},{"type":"Feature","properties":{"osm_id":152262096,"name":"Cherry Tree Crescent","corridor":"Bristol School Streets","school":"Minerva Primary Academy"},"geometry":{"type":"LineString","coordinates":[[-2.5160793,51.472441],[-2.5161602,51.4723886],[-2.5162507,51.4723422],[-2.516356,51.4722967],[-2.5164673,51.4722591],[-2.5166041,51.4722211],[-2.516716,51.4721944],[-2.516816,51.4721781],[-2.5169353,51.4721643],[-2.5170661,51.4721576],[-2.5172404,51.472158],[-2.5173658,51.4721639],[-2.5174852,51.4721798],[-2.5176348,51.4722051]]}},{"type":"Feature","properties":{"osm_id":152262102,"name":"The Greenway","corridor":"Bristol School Streets","school":"Minerva Primary Academy"},"geometry":{"type":"LineString","coordinates":[[-2.5167635,51.4739682],[-2.5166985,51.4740572],[-2.5166778,51.4740854],[-2.5164731,51.4742856],[-2.5163767,51.474375],[-2.5162787,51.4744494],[-2.5161474,51.4745371],[-2.5160577,51.4745864],[-2.5159107,51.4746578],[-2.5157967,51.4747046],[-2.5156742,51.4747493],[-2.5155117,51.4748036],[-2.5153889,51.4748366],[-2.5152187,51.4748758],[-2.5150841,51.4748994],[-2.5149337,51.4749201],[-2.5147978,51.4749317],[-2.5146507,51.474941],[-2.5144776,51.4749488],[-2.5144375,51.4749518],[-2.5144063,51.4749568],[-2.5143849,51.4749642],[-2.5143574,51.4749803]]}},{"type":"Feature","properties":{"osm_id":1413937576,"name":"Cherry Tree Crescent","corridor":"Bristol School Streets","school":"Minerva Primary Academy"},"geometry":{"type":"LineString","coordinates":[[-2.5176348,51.4722051],[-2.517832,51.4722496],[-2.5180489,51.4723202],[-2.5182633,51.4724323],[-2.5184655,51.4725859],[-2.5185862,51.472724],[-2.5186725,51.4728591],[-2.5187381,51.4730183]]}},{"type":"Feature","properties":{"osm_id":1414240906,"name":"The Greenway","corridor":"Bristol School Streets","school":"Minerva Primary Academy"},"geometry":{"type":"LineString","coordinates":[[-2.5146926,51.4720708],[-2.5148657,51.4720824],[-2.5150998,51.4721115],[-2.5153167,51.4721545],[-2.5155731,51.4722236],[-2.5157655,51.4722878],[-2.5159305,51.4723603],[-2.5160793,51.472441],[-2.5162122,51.4725297],[-2.5163131,51.4726135],[-2.5164028,51.4726996],[-2.516484,51.4727816],[-2.5165522,51.4728602],[-2.5166082,51.4729509],[-2.5166568,51.473044],[-2.5166904,51.4731464],[-2.5167315,51.4732371],[-2.51681,51.473307],[-2.5169146,51.4733628],[-2.5170339,51.4733994]]}},{"type":"Feature","properties":{"osm_id":4821340,"name":"Johnsons Lane","corridor":"Bristol School Streets","school":"Whitehall Primary School"},"geometry":{"type":"LineString","coordinates":[[-2.5538438,51.4640725],[-2.5541744,51.4641176],[-2.5541944,51.4641207],[-2.5545708,51.4641725],[-2.5548999,51.4642151],[-2.5549434,51.4642177],[-2.5551157,51.4642219],[-2.5555584,51.4642165],[-2.5555995,51.4642165],[-2.55564,51.4641985]]}},{"type":"Feature","properties":{"osm_id":24931744,"name":"Woodcroft Avenue","corridor":"Bristol School Streets","school":"Whitehall Primary School"},"geometry":{"type":"LineString","coordinates":[[-2.5545708,51.4641725],[-2.5547971,51.4634963],[-2.5548644,51.4632943]]}},{"type":"Feature","properties":{"osm_id":25891791,"name":"Johnsons Road","corridor":"Bristol School Streets","school":"Whitehall Primary School"},"geometry":{"type":"LineString","coordinates":[[-2.5556392,51.4624867],[-2.5557372,51.4625376],[-2.5557472,51.4625503],[-2.5557506,51.4625619],[-2.5557386,51.4627015],[-2.5556914,51.4629626],[-2.5556286,51.463162],[-2.5555991,51.4633601],[-2.5556168,51.4634084],[-2.5556181,51.4638454],[-2.5556176,51.463919]]}},{"type":"Feature","properties":{"osm_id":1457177463,"name":"Johnsons Road","corridor":"Bristol School Streets","school":"Whitehall Primary School"},"geometry":{"type":"LineString","coordinates":[[-2.5556176,51.463919],[-2.5556464,51.4641772],[-2.55564,51.4641985],[-2.5556609,51.4642221],[-2.5556758,51.4642388],[-2.5556886,51.4643974],[-2.5557401,51.4647727],[-2.5557722,51.46498]]}},{"type":"Feature","properties":{"osm_id":1457177464,"name":"Johnsons Lane","corridor":"Bristol School Streets","school":"Whitehall Primary School"},"geometry":{"type":"LineString","coordinates":[[-2.5523827,51.4639046],[-2.5527154,51.463931],[-2.553103,51.4639617],[-2.5534503,51.4640136],[-2.5538438,51.4640725]]}},{"type":"Feature","properties":{"osm_id":27375921,"name":"College Square","corridor":"Bristol School Streets","school":"Cathedral Primary School and Bristol Cathedral Choir School"},"geometry":{"type":"LineString","coordinates":[[-2.6023591,51.4506178],[-2.6023972,51.4507994],[-2.6024216,51.4509324],[-2.6024243,51.4510026],[-2.6023968,51.4510618],[-2.6023905,51.4511287],[-2.6024003,51.451188],[-2.6023255,51.4512148],[-2.6018433,51.4512649],[-2.6018091,51.4512783],[-2.6017958,51.451286],[-2.6017808,51.4513049],[-2.6017802,51.4513375]]}},{"type":"Feature","properties":{"osm_id":431992575,"name":"College Square","corridor":"Bristol School Streets","school":"Cathedral Primary School and Bristol Cathedral Choir School"},"geometry":{"type":"LineString","coordinates":[[-2.6017802,51.4513375],[-2.6018063,51.4514761]]}},{"type":"Feature","properties":{"osm_id":5218567,"name":"Gladstone Road","corridor":"Bristol School Streets","school":"St Bernadette Catholic Primary School"},"geometry":{"type":"LineString","coordinates":[[-2.5637319,51.4171506],[-2.5637936,51.4167537],[-2.5638401,51.4164549],[-2.5638557,51.416354]]}},{"type":"Feature","properties":{"osm_id":376582491,"name":"Gladstone Road","corridor":"Bristol School Streets","school":"St Bernadette Catholic Primary School"},"geometry":{"type":"LineString","coordinates":[[-2.563734,51.416451],[-2.5638401,51.4164549]]}},{"type":"Feature","properties":{"osm_id":27196125,"name":"Olveston Road","corridor":"Bristol School Streets","school":"Ashley Down Primary School"},"geometry":{"type":"LineString","coordinates":[[-2.5843846,51.4831339],[-2.5856041,51.483794],[-2.5853798,51.4841953]]}},{"type":"Feature","properties":{"osm_id":40788882,"name":"Vowell Close","corridor":"Bristol School Streets","school":"Fair Furlong Primary School"},"geometry":{"type":"LineString","coordinates":[[-2.6106412,51.4062935],[-2.6106488,51.4063339],[-2.6107421,51.4069735],[-2.6107927,51.4070345],[-2.610899,51.4070974],[-2.6110119,51.4071158],[-2.6111908,51.4071309],[-2.6116741,51.4071484],[-2.6119883,51.4071397],[-2.6123101,51.4070763],[-2.612552,51.4070186]]}},{"type":"Feature","properties":{"osm_id":885281195,"name":"Vowell Close","corridor":"Bristol School Streets","school":"Fair Furlong Primary School"},"geometry":{"type":"LineString","coordinates":[[-2.6105304,51.4063379],[-2.6106488,51.4063339]]}},{"type":"Feature","properties":{"osm_id":4335655,"name":"Upton Road","corridor":"Bristol School Streets","school":"Ashton Gate Primary School"},"geometry":{"type":"LineString","coordinates":[[-2.6107313,51.4438188],[-2.6106502,51.4437645],[-2.6104331,51.4436192],[-2.6103992,51.44359],[-2.6101868,51.4433943],[-2.6096529,51.4429183],[-2.6091831,51.4424811],[-2.6088396,51.4421782],[-2.6085964,51.4419697]]}},{"type":"Feature","properties":{"osm_id":513725227,"name":"Upton Road","corridor":"Bristol School Streets","school":"Ashton Gate Primary School"},"geometry":{"type":"LineString","coordinates":[[-2.6116958,51.4443594],[-2.611502,51.4442503]]}},{"type":"Feature","properties":{"osm_id":513725228,"name":"Upton Road","corridor":"Bristol School Streets","school":"Ashton Gate Primary School"},"geometry":{"type":"LineString","coordinates":[[-2.6123762,51.4447149],[-2.612331,51.4446963],[-2.6116958,51.4443594]]}},{"type":"Feature","properties":{"osm_id":1457177466,"name":"Upton Road","corridor":"Bristol School Streets","school":"Ashton Gate Primary School"},"geometry":{"type":"LineString","coordinates":[[-2.611502,51.4442503],[-2.6113623,51.4441649],[-2.6107958,51.4438542],[-2.6107313,51.4438188]]}},{"type":"Feature","properties":{"osm_id":4726110,"name":"John Street","corridor":"Bristol School Streets","school":"St Werburgh's Primary School"},"geometry":{"type":"LineString","coordinates":[[-2.5753617,51.4691891],[-2.5743951,51.4698722]]}},{"type":"Feature","properties":{"osm_id":5137784,"name":"Mogg Street","corridor":"Bristol School Streets","school":"St Werburgh's Primary School"},"geometry":{"type":"LineString","coordinates":[[-2.5738347,51.4695249],[-2.5732794,51.4691808],[-2.5725773,51.4687641]]}},{"type":"Feature","properties":{"osm_id":1457177468,"name":"Mogg Street","corridor":"Bristol School Streets","school":"St Werburgh's Primary School"},"geometry":{"type":"LineString","coordinates":[[-2.5748069,51.4701264],[-2.5743951,51.4698722],[-2.5738347,51.4695249]]}},{"type":"Feature","properties":{"osm_id":89353271,"name":"Corbet Close","corridor":"Bristol School Streets","school":"Oasis Academy Bank Leaze"},"geometry":{"type":"LineString","coordinates":[[-2.6505746,51.5061386],[-2.6504846,51.506144],[-2.6503172,51.5061699],[-2.6502371,51.5061899],[-2.6498269,51.506316],[-2.6497884,51.5063278],[-2.6497608,51.5063373],[-2.6495102,51.5064236],[-2.6492601,51.5064836],[-2.6491347,51.5065071],[-2.6490071,51.5065199],[-2.6488326,51.5065277],[-2.6487414,51.5065274],[-2.6485828,51.5065295]]}},{"type":"Feature","properties":{"osm_id":23418741,"name":"Headley Park Avenue","corridor":"Bristol School Streets","school":"Headley Park Primary School"},"geometry":{"type":"LineString","coordinates":[[-2.6090387,51.4214562],[-2.6087917,51.4211472],[-2.6087603,51.4210872],[-2.6087641,51.4210645],[-2.6088463,51.4206075],[-2.6089315,51.4201726],[-2.6090112,51.4197231],[-2.6090443,51.419677],[-2.6090887,51.4196416],[-2.6095561,51.4193866],[-2.6100538,51.4191292]]}},{"type":"Feature","properties":{"osm_id":1457177465,"name":"Headley Park Avenue","corridor":"Bristol School Streets","school":"Headley Park Primary School"},"geometry":{"type":"LineString","coordinates":[[-2.6102115,51.4177414],[-2.6101976,51.417839],[-2.6101913,51.4179519],[-2.6101886,51.4179879],[-2.6101731,51.418304],[-2.6101368,51.4190414],[-2.6101215,51.4190706],[-2.6100868,51.4191033],[-2.6100538,51.4191292]]}},{"type":"Feature","properties":{"osm_id":23642927,"name":"Springfield Avenue","corridor":"Bristol School Streets","school":"Shirehampton Primary School"},"geometry":{"type":"LineString","coordinates":[[-2.6805239,51.4873214],[-2.6803026,51.4872442],[-2.679779,51.4870249],[-2.6791779,51.4867698],[-2.6788651,51.4866342],[-2.6786064,51.486522],[-2.6780449,51.4862969],[-2.6778415,51.4861843]]}},{"type":"Feature","properties":{"osm_id":23642943,"name":"Springfield Avenue","corridor":"Bristol School Streets","school":"Shirehampton Primary School"},"geometry":{"type":"LineString","coordinates":[[-2.6824009,51.4883386],[-2.6826006,51.4879621]]}},{"type":"Feature","properties":{"osm_id":1457177469,"name":"Springfield Avenue","corridor":"Bristol School Streets","school":"Shirehampton Primary School"},"geometry":{"type":"LineString","coordinates":[[-2.6836006,51.4883797],[-2.6832988,51.4881344]]}},{"type":"Feature","properties":{"osm_id":1457177470,"name":"Springfield Avenue","corridor":"Bristol School Streets","school":"Shirehampton Primary School"},"geometry":{"type":"LineString","coordinates":[[-2.6832988,51.4881344],[-2.6832681,51.4881191],[-2.6826006,51.4879621],[-2.6818898,51.4877918],[-2.6815946,51.4877084],[-2.6814309,51.4876621],[-2.6812412,51.4875822],[-2.6806221,51.4873555],[-2.6805239,51.4873214]]}},{"type":"Feature","properties":{"osm_id":22663493,"name":"Clavell Road","corridor":"Bristol School Streets","school":"Blaise Primary and Nursery"},"geometry":{"type":"LineString","coordinates":[[-2.6223059,51.506126],[-2.623012,51.5070041],[-2.623035,51.5070596],[-2.6230443,51.5070991],[-2.6230427,51.5071358],[-2.6230229,51.5071885],[-2.6229918,51.5072481],[-2.6229333,51.5073004],[-2.6228362,51.5073455],[-2.6217718,51.5076801],[-2.6216844,51.5077076]]}},{"type":"Feature","properties":{"osm_id":4313587,"name":"Sir Johns Lane","corridor":"Bristol School Streets","school":"Glenfrome Primary School"},"geometry":{"type":"LineString","coordinates":[[-2.5654916,51.4784353],[-2.5654354,51.4784039],[-2.5653872,51.4783769],[-2.5648916,51.4782408],[-2.5645178,51.4781444],[-2.5644212,51.478123],[-2.5640864,51.478023],[-2.5630496,51.4777069]]}},{"type":"Feature","properties":{"osm_id":4313588,"name":"South Hayes","corridor":"Bristol School Streets","school":"Glenfrome Primary School"},"geometry":{"type":"LineString","coordinates":[[-2.5654916,51.4784353],[-2.5655732,51.4785156],[-2.5656296,51.4786026],[-2.5656464,51.478713],[-2.5656123,51.4787978],[-2.5649945,51.4798818],[-2.5646721,51.4802481]]}},{"type":"Feature","properties":{"osm_id":4313590,"name":"Parkside Gardens","corridor":"Bristol School Streets","school":"Glenfrome Primary School"},"geometry":{"type":"LineString","coordinates":[[-2.5648916,51.4782408],[-2.5647554,51.4784188],[-2.5646135,51.4787281],[-2.5642732,51.4793796],[-2.5642339,51.4794585],[-2.5642101,51.4795061],[-2.5641467,51.4795633],[-2.5640241,51.4796444],[-2.5639311,51.4797059]]}},{"type":"Feature","properties":{"osm_id":4313591,"name":"Cottisford Road","corridor":"Bristol School Streets","school":"Glenfrome Primary School"},"geometry":{"type":"LineString","coordinates":[[-2.5644212,51.478123],[-2.5641948,51.4784416],[-2.5641837,51.4784573]]}},{"type":"Feature","properties":{"osm_id":642017239,"name":"Sir Johns Lane","corridor":"Bristol School Streets","school":"Glenfrome Primary School"},"geometry":{"type":"LineString","coordinates":[[-2.5688881,51.4801205],[-2.5686727,51.4800243],[-2.5686091,51.479981],[-2.5685734,51.4799566],[-2.5684702,51.4799257],[-2.5682795,51.4798733],[-2.5681995,51.4798308],[-2.5679817,51.4797059],[-2.567878,51.4795854],[-2.5677862,51.4795332],[-2.5676253,51.4793778],[-2.5675059,51.4792575],[-2.5673879,51.4791732],[-2.5671398,51.479012],[-2.5670855,51.4789904],[-2.5669105,51.4789209],[-2.5666677,51.4788357],[-2.5664934,51.4788082],[-2.5661044,51.4786587],[-2.566054,51.4786423],[-2.5656847,51.4785225],[-2.5655732,51.4785156]]}},{"type":"Feature","properties":{"osm_id":79400472,"name":"Tide Grove","corridor":"Bristol School Streets","school":"Our Lady of the Rosary RC Primary School"},"geometry":{"type":"LineString","coordinates":[[-2.6631848,51.4989828],[-2.6628106,51.4987851],[-2.6627778,51.498763],[-2.6627452,51.4987375],[-2.6627227,51.4987098],[-2.6627053,51.4986776],[-2.6626902,51.4986409],[-2.6626825,51.4986073],[-2.6626802,51.4985781],[-2.6626815,51.4985566],[-2.6626891,51.4985277],[-2.6626993,51.498504],[-2.6627147,51.4984789],[-2.6627493,51.4984372],[-2.6627924,51.4983991],[-2.6633102,51.4980147]]}},{"type":"Feature","properties":{"osm_id":682304644,"name":"Oakhill Drive","corridor":"Bristol School Streets","school":"Oasis Academy Marksbury Road"},"geometry":{"type":"LineString","coordinates":[[-2.5901239,51.433778],[-2.5896224,51.4337889],[-2.58958,51.4338003],[-2.5895417,51.4338156]]}},{"type":"Feature","properties":{"osm_id":682304645,"name":"Oakhill Drive","corridor":"Bristol School Streets","school":"Oasis Academy Marksbury Road"},"geometry":{"type":"LineString","coordinates":[[-2.5901812,51.4344571],[-2.5901239,51.433778]]}},{"type":"Feature","properties":{"osm_id":716665204,"name":"Oakhill Drive","corridor":"Bristol School Streets","school":"Oasis Academy Marksbury Road"},"geometry":{"type":"LineString","coordinates":[[-2.5901239,51.433778],[-2.5900827,51.4332717]]}},{"type":"Feature","properties":{"osm_id":804408375,"name":"Oakhill Drive","corridor":"Bristol School Streets","school":"Oasis Academy Marksbury Road"},"geometry":{"type":"LineString","coordinates":[[-2.5916322,51.4332535],[-2.5911318,51.4332605],[-2.5900827,51.4332717],[-2.5896267,51.4332769],[-2.5895962,51.4332751],[-2.5895796,51.4332691],[-2.5895644,51.4332603],[-2.5891957,51.4328993]]}},{"type":"Feature","properties":{"osm_id":804408376,"name":"Oakhill Drive","corridor":"Bristol School Streets","school":"Oasis Academy Marksbury Road"},"geometry":{"type":"LineString","coordinates":[[-2.5889207,51.4329539],[-2.5890304,51.4329335],[-2.5891957,51.4328993]]}},{"type":"Feature","properties":{"osm_id":804408377,"name":"Oakhill Drive","corridor":"Bristol School Streets","school":"Oasis Academy Marksbury Road"},"geometry":{"type":"LineString","coordinates":[[-2.5891957,51.4328993],[-2.5892636,51.4328716],[-2.5892987,51.4328504],[-2.5893308,51.432765]]}},{"type":"Feature","properties":{"osm_id":3877711,"name":"East Park","corridor":"Bristol School Streets","school":"May Park Primary School"},"geometry":{"type":"LineString","coordinates":[[-2.5621232,51.470804],[-2.5617556,51.4705279],[-2.5615854,51.4704],[-2.5615177,51.4703528],[-2.5614364,51.4703005],[-2.561403,51.4702822],[-2.5613547,51.4702667],[-2.5612943,51.4702551],[-2.5612226,51.4702521],[-2.5611507,51.4702537],[-2.5610852,51.4702646],[-2.5610223,51.4702814],[-2.5607601,51.4703878],[-2.5605412,51.4704777],[-2.5604128,51.4705319],[-2.559918,51.4707408],[-2.5595316,51.4709203],[-2.5591651,51.4711463],[-2.5589116,51.471324],[-2.5585435,51.4715636],[-2.5580944,51.471877]]}},{"type":"Feature","properties":{"osm_id":22719154,"name":"Freeland Buildings","corridor":"Bristol School Streets","school":"May Park Primary School"},"geometry":{"type":"LineString","coordinates":[[-2.5580944,51.471877],[-2.5588834,51.4723729]]}},{"type":"Feature","properties":{"osm_id":862005910,"name":"Coombe Road","corridor":"Bristol School Streets","school":"May Park Primary School"},"geometry":{"type":"LineString","coordinates":[[-2.5583739,51.4726835],[-2.5578713,51.4724209],[-2.5577164,51.4723113],[-2.557545,51.4721834]]}},{"type":"Feature","properties":{"osm_id":862005911,"name":"East Park","corridor":"Bristol School Streets","school":"May Park Primary School"},"geometry":{"type":"LineString","coordinates":[[-2.557545,51.4721834],[-2.5576088,51.4721675],[-2.5580944,51.471877]]}}]}