{"type":"FeatureCollection","features":[{"type":"Feature","properties":{"osm_id":3512235,"name":"The Horsefair","corridor":"Broadmead"},"geometry":{"type":"LineString","coordinates":[[-2.5919179,51.4576936],[-2.5919906,51.4577793],[-2.5919914,51.4578095],[-2.591962,51.4578508],[-2.5919169,51.4578754],[-2.5918145,51.4579077],[-2.5917048,51.4579328],[-2.5915244,51.4579741],[-2.5913606,51.4580144],[-2.5912987,51.4580315],[-2.5910454,51.4581015],[-2.5908011,51.4581919],[-2.5906244,51.4582572],[-2.5905499,51.4582821],[-2.5904907,51.4583026],[-2.5904747,51.4583082],[-2.5901335,51.458427],[-2.5900242,51.4584651],[-2.5899495,51.4584927],[-2.5897481,51.4585635],[-2.5891332,51.4587747],[-2.5890608,51.4587996],[-2.5889848,51.4588096],[-2.5888719,51.4588141],[-2.5887195,51.4588196],[-2.5886556,51.4588173],[-2.5885084,51.458809],[-2.5881518,51.4588176],[-2.5876383,51.4588345],[-2.5874252,51.4588242],[-2.5872102,51.4587988],[-2.5871231,51.4587639],[-2.5870329,51.4587086],[-2.5869547,51.4586169],[-2.5868182,51.4584249],[-2.5867257,51.4582949]]}},{"type":"Feature","properties":{"osm_id":3512236,"name":"Union Street","corridor":"Broadmead"},"geometry":{"type":"LineString","coordinates":[[-2.5914231,51.4570992],[-2.5915109,51.4572225],[-2.5915653,51.4572748],[-2.591787,51.4575362]]}},{"type":"Feature","properties":{"osm_id":4322378,"name":"Union Street","corridor":"Broadmead"},"geometry":{"type":"LineString","coordinates":[[-2.5906111,51.4556719],[-2.5906961,51.4558117],[-2.5907811,51.4559599],[-2.5908179,51.4560247],[-2.5908236,51.4560346]]}},{"type":"Feature","properties":{"osm_id":22634693,"name":"Penn Street","corridor":"Broadmead"},"geometry":{"type":"LineString","coordinates":[[-2.5867257,51.4582949],[-2.5866966,51.4582459],[-2.5864451,51.4578807],[-2.5862506,51.4575891],[-2.5862148,51.4575354],[-2.5861884,51.4574977],[-2.5861662,51.4574662],[-2.5861396,51.457434]]}},{"type":"Feature","properties":{"osm_id":37222932,"name":"Union Street","corridor":"Broadmead"},"geometry":{"type":"LineString","coordinates":[[-2.5908236,51.4560346],[-2.5908899,51.4561523]]}},{"type":"Feature","properties":{"osm_id":37222933,"name":"Union Street","corridor":"Broadmead"},"geometry":{"type":"LineString","coordinates":[[-2.5908899,51.4561523],[-2.5909341,51.4562319],[-2.5909755,51.4563066],[-2.5911461,51.4566141]]}},{"type":"Feature","properties":{"osm_id":37354499,"name":"Union Street","corridor":"Broadmead"},"geometry":{"type":"LineString","coordinates":[[-2.5919179,51.4576936],[-2.5920306,51.4577229],[-2.5921501,51.4577495]]}},{"type":"Feature","properties":{"osm_id":572213300,"name":"Union Street","corridor":"Broadmead"},"geometry":{"type":"LineString","coordinates":[[-2.5923329,51.4577763],[-2.5924564,51.4577798],[-2.592544,51.4577739],[-2.5926302,51.4577624]]}},{"type":"Feature","properties":{"osm_id":572213301,"name":"Union Street","corridor":"Broadmead"},"geometry":{"type":"LineString","coordinates":[[-2.5921501,51.4577495],[-2.5921603,51.4577514],[-2.5922227,51.4577616],[-2.5923329,51.4577763]]}},{"type":"Feature","properties":{"osm_id":638610868,"name":"Penn Street","corridor":"Broadmead"},"geometry":{"type":"LineString","coordinates":[[-2.585966,51.4571757],[-2.5859797,51.457115],[-2.585998,51.4570386]]}},{"type":"Feature","properties":{"osm_id":638610869,"name":"Penn Street","corridor":"Broadmead"},"geometry":{"type":"LineString","coordinates":[[-2.585966,51.4571757],[-2.5859089,51.4571111],[-2.5858771,51.4570684]]}},{"type":"Feature","properties":{"osm_id":711114418,"name":"Penn Street","corridor":"Broadmead"},"geometry":{"type":"LineString","coordinates":[[-2.5861396,51.457434],[-2.5860016,51.457239],[-2.5859803,51.4572012],[-2.585966,51.4571757]]}},{"type":"Feature","properties":{"osm_id":1413277837,"name":"Union Street","corridor":"Broadmead"},"geometry":{"type":"LineString","coordinates":[[-2.5911461,51.4566141],[-2.5912563,51.4568126],[-2.5913488,51.4569937],[-2.5914231,51.4570992]]}},{"type":"Feature","properties":{"osm_id":1458524044,"name":"Union Street","corridor":"Broadmead"},"geometry":{"type":"LineString","coordinates":[[-2.591787,51.4575362],[-2.5919179,51.4576936]]}}]}