{"type":"FeatureCollection","features":[{"type":"Feature","properties":{"osm_id":25665906,"name":"Temple Gate","ref":"A4044","corridor":"Bus Route 2"},"geometry":{"type":"LineString","coordinates":[[-2.5844176,51.4490525],[-2.5842874,51.4489693],[-2.5842549,51.4489385],[-2.5841977,51.4489009]]}},{"type":"Feature","properties":{"osm_id":254347228,"name":"Bath Bridge Roundabout","ref":"A4","corridor":"Bus Route 2"},"geometry":{"type":"LineString","coordinates":[[-2.5821551,51.4476592],[-2.581709,51.4473777]]}},{"type":"Feature","properties":{"osm_id":34639899,"name":"Bath Bridge Roundabout","ref":"A4","corridor":"Bus Route 2"},"geometry":{"type":"LineString","coordinates":[[-2.5822121,51.4476982],[-2.5821618,51.4476657],[-2.5821551,51.4476592]]}},{"type":"Feature","properties":{"osm_id":37354502,"name":"Temple Gate","ref":"A4","corridor":"Bus Route 2"},"geometry":{"type":"LineString","coordinates":[[-2.5834981,51.4484825],[-2.5832839,51.4483605],[-2.5830381,51.4482368]]}},{"type":"Feature","properties":{"osm_id":492761561,"name":"Temple Gate","ref":"A4","corridor":"Bus Route 2"},"geometry":{"type":"LineString","coordinates":[[-2.5830381,51.4482368],[-2.5827721,51.4480737],[-2.5826031,51.4479704],[-2.5824947,51.4479042],[-2.5824445,51.4478735],[-2.5824068,51.4478505]]}},{"type":"Feature","properties":{"osm_id":492761562,"name":"Temple Gate","ref":"A4","corridor":"Bus Route 2"},"geometry":{"type":"LineString","coordinates":[[-2.5824068,51.4478505],[-2.582278,51.4477557],[-2.5822121,51.4476982]]}},{"type":"Feature","properties":{"osm_id":647902377,"name":"Temple Gate","ref":"A4","corridor":"Bus Route 2"},"geometry":{"type":"LineString","coordinates":[[-2.5836696,51.4485862],[-2.5834981,51.4484825]]}},{"type":"Feature","properties":{"osm_id":688918237,"name":"Temple Gate","ref":"A4044","corridor":"Bus Route 2"},"geometry":{"type":"LineString","coordinates":[[-2.5841977,51.4489009],[-2.5840891,51.4488179]]}},{"type":"Feature","properties":{"osm_id":761691771,"name":"Temple Gate","ref":"A4","corridor":"Bus Route 2"},"geometry":{"type":"LineString","coordinates":[[-2.5840891,51.4488179],[-2.5837827,51.44865],[-2.5837358,51.4486244],[-2.5836696,51.4485862]]}},{"type":"Feature","properties":{"osm_id":646600762,"name":"Wells Road","ref":"A37","corridor":"Bus Route 2"},"geometry":{"type":"LineString","coordinates":[[-2.5781893,51.442442],[-2.5781353,51.4423604],[-2.5781253,51.4423234],[-2.5780568,51.4420704]]}},{"type":"Feature","properties":{"osm_id":824077915,"name":"Wells Road","ref":"A37","corridor":"Bus Route 2"},"geometry":{"type":"LineString","coordinates":[[-2.5778992,51.4418818],[-2.5778496,51.4418342],[-2.5778067,51.4418007],[-2.5777615,51.4417779],[-2.5777236,51.4417589],[-2.5776672,51.4417272],[-2.5776095,51.4416694]]}},{"type":"Feature","properties":{"osm_id":1370926264,"name":"Wells Road","ref":"A37","corridor":"Bus Route 2"},"geometry":{"type":"LineString","coordinates":[[-2.5780568,51.4420704],[-2.5780217,51.4420396],[-2.5779423,51.4419355],[-2.5778992,51.4418818]]}},{"type":"Feature","properties":{"osm_id":203009202,"name":"Wells Road","ref":"A37","corridor":"Bus Route 2"},"geometry":{"type":"LineString","coordinates":[[-2.5776095,51.4416694],[-2.5774834,51.4416333],[-2.5767724,51.4414433],[-2.5766067,51.4413824],[-2.576492,51.4413403],[-2.5763535,51.4412832],[-2.5760816,51.4411711],[-2.5759438,51.4411195],[-2.5754031,51.4409035],[-2.5751036,51.4407841],[-2.5747973,51.4406589],[-2.5746052,51.4405702],[-2.574415,51.4404749],[-2.5743025,51.4404115],[-2.5742369,51.4403792],[-2.5742222,51.440372],[-2.5740528,51.440263],[-2.573962,51.440196],[-2.5738083,51.4400819],[-2.5736793,51.4399754],[-2.5735319,51.4398482],[-2.5733191,51.4396509],[-2.5732257,51.4395551],[-2.5730627,51.439388],[-2.5729838,51.4393005],[-2.5729783,51.4392943],[-2.5728632,51.4391657],[-2.5727912,51.4390864],[-2.5725679,51.4388585],[-2.5723347,51.4386583],[-2.5722245,51.4385743],[-2.5719992,51.438424],[-2.5717378,51.4382652],[-2.5714763,51.438128],[-2.5714145,51.4380985],[-2.5710939,51.4379802],[-2.5710426,51.4379615],[-2.5704778,51.437755],[-2.5702136,51.4376632],[-2.5701792,51.4376476],[-2.5701027,51.4376072],[-2.5700292,51.437559],[-2.5699842,51.4375264],[-2.5699123,51.4374535],[-2.5697248,51.4372706],[-2.5695883,51.437116],[-2.5693892,51.4368905]]}},{"type":"Feature","properties":{"osm_id":602268405,"name":"Wells Road","ref":"A37","corridor":"Bus Route 2"},"geometry":{"type":"LineString","coordinates":[[-2.5782021,51.4425324],[-2.5781893,51.442442]]}},{"type":"Feature","properties":{"osm_id":1041891968,"name":"Wells Road","ref":"A37","corridor":"Bus Route 2"},"geometry":{"type":"LineString","coordinates":[[-2.5693892,51.4368905],[-2.5692112,51.436714],[-2.5689901,51.4365041],[-2.5686373,51.4361906],[-2.5684386,51.4360234],[-2.568388,51.4359816]]}},{"type":"Feature","properties":{"osm_id":4264144,"name":"Bath Road","ref":"A4","corridor":"Bus Route 2"},"geometry":{"type":"LineString","coordinates":[[-2.5816914,51.4473665],[-2.5812296,51.4471144],[-2.581125,51.4470472],[-2.5809666,51.4469501],[-2.5804786,51.4466041]]}},{"type":"Feature","properties":{"osm_id":31726979,"name":"Bath Road","ref":"A4","corridor":"Bus Route 2"},"geometry":{"type":"LineString","coordinates":[[-2.580408,51.4465552],[-2.579715,51.4460703],[-2.5795543,51.4459384]]}},{"type":"Feature","properties":{"osm_id":32846150,"name":"Bath Road","ref":"A4","corridor":"Bus Route 2"},"geometry":{"type":"LineString","coordinates":[[-2.5804786,51.4466041],[-2.580408,51.4465552]]}},{"type":"Feature","properties":{"osm_id":34639900,"name":"Bath Bridge Roundabout","corridor":"Bus Route 2"},"geometry":{"type":"LineString","coordinates":[[-2.581709,51.4473777],[-2.5816914,51.4473665]]}},{"type":"Feature","properties":{"osm_id":107483716,"name":"Wells Road","ref":"A37","corridor":"Bus Route 2"},"geometry":{"type":"LineString","coordinates":[[-2.5785552,51.4445716],[-2.5785283,51.4443654]]}},{"type":"Feature","properties":{"osm_id":128539407,"name":"Bath Road","ref":"A4","corridor":"Bus Route 2"},"geometry":{"type":"LineString","coordinates":[[-2.5790564,51.4454727],[-2.5789273,51.4453086],[-2.5788526,51.4452011]]}},{"type":"Feature","properties":{"osm_id":128539419,"name":"Bath Road","ref":"A4","corridor":"Bus Route 2"},"geometry":{"type":"LineString","coordinates":[[-2.5795543,51.4459384],[-2.5794079,51.4458119],[-2.5792995,51.4457183],[-2.5791548,51.4455721],[-2.5790564,51.4454727]]}},{"type":"Feature","properties":{"osm_id":156201908,"name":"Wells Road","ref":"A37","corridor":"Bus Route 2"},"geometry":{"type":"LineString","coordinates":[[-2.578485,51.4438255],[-2.5784768,51.443781],[-2.578454,51.4436673],[-2.5784208,51.443453],[-2.5783726,51.4431412]]}},{"type":"Feature","properties":{"osm_id":224523813,"name":"Bath Road","ref":"A4","corridor":"Bus Route 2"},"geometry":{"type":"LineString","coordinates":[[-2.5785905,51.4447891],[-2.5785552,51.4445716]]}},{"type":"Feature","properties":{"osm_id":260638282,"name":"Bath Road","ref":"A4","corridor":"Bus Route 2"},"geometry":{"type":"LineString","coordinates":[[-2.5788526,51.4452011],[-2.5788398,51.4451797],[-2.578828,51.4451581]]}},{"type":"Feature","properties":{"osm_id":376277306,"name":"Wells Road","ref":"A37","corridor":"Bus Route 2"},"geometry":{"type":"LineString","coordinates":[[-2.5785106,51.444087],[-2.5784689,51.4440441],[-2.5784506,51.4438803]]}},{"type":"Feature","properties":{"osm_id":458390142,"name":"Wells Road","ref":"A37","corridor":"Bus Route 2"},"geometry":{"type":"LineString","coordinates":[[-2.5785192,51.4441799],[-2.578518,51.4441668],[-2.5785106,51.444087]]}},{"type":"Feature","properties":{"osm_id":492761559,"name":"Bath Road","ref":"A4","corridor":"Bus Route 2"},"geometry":{"type":"LineString","coordinates":[[-2.578828,51.4451581],[-2.5787173,51.4450198],[-2.5786151,51.444829],[-2.5785905,51.4447891]]}},{"type":"Feature","properties":{"osm_id":1370926267,"name":"Wells Road","ref":"A37","corridor":"Bus Route 2"},"geometry":{"type":"LineString","coordinates":[[-2.5783726,51.4431412],[-2.5783627,51.4431034],[-2.5782855,51.4428587],[-2.5782383,51.4426936],[-2.5782021,51.4425324]]}},{"type":"Feature","properties":{"osm_id":1370926269,"name":"Wells Road","ref":"A37","corridor":"Bus Route 2"},"geometry":{"type":"LineString","coordinates":[[-2.5784506,51.4438803],[-2.5784494,51.4438599],[-2.578485,51.4438255]]}},{"type":"Feature","properties":{"osm_id":1370926271,"name":"Wells Road","ref":"A37","corridor":"Bus Route 2"},"geometry":{"type":"LineString","coordinates":[[-2.5785283,51.4443654],[-2.5785192,51.4441799]]}},{"type":"Feature","properties":{"osm_id":40442237,"name":"Sturminster Road","corridor":"Bus Route 2"},"geometry":{"type":"LineString","coordinates":[[-2.5538386,51.4112981],[-2.5538738,51.411417],[-2.5538726,51.4115188],[-2.5537618,51.4121655],[-2.5537393,51.4122896],[-2.5536111,51.4129971],[-2.5535502,51.4135086],[-2.5535721,51.413722],[-2.5536107,51.4138836],[-2.5536549,51.4140163],[-2.55388,51.4144752],[-2.5539558,51.4146456],[-2.5540664,51.4148619],[-2.5541555,51.4150363],[-2.5542112,51.4151676],[-2.5542331,51.4152657],[-2.5542681,51.4154222],[-2.5542765,51.4155304],[-2.5542814,51.4157034],[-2.5542706,51.4158527],[-2.5542353,51.4160657],[-2.5541594,51.4165053],[-2.5540614,51.4170936],[-2.5540211,51.4173355],[-2.5540018,51.4176261],[-2.5539967,51.4177023],[-2.5540063,51.4180101],[-2.5540077,51.4183798],[-2.5540497,51.4190683],[-2.5541221,51.4195891],[-2.5542278,51.4201141],[-2.5542917,51.4204151],[-2.5543914,51.4207974],[-2.5544285,51.4209072],[-2.5544807,51.4210613],[-2.5545689,51.4212511],[-2.5546086,51.4213364],[-2.5546736,51.4214594],[-2.5547762,51.4216267],[-2.5548666,51.4217495],[-2.554981,51.4218821],[-2.5551197,51.4220157],[-2.5552907,51.4221881],[-2.5555754,51.4224855],[-2.5556717,51.4225872],[-2.5557887,51.4227108],[-2.5558865,51.4228249],[-2.5560425,51.4230067],[-2.5562744,51.4233023]]}},{"type":"Feature","properties":{"osm_id":40442961,"name":"Hollway Road","corridor":"Bus Route 2"},"geometry":{"type":"LineString","coordinates":[[-2.5475638,51.4118099],[-2.5474116,51.4118064],[-2.5468637,51.4117914],[-2.546268,51.411775],[-2.5457945,51.4117597],[-2.5456763,51.4117578],[-2.5456248,51.4117562],[-2.5454401,51.4117497],[-2.5451576,51.4117428],[-2.5450248,51.4117395],[-2.5446549,51.4117297],[-2.5443199,51.4117208],[-2.5432484,51.4116793]]}},{"type":"Feature","properties":{"osm_id":203028788,"name":"Stockwood Road","corridor":"Bus Route 2"},"geometry":{"type":"LineString","coordinates":[[-2.5476403,51.4108597],[-2.5476253,51.4110897],[-2.5476001,51.4113845],[-2.5475638,51.4118099]]}},{"type":"Feature","properties":{"osm_id":203028792,"name":"Stockwood Road","corridor":"Bus Route 2"},"geometry":{"type":"LineString","coordinates":[[-2.5476916,51.4102642],[-2.5476515,51.4107307],[-2.5476403,51.4108597]]}},{"type":"Feature","properties":{"osm_id":40443785,"name":"Ladman Road","corridor":"Bus Route 2"},"geometry":{"type":"LineString","coordinates":[[-2.5460356,51.4146835],[-2.5459355,51.4146123],[-2.5455061,51.4143295],[-2.5454974,51.4143238],[-2.5449705,51.4141993],[-2.5448595,51.4141748],[-2.5435843,51.4138609],[-2.5418422,51.4134565],[-2.5416643,51.4134004],[-2.5414698,51.4132921],[-2.5412442,51.413111],[-2.5411487,51.4129714],[-2.5410729,51.4128605],[-2.5409323,51.412655],[-2.5408591,51.4125656],[-2.5407831,51.4124964],[-2.5401644,51.412143]]}},{"type":"Feature","properties":{"osm_id":158054105,"name":"Craydon Road","corridor":"Bus Route 2"},"geometry":{"type":"LineString","coordinates":[[-2.5538386,51.4112981],[-2.5537929,51.4111806],[-2.5537216,51.411058],[-2.5536218,51.4109418],[-2.5534812,51.4108178],[-2.5534208,51.4107774],[-2.5533143,51.4107063],[-2.5531343,51.4106147],[-2.5529618,51.4105426],[-2.5528184,51.4104878],[-2.5526954,51.4104561],[-2.5525608,51.4104236],[-2.552402,51.4104058],[-2.5522229,51.4103925],[-2.5519614,51.4103833],[-2.5509616,51.4103514],[-2.5503262,51.4103366],[-2.5499039,51.4103241],[-2.5494462,51.4103105],[-2.5491449,51.4103016],[-2.548499,51.4102819],[-2.5480548,51.4102723],[-2.5478426,51.4102677],[-2.5477542,51.4102658],[-2.5476916,51.4102642]]}},{"type":"Feature","properties":{"osm_id":203028794,"name":"Hollway Road","corridor":"Bus Route 2"},"geometry":{"type":"LineString","coordinates":[[-2.5432484,51.4116793],[-2.542115,51.4116512],[-2.5419456,51.411631],[-2.5418062,51.4115825],[-2.5414006,51.4113508]]}},{"type":"Feature","properties":{"osm_id":203029184,"name":"Stockwood Road","corridor":"Bus Route 2"},"geometry":{"type":"LineString","coordinates":[[-2.5460356,51.4146835],[-2.5457076,51.4148621],[-2.5455062,51.4149597],[-2.5452801,51.4150489],[-2.5450756,51.4151253],[-2.5447454,51.4152486],[-2.5443608,51.4153936],[-2.5438379,51.4155908],[-2.5435152,51.4157291],[-2.5428061,51.4160912],[-2.5423241,51.4163468],[-2.5422469,51.416416]]}},{"type":"Feature","properties":{"osm_id":203029185,"name":"Stockwood Lane","corridor":"Bus Route 2"},"geometry":{"type":"LineString","coordinates":[[-2.5401644,51.412143],[-2.5412506,51.4114469],[-2.5414006,51.4113508]]}},{"type":"Feature","properties":{"osm_id":40599240,"name":"The Coots","corridor":"Bus Route 2"},"geometry":{"type":"LineString","coordinates":[[-2.5422469,51.416416],[-2.5422496,51.4164638],[-2.542298,51.4165129],[-2.5424031,51.4166043],[-2.5424583,51.416703],[-2.5424713,51.4167773],[-2.5424556,51.4168485],[-2.5423033,51.4171217],[-2.5422386,51.4172435],[-2.5422039,51.4174481],[-2.5422027,51.4175523]]}},{"type":"Feature","properties":{"osm_id":203028789,"name":"Burnbush Close","corridor":"Bus Route 2"},"geometry":{"type":"LineString","coordinates":[[-2.5421314,51.4178606],[-2.5423232,51.4177761]]}},{"type":"Feature","properties":{"osm_id":293584824,"name":"The Coots","corridor":"Bus Route 2"},"geometry":{"type":"LineString","coordinates":[[-2.5422027,51.4175523],[-2.5422618,51.417717],[-2.5423232,51.4177761]]}},{"type":"Feature","properties":{"osm_id":1409268854,"name":"The Coots","corridor":"Bus Route 2"},"geometry":{"type":"LineString","coordinates":[[-2.5421197,51.4176453],[-2.5420424,51.4177318],[-2.5420266,51.4177862],[-2.5420664,51.4178331],[-2.5421314,51.4178606]]}},{"type":"Feature","properties":{"osm_id":4444527,"name":"Wells Road","ref":"A37","corridor":"Bus Route 2"},"geometry":{"type":"LineString","coordinates":[[-2.5638533,51.4275743],[-2.563847,51.4275045],[-2.5637862,51.4272676]]}},{"type":"Feature","properties":{"osm_id":203116156,"name":"Wells Road","ref":"A37","corridor":"Bus Route 2"},"geometry":{"type":"LineString","coordinates":[[-2.5637862,51.4272676],[-2.5637419,51.4271533],[-2.5636955,51.427012],[-2.5636581,51.4268963],[-2.5636036,51.4267274],[-2.5635534,51.4265238],[-2.563487,51.4263367],[-2.5634326,51.4261662],[-2.563422,51.4261304],[-2.563434,51.4260311]]}},{"type":"Feature","properties":{"osm_id":810344970,"name":"Wells Road","ref":"A37","corridor":"Bus Route 2"},"geometry":{"type":"LineString","coordinates":[[-2.5639537,51.4280096],[-2.5639509,51.4279055]]}},{"type":"Feature","properties":{"osm_id":814143228,"name":"Wells Road","ref":"A37","corridor":"Bus Route 2"},"geometry":{"type":"LineString","coordinates":[[-2.5639509,51.4279055],[-2.5638858,51.4278316],[-2.5638789,51.4277816],[-2.5638756,51.4277574],[-2.5638635,51.4276878]]}},{"type":"Feature","properties":{"osm_id":1433909277,"name":"Wells Road","ref":"A37","corridor":"Bus Route 2"},"geometry":{"type":"LineString","coordinates":[[-2.5639568,51.4285224],[-2.5639537,51.4280096]]}},{"type":"Feature","properties":{"osm_id":1433909281,"name":"Wells Road","ref":"A37","corridor":"Bus Route 2"},"geometry":{"type":"LineString","coordinates":[[-2.5638635,51.4276878],[-2.5638592,51.4276396],[-2.5638533,51.4275743]]}},{"type":"Feature","properties":{"osm_id":154678712,"name":"West Town Lane","ref":"B3119","corridor":"Bus Route 2"},"geometry":{"type":"LineString","coordinates":[[-2.5584113,51.426302],[-2.5585523,51.4262883],[-2.5585971,51.4262839],[-2.5587514,51.4262507],[-2.5588881,51.4262091],[-2.5591924,51.4260791],[-2.5593795,51.4259991]]}},{"type":"Feature","properties":{"osm_id":154678717,"name":"West Town Lane","ref":"B3119","corridor":"Bus Route 2"},"geometry":{"type":"LineString","coordinates":[[-2.5571188,51.4262732],[-2.5574252,51.4262684],[-2.5578112,51.4262758],[-2.5579799,51.4262839],[-2.5580275,51.4262862],[-2.5582235,51.4262956],[-2.5584113,51.426302]]}},{"type":"Feature","properties":{"osm_id":157853554,"name":"Sturminster Road","corridor":"Bus Route 2"},"geometry":{"type":"LineString","coordinates":[[-2.5562744,51.4233023],[-2.5565527,51.4236459],[-2.5565709,51.4236683],[-2.5567557,51.4239264],[-2.5568665,51.4241084],[-2.5570057,51.4244232],[-2.5570895,51.4246761],[-2.557132,51.4249473],[-2.5571586,51.4252433],[-2.5571556,51.4258462],[-2.5571185,51.4261493],[-2.5571135,51.4261904],[-2.5571188,51.4262732]]}},{"type":"Feature","properties":{"osm_id":203028790,"name":"West Town Lane","ref":"B3119","corridor":"Bus Route 2"},"geometry":{"type":"LineString","coordinates":[[-2.5593795,51.4259991],[-2.5594903,51.4259723],[-2.5596634,51.4259589],[-2.5597831,51.4259597],[-2.560532,51.4260061],[-2.5607067,51.4260162],[-2.5611648,51.4260376],[-2.5616419,51.426078],[-2.5618962,51.4260827],[-2.5620559,51.4260821]]}},{"type":"Feature","properties":{"osm_id":810345632,"name":"West Town Lane","ref":"B3119","corridor":"Bus Route 2"},"geometry":{"type":"LineString","coordinates":[[-2.5620559,51.4260821],[-2.5623958,51.4260769],[-2.5625874,51.4260739],[-2.5631643,51.4260517],[-2.563434,51.4260311]]}},{"type":"Feature","properties":{"osm_id":1041891966,"name":"Wells Road","ref":"A37","corridor":"Bus Route 2"},"geometry":{"type":"LineString","coordinates":[[-2.568388,51.4359816],[-2.5682302,51.4358517]]}},{"type":"Feature","properties":{"osm_id":1433909278,"name":"Wells Road","ref":"A37","corridor":"Bus Route 2"},"geometry":{"type":"LineString","coordinates":[[-2.5642621,51.4301705],[-2.5640217,51.4298327],[-2.5639633,51.4297523],[-2.5639405,51.4296994],[-2.5639148,51.4296321],[-2.5638838,51.4295313],[-2.5638848,51.429422],[-2.5638929,51.4292886],[-2.563916,51.4291317],[-2.563945,51.42894],[-2.5639585,51.4287478],[-2.5639574,51.4286323],[-2.5639568,51.4285224]]}},{"type":"Feature","properties":{"osm_id":203114748,"name":"Wells Road","ref":"A37","corridor":"Bus Route 2"},"geometry":{"type":"LineString","coordinates":[[-2.5658157,51.4334758],[-2.5657426,51.4333983],[-2.5656541,51.4332998],[-2.5655671,51.4331902],[-2.5654573,51.4330481],[-2.5653804,51.4329341],[-2.5653077,51.4328175],[-2.565241,51.4327013],[-2.5651946,51.4325998],[-2.5651415,51.4324836],[-2.5651052,51.4323995],[-2.5650674,51.4323104],[-2.5649875,51.4320607],[-2.5648847,51.4317573],[-2.5648567,51.4316863],[-2.5647545,51.4314057],[-2.5647281,51.4313034],[-2.5646545,51.4310508]]}},{"type":"Feature","properties":{"osm_id":203114752,"name":"Wells Road","ref":"A37","corridor":"Bus Route 2"},"geometry":{"type":"LineString","coordinates":[[-2.5665476,51.4343086],[-2.5664841,51.4342317],[-2.5664491,51.4341883],[-2.56642,51.4341556],[-2.5664056,51.4341394],[-2.5663098,51.4340259]]}},{"type":"Feature","properties":{"osm_id":203792899,"name":"Wells Road","ref":"A37","corridor":"Bus Route 2"},"geometry":{"type":"LineString","coordinates":[[-2.5680309,51.4356853],[-2.5677928,51.4354944],[-2.5676366,51.4353654],[-2.5673991,51.4351764],[-2.5673392,51.4351309],[-2.5672317,51.4350437],[-2.5671838,51.4349979]]}},{"type":"Feature","properties":{"osm_id":647527280,"name":"Wells Road","ref":"A37","corridor":"Bus Route 2"},"geometry":{"type":"LineString","coordinates":[[-2.5669887,51.4348334],[-2.5669453,51.4347923],[-2.5667296,51.4345368]]}},{"type":"Feature","properties":{"osm_id":647527281,"name":"Wells Road","ref":"A37","corridor":"Bus Route 2"},"geometry":{"type":"LineString","coordinates":[[-2.5671838,51.4349979],[-2.5671108,51.4349904],[-2.567069,51.4349595],[-2.5669726,51.4348706],[-2.5669736,51.4348498],[-2.5669887,51.4348334]]}},{"type":"Feature","properties":{"osm_id":1041891965,"name":"Wells Road","ref":"A37","corridor":"Bus Route 2"},"geometry":{"type":"LineString","coordinates":[[-2.5667296,51.4345368],[-2.5665476,51.4343086]]}},{"type":"Feature","properties":{"osm_id":1041891967,"name":"Wells Road","ref":"A37","corridor":"Bus Route 2"},"geometry":{"type":"LineString","coordinates":[[-2.5682302,51.4358517],[-2.5680309,51.4356853]]}},{"type":"Feature","properties":{"osm_id":1418772472,"name":"Wells Road","ref":"A37","corridor":"Bus Route 2"},"geometry":{"type":"LineString","coordinates":[[-2.5663098,51.4340259],[-2.5662224,51.4339217],[-2.566204,51.4339002],[-2.5661705,51.4338609],[-2.5660711,51.4337501],[-2.5659221,51.4335887],[-2.5658157,51.4334758]]}},{"type":"Feature","properties":{"osm_id":1433909276,"name":"Wells Road","ref":"A37","corridor":"Bus Route 2"},"geometry":{"type":"LineString","coordinates":[[-2.5646545,51.4310508],[-2.5646458,51.4310209],[-2.5646161,51.4309156],[-2.5645574,51.4307166],[-2.5645153,51.4305866],[-2.5644802,51.4305008],[-2.5644447,51.4304337],[-2.5643981,51.4303616],[-2.5642621,51.4301705]]}},{"type":"Feature","properties":{"osm_id":203026158,"name":"Queen's Road","ref":"A4018","corridor":"Bus Route 2"},"geometry":{"type":"LineString","coordinates":[[-2.6085084,51.4575041],[-2.6084938,51.4574894],[-2.6083871,51.4574067],[-2.6082942,51.4573484],[-2.6081958,51.4572892],[-2.6079038,51.4571265],[-2.6077647,51.4570477],[-2.6075488,51.4569317]]}},{"type":"Feature","properties":{"osm_id":1432638418,"name":"Whiteladies Road","ref":"A4018","corridor":"Bus Route 2"},"geometry":{"type":"LineString","coordinates":[[-2.6087198,51.4621246],[-2.6088535,51.4624759]]}},{"type":"Feature","properties":{"osm_id":3552330,"name":"Whiteladies Road","ref":"A4018","corridor":"Bus Route 2"},"geometry":{"type":"LineString","coordinates":[[-2.6089123,51.4582099],[-2.60891,51.4582312],[-2.6089043,51.4582844],[-2.6089,51.4583249],[-2.6088798,51.4584882],[-2.6088728,51.4585336],[-2.6088579,51.4586311],[-2.6088218,51.4588694],[-2.6087922,51.4590758],[-2.6087628,51.4593336],[-2.6087566,51.4593882],[-2.6087322,51.4595355],[-2.6087165,51.4596568],[-2.6086996,51.4597838]]}},{"type":"Feature","properties":{"osm_id":4003185,"ref":"A4018","corridor":"Bus Route 2"},"geometry":{"type":"LineString","coordinates":[[-2.6089123,51.4582099],[-2.6088887,51.4581363],[-2.608812,51.457897],[-2.6088025,51.4578634],[-2.6087799,51.457783]]}},{"type":"Feature","properties":{"osm_id":37354497,"name":"Queen's Road","ref":"A4018","corridor":"Bus Route 2"},"geometry":{"type":"LineString","coordinates":[[-2.6086303,51.4576267],[-2.6085084,51.4575041]]}},{"type":"Feature","properties":{"osm_id":39020685,"name":"Queen's Road","ref":"A4018","corridor":"Bus Route 2"},"geometry":{"type":"LineString","coordinates":[[-2.6087799,51.457783],[-2.6086303,51.4576267]]}},{"type":"Feature","properties":{"osm_id":574877222,"name":"Whiteladies Road","ref":"A4018","corridor":"Bus Route 2"},"geometry":{"type":"LineString","coordinates":[[-2.6086589,51.4619528],[-2.6086886,51.4620386],[-2.6087198,51.4621246]]}},{"type":"Feature","properties":{"osm_id":574877223,"name":"Whiteladies Road","ref":"A4018","corridor":"Bus Route 2"},"geometry":{"type":"LineString","coordinates":[[-2.6086117,51.4604735],[-2.6085943,51.4606117],[-2.6085525,51.460992],[-2.6085449,51.4610615],[-2.6085343,51.461196],[-2.6085291,51.461339]]}},{"type":"Feature","properties":{"osm_id":1432638419,"name":"Whiteladies Road","ref":"A4018","corridor":"Bus Route 2"},"geometry":{"type":"LineString","coordinates":[[-2.6085291,51.461339],[-2.6086003,51.4617614],[-2.6086359,51.461875],[-2.6086589,51.4619528]]}},{"type":"Feature","properties":{"osm_id":1432638420,"name":"Whiteladies Road","ref":"A4018","corridor":"Bus Route 2"},"geometry":{"type":"LineString","coordinates":[[-2.6086996,51.4597838],[-2.6086679,51.4600833],[-2.6086217,51.460386],[-2.6086117,51.4604735]]}},{"type":"Feature","properties":{"osm_id":3528789,"ref":"A38","corridor":"Bus Route 2"},"geometry":{"type":"LineString","coordinates":[[-2.5973574,51.4543702],[-2.5972294,51.4544965],[-2.5971918,51.4545336],[-2.5970767,51.4546593],[-2.5970335,51.4547051]]}},{"type":"Feature","properties":{"osm_id":3730328,"name":"Colston Avenue","ref":"A38","corridor":"Bus Route 2"},"geometry":{"type":"LineString","coordinates":[[-2.5973574,51.4543702],[-2.597481,51.4542179],[-2.5975586,51.4541126]]}},{"type":"Feature","properties":{"osm_id":4315062,"name":"Park Street","ref":"A4018","corridor":"Bus Route 2"},"geometry":{"type":"LineString","coordinates":[[-2.6011803,51.4532701],[-2.6013486,51.4534002]]}},{"type":"Feature","properties":{"osm_id":22887921,"name":"Park Street","ref":"A4018","corridor":"Bus Route 2"},"geometry":{"type":"LineString","coordinates":[[-2.6009948,51.4531286],[-2.601014,51.4531425],[-2.6011469,51.4532434],[-2.6011803,51.4532701]]}},{"type":"Feature","properties":{"osm_id":33129914,"name":"St Augustine's Parade","ref":"A38","corridor":"Bus Route 2"},"geometry":{"type":"LineString","coordinates":[[-2.597656,51.4538953],[-2.5976826,51.4538016],[-2.5976894,51.4537695]]}},{"type":"Feature","properties":{"osm_id":37281216,"name":"St Augustine's Parade","ref":"A4018","corridor":"Bus Route 2"},"geometry":{"type":"LineString","coordinates":[[-2.5981312,51.4525742],[-2.5981273,51.4526265],[-2.5981094,51.4526505],[-2.5980854,51.452672]]}},{"type":"Feature","properties":{"osm_id":38696931,"name":"College Green","ref":"A4018","corridor":"Bus Route 2"},"geometry":{"type":"LineString","coordinates":[[-2.5984328,51.4523368],[-2.5985735,51.4523014],[-2.5986923,51.4522878],[-2.5987329,51.4522832],[-2.5988015,51.452282],[-2.5988544,51.4522845],[-2.5989205,51.4522876],[-2.599119,51.4523082],[-2.5993303,51.4523589],[-2.5993909,51.4523753],[-2.5996334,51.4524436],[-2.5998613,51.4525316],[-2.6000576,51.4526064],[-2.6002261,51.4526737],[-2.6004026,51.4527572],[-2.6004849,51.4527962],[-2.6006324,51.4528756],[-2.6007765,51.4529678],[-2.6008302,51.4530073],[-2.6009948,51.4531286]]}},{"type":"Feature","properties":{"osm_id":38966223,"name":"St Augustine's Parade","ref":"A38","corridor":"Bus Route 2"},"geometry":{"type":"LineString","coordinates":[[-2.5976137,51.4540228],[-2.597656,51.4538953]]}},{"type":"Feature","properties":{"osm_id":39020691,"name":"Colston Avenue","ref":"A38","corridor":"Bus Route 2"},"geometry":{"type":"LineString","coordinates":[[-2.5970134,51.4547255],[-2.5969931,51.4547467],[-2.5969717,51.454769],[-2.5966705,51.4550851]]}},{"type":"Feature","properties":{"osm_id":173587174,"name":"Colston Avenue","ref":"A38","corridor":"Bus Route 2"},"geometry":{"type":"LineString","coordinates":[[-2.5975586,51.4541126],[-2.5976137,51.4540228]]}},{"type":"Feature","properties":{"osm_id":484592976,"name":"St Augustine's Parade","ref":"A38","corridor":"Bus Route 2"},"geometry":{"type":"LineString","coordinates":[[-2.5979334,51.4528989],[-2.5978528,51.4532658],[-2.5978275,51.4533719],[-2.5978149,51.4534247]]}},{"type":"Feature","properties":{"osm_id":562883781,"name":"St Augustine's Parade","ref":"A38","corridor":"Bus Route 2"},"geometry":{"type":"LineString","coordinates":[[-2.5978149,51.4534247],[-2.5978299,51.4534678],[-2.5978131,51.45352],[-2.5978012,51.4535572],[-2.5977838,51.4536114],[-2.5977592,51.4536879],[-2.5976894,51.4537695]]}},{"type":"Feature","properties":{"osm_id":686430347,"name":"College Green","ref":"A4018","corridor":"Bus Route 2"},"geometry":{"type":"LineString","coordinates":[[-2.5982266,51.4524896],[-2.5982482,51.4524691],[-2.5982818,51.4524386],[-2.5983308,51.4523977],[-2.5984328,51.4523368]]}},{"type":"Feature","properties":{"osm_id":686430348,"name":"St Augustine's Parade","ref":"A4018","corridor":"Bus Route 2"},"geometry":{"type":"LineString","coordinates":[[-2.5980854,51.452672],[-2.5980071,51.4527723],[-2.5979881,51.4528016],[-2.5979567,51.4528458]]}},{"type":"Feature","properties":{"osm_id":686430350,"name":"St Augustine's Parade","ref":"A4018","corridor":"Bus Route 2"},"geometry":{"type":"LineString","coordinates":[[-2.5979567,51.4528458],[-2.5979334,51.4528989]]}},{"type":"Feature","properties":{"osm_id":1374444212,"ref":"A38","corridor":"Bus Route 2"},"geometry":{"type":"LineString","coordinates":[[-2.5970335,51.4547051],[-2.5970134,51.4547255]]}},{"type":"Feature","properties":{"osm_id":1411783299,"name":"Colston Avenue","ref":"A38","corridor":"Bus Route 2"},"geometry":{"type":"LineString","coordinates":[[-2.5966705,51.4550851],[-2.5964974,51.4552638],[-2.5964032,51.4553711]]}},{"type":"Feature","properties":{"osm_id":1465126001,"name":"St Augustine's Parade","ref":"A4018","corridor":"Bus Route 2"},"geometry":{"type":"LineString","coordinates":[[-2.5981312,51.4525742],[-2.5982266,51.4524896]]}},{"type":"Feature","properties":{"osm_id":3552302,"name":"Park Street","ref":"A4018","corridor":"Bus Route 2"},"geometry":{"type":"LineString","coordinates":[[-2.6013486,51.4534002],[-2.6014094,51.4534479],[-2.6015984,51.4535964],[-2.6022983,51.4541346],[-2.6026238,51.4543815],[-2.603195,51.4548299],[-2.6035778,51.4551189],[-2.6036209,51.4551531]]}},{"type":"Feature","properties":{"osm_id":4002732,"name":"Colston Avenue","ref":"A38","corridor":"Bus Route 2"},"geometry":{"type":"LineString","coordinates":[[-2.5964032,51.4553711],[-2.5963352,51.4555025],[-2.5962435,51.4557089],[-2.5961898,51.4558952],[-2.5961277,51.4561105]]}},{"type":"Feature","properties":{"osm_id":4315897,"name":"Nelson Street","corridor":"Bus Route 2"},"geometry":{"type":"LineString","coordinates":[[-2.5952344,51.4559627],[-2.5948381,51.4562679],[-2.5947299,51.4563382],[-2.5946682,51.45637],[-2.5946078,51.4563963],[-2.5945388,51.4564172],[-2.594429,51.4564421],[-2.5940512,51.4565104],[-2.5934673,51.4565918],[-2.5933603,51.4566039]]}},{"type":"Feature","properties":{"osm_id":159956816,"name":"Park Street","ref":"A4018","corridor":"Bus Route 2"},"geometry":{"type":"LineString","coordinates":[[-2.6036209,51.4551531],[-2.6042364,51.4556294]]}},{"type":"Feature","properties":{"osm_id":37372355,"name":"Queen's Road","ref":"A4018","corridor":"Bus Route 2"},"geometry":{"type":"LineString","coordinates":[[-2.6075488,51.4569317],[-2.606709,51.456531],[-2.6061237,51.4562652]]}},{"type":"Feature","properties":{"osm_id":39020684,"name":"Queen's Road","ref":"A4018","corridor":"Bus Route 2"},"geometry":{"type":"LineString","coordinates":[[-2.6061237,51.4562652],[-2.6059444,51.4562089],[-2.6057977,51.4561567],[-2.6057233,51.4561342],[-2.6055659,51.4560944],[-2.6053217,51.4560433],[-2.6048124,51.4559481],[-2.6046949,51.4559292]]}},{"type":"Feature","properties":{"osm_id":293529922,"name":"Park Street","ref":"A4018","corridor":"Bus Route 2"},"geometry":{"type":"LineString","coordinates":[[-2.6044499,51.4558208],[-2.6043559,51.4557578],[-2.6042863,51.455704],[-2.6042703,51.455688],[-2.6042603,51.4556731],[-2.6042364,51.4556294]]}},{"type":"Feature","properties":{"osm_id":421876770,"name":"Queen's Road","ref":"A4018","corridor":"Bus Route 2"},"geometry":{"type":"LineString","coordinates":[[-2.6046949,51.4559292],[-2.6046622,51.4559096],[-2.6045733,51.4558902],[-2.6045037,51.4558585],[-2.6044499,51.4558208]]}},{"type":"Feature","properties":{"osm_id":4315894,"name":"Christmas Street","corridor":"Bus Route 2"},"geometry":{"type":"LineString","coordinates":[[-2.5957102,51.4562255],[-2.5952344,51.4559627]]}},{"type":"Feature","properties":{"osm_id":177586092,"name":"Lewins Mead","ref":"A38","corridor":"Bus Route 2"},"geometry":{"type":"LineString","coordinates":[[-2.5961277,51.4561105],[-2.5960927,51.4562859]]}},{"type":"Feature","properties":{"osm_id":475038814,"name":"Christmas Street","corridor":"Bus Route 2"},"geometry":{"type":"LineString","coordinates":[[-2.5960927,51.4562859],[-2.5960632,51.4563116],[-2.5960304,51.4563345],[-2.5959564,51.4563372],[-2.5958888,51.4563198]]}},{"type":"Feature","properties":{"osm_id":1465369358,"name":"Christmas Street","corridor":"Bus Route 2"},"geometry":{"type":"LineString","coordinates":[[-2.5958888,51.4563198],[-2.5958137,51.4562801],[-2.5957102,51.4562255]]}},{"type":"Feature","properties":{"osm_id":3552331,"name":"Whiteladies Road","ref":"A4018","corridor":"Bus Route 2"},"geometry":{"type":"LineString","coordinates":[[-2.6095464,51.4642256],[-2.6096388,51.4644605],[-2.6096534,51.4645025],[-2.6097554,51.4646613],[-2.6097868,51.464707]]}},{"type":"Feature","properties":{"osm_id":563915535,"name":"Whiteladies Road","ref":"A4018","corridor":"Bus Route 2"},"geometry":{"type":"LineString","coordinates":[[-2.6107191,51.4657242],[-2.6110857,51.4661006],[-2.6112886,51.4663202],[-2.6116625,51.4666962],[-2.6117345,51.4667736],[-2.6117514,51.4667918],[-2.6117787,51.4668211],[-2.6118353,51.4668803],[-2.6119479,51.4669979],[-2.6123172,51.4673573],[-2.6123855,51.467427],[-2.6124884,51.4675373],[-2.6125974,51.4676443]]}},{"type":"Feature","properties":{"osm_id":563915536,"name":"Whiteladies Road","ref":"A4018","corridor":"Bus Route 2"},"geometry":{"type":"LineString","coordinates":[[-2.6097868,51.464707],[-2.6098679,51.4648168]]}},{"type":"Feature","properties":{"osm_id":1382948514,"name":"Whiteladies Road","ref":"A4018","corridor":"Bus Route 2"},"geometry":{"type":"LineString","coordinates":[[-2.6090421,51.4629663],[-2.6092273,51.4634442],[-2.6092607,51.4635288]]}},{"type":"Feature","properties":{"osm_id":1382950800,"name":"Whiteladies Road","ref":"A4018","corridor":"Bus Route 2"},"geometry":{"type":"LineString","coordinates":[[-2.6092901,51.4636003],[-2.60934,51.4637138]]}},{"type":"Feature","properties":{"osm_id":1384442486,"name":"Whiteladies Road","ref":"A4018","corridor":"Bus Route 2"},"geometry":{"type":"LineString","coordinates":[[-2.60934,51.4637138],[-2.6094456,51.4639729]]}},{"type":"Feature","properties":{"osm_id":1385046303,"name":"Whiteladies Road","ref":"A4018","corridor":"Bus Route 2"},"geometry":{"type":"LineString","coordinates":[[-2.6094456,51.4639729],[-2.6094867,51.4640737],[-2.6094972,51.4641005],[-2.6095464,51.4642256]]}},{"type":"Feature","properties":{"osm_id":1427113004,"name":"Whiteladies Road","ref":"A4018","corridor":"Bus Route 2"},"geometry":{"type":"LineString","coordinates":[[-2.6092607,51.4635288],[-2.6092901,51.4636003]]}},{"type":"Feature","properties":{"osm_id":1432638415,"name":"Whiteladies Road","ref":"A4018","corridor":"Bus Route 2"},"geometry":{"type":"LineString","coordinates":[[-2.6125974,51.4676443],[-2.6128039,51.4678394],[-2.6129692,51.4679749],[-2.6130832,51.4680786],[-2.6131173,51.4681094]]}},{"type":"Feature","properties":{"osm_id":1432638416,"name":"Whiteladies Road","ref":"A4018","corridor":"Bus Route 2"},"geometry":{"type":"LineString","coordinates":[[-2.6098679,51.4648168],[-2.6100673,51.4650288],[-2.610154,51.4651071],[-2.6102187,51.4651739],[-2.610331,51.4653014],[-2.6104231,51.4654114],[-2.6107191,51.4657242]]}},{"type":"Feature","properties":{"osm_id":1432638417,"name":"Whiteladies Road","ref":"A4018","corridor":"Bus Route 2"},"geometry":{"type":"LineString","coordinates":[[-2.6088535,51.4624759],[-2.6090421,51.4629663]]}},{"type":"Feature","properties":{"osm_id":39597833,"name":"Whiteladies Road","ref":"A4018","corridor":"Bus Route 2"},"geometry":{"type":"LineString","coordinates":[[-2.6131173,51.4681094],[-2.613262,51.4682403],[-2.6133676,51.4683228],[-2.6134484,51.4683858],[-2.6138161,51.4687353],[-2.6139066,51.4688412],[-2.6139228,51.4688653],[-2.6139432,51.4688958]]}},{"type":"Feature","properties":{"osm_id":82650543,"name":"Whiteladies Road","ref":"A4018","corridor":"Bus Route 2"},"geometry":{"type":"LineString","coordinates":[[-2.6147162,51.4700247],[-2.6148235,51.47013],[-2.6149958,51.470287],[-2.6150036,51.470294]]}},{"type":"Feature","properties":{"osm_id":162281034,"name":"Westbury Road","ref":"A4018","corridor":"Bus Route 2"},"geometry":{"type":"LineString","coordinates":[[-2.6163864,51.4751666],[-2.6164156,51.4752949]]}},{"type":"Feature","properties":{"osm_id":3533296,"name":"Westbury Road","ref":"A4018","corridor":"Bus Route 2"},"geometry":{"type":"LineString","coordinates":[[-2.6154544,51.4716443],[-2.6156015,51.4721289]]}},{"type":"Feature","properties":{"osm_id":25663712,"name":"Westbury Road","corridor":"Bus Route 2"},"geometry":{"type":"LineString","coordinates":[[-2.6153748,51.4712824],[-2.6153829,51.4711751],[-2.6153609,51.4710319]]}},{"type":"Feature","properties":{"osm_id":25663735,"name":"Westbury Road","corridor":"Bus Route 2"},"geometry":{"type":"LineString","coordinates":[[-2.6153609,51.4710319],[-2.6153274,51.470924],[-2.6152034,51.4706617]]}},{"type":"Feature","properties":{"osm_id":31714666,"name":"Westbury Road","corridor":"Bus Route 2"},"geometry":{"type":"LineString","coordinates":[[-2.6151656,51.470577],[-2.6151138,51.4705292],[-2.615032,51.470378],[-2.6150271,51.4703532],[-2.6150036,51.470294]]}},{"type":"Feature","properties":{"osm_id":31714677,"name":"Westbury Road","corridor":"Bus Route 2"},"geometry":{"type":"LineString","coordinates":[[-2.6153916,51.4716358],[-2.6153423,51.4716124],[-2.6153088,51.4715656]]}},{"type":"Feature","properties":{"osm_id":38966429,"name":"Westbury Road","ref":"A4018","corridor":"Bus Route 2"},"geometry":{"type":"LineString","coordinates":[[-2.6153088,51.4715656],[-2.6153529,51.4714215],[-2.6153748,51.4712824]]}},{"type":"Feature","properties":{"osm_id":203035034,"name":"Upper Belgrave Road","ref":"A4018","corridor":"Bus Route 2"},"geometry":{"type":"LineString","coordinates":[[-2.6154544,51.4716443],[-2.6153916,51.4716358]]}},{"type":"Feature","properties":{"osm_id":215089167,"name":"Westbury Road","ref":"A4018","corridor":"Bus Route 2"},"geometry":{"type":"LineString","coordinates":[[-2.6161014,51.47407],[-2.6161473,51.4742467],[-2.616283,51.4747686],[-2.6163864,51.4751666]]}},{"type":"Feature","properties":{"osm_id":308478950,"name":"Westbury Road","ref":"A4018","corridor":"Bus Route 2"},"geometry":{"type":"LineString","coordinates":[[-2.6156015,51.4721289],[-2.6161014,51.47407]]}},{"type":"Feature","properties":{"osm_id":1427113003,"name":"Westbury Road","corridor":"Bus Route 2"},"geometry":{"type":"LineString","coordinates":[[-2.6152034,51.4706617],[-2.6151899,51.4706337],[-2.6151656,51.470577]]}},{"type":"Feature","properties":{"osm_id":82650540,"name":"Whiteladies Road","ref":"A4018","corridor":"Bus Route 2"},"geometry":{"type":"LineString","coordinates":[[-2.6147162,51.4700247],[-2.6146109,51.4699792],[-2.6145327,51.4699083],[-2.6144625,51.4698381],[-2.6143693,51.469727],[-2.6143508,51.4697021],[-2.6142874,51.4696118],[-2.6141754,51.4694325],[-2.6141545,51.469381],[-2.6141311,51.469324],[-2.6141498,51.4692569]]}},{"type":"Feature","properties":{"osm_id":1432638412,"name":"Whiteladies Road","ref":"A4018","corridor":"Bus Route 2"},"geometry":{"type":"LineString","coordinates":[[-2.6140739,51.4690904],[-2.6141498,51.4692569]]}},{"type":"Feature","properties":{"osm_id":1432638413,"name":"Whiteladies Road","ref":"A4018","corridor":"Bus Route 2"},"geometry":{"type":"LineString","coordinates":[[-2.6139432,51.4688958],[-2.6140364,51.469024],[-2.6140739,51.4690904]]}},{"type":"Feature","properties":{"osm_id":3445574,"name":"Victoria Street","ref":"B4053","corridor":"Bus Route 2"},"geometry":{"type":"LineString","coordinates":[[-2.5910422,51.4534846],[-2.5916214,51.4538032]]}},{"type":"Feature","properties":{"osm_id":172253492,"name":"Victoria Street","ref":"B4053","corridor":"Bus Route 2"},"geometry":{"type":"LineString","coordinates":[[-2.590866,51.4533937],[-2.5909768,51.4534503],[-2.5910422,51.4534846]]}},{"type":"Feature","properties":{"osm_id":174536053,"name":"High Street","corridor":"Bus Route 2"},"geometry":{"type":"LineString","coordinates":[[-2.5920574,51.4541494],[-2.5924353,51.4545095],[-2.5925375,51.4546073],[-2.5926152,51.4546853]]}},{"type":"Feature","properties":{"osm_id":177586098,"name":"High Street","corridor":"Bus Route 2"},"geometry":{"type":"LineString","coordinates":[[-2.591811,51.4539331],[-2.5919193,51.4540228]]}},{"type":"Feature","properties":{"osm_id":219155193,"name":"Victoria Street","ref":"B4053","corridor":"Bus Route 2"},"geometry":{"type":"LineString","coordinates":[[-2.5889983,51.4526495],[-2.5891965,51.4527323],[-2.5892322,51.452747],[-2.5892671,51.4527601],[-2.5894011,51.4528146],[-2.589785,51.4529565],[-2.589982,51.4530348],[-2.5900023,51.4530419],[-2.5903845,51.4531972]]}},{"type":"Feature","properties":{"osm_id":232634880,"name":"High Street","corridor":"Bus Route 2"},"geometry":{"type":"LineString","coordinates":[[-2.5919193,51.4540228],[-2.5920574,51.4541494]]}},{"type":"Feature","properties":{"osm_id":388091412,"name":"Victoria Street","ref":"B4053","corridor":"Bus Route 2"},"geometry":{"type":"LineString","coordinates":[[-2.591696,51.4538504],[-2.591811,51.4539331]]}},{"type":"Feature","properties":{"osm_id":644594543,"name":"High Street","corridor":"Bus Route 2"},"geometry":{"type":"LineString","coordinates":[[-2.5926688,51.4548359],[-2.5926313,51.4548108],[-2.5926018,51.4547223],[-2.5926152,51.4546853]]}},{"type":"Feature","properties":{"osm_id":644594544,"name":"High Street","corridor":"Bus Route 2"},"geometry":{"type":"LineString","coordinates":[[-2.5926688,51.4548359],[-2.5926698,51.4548594],[-2.5926651,51.4548932]]}},{"type":"Feature","properties":{"osm_id":727868466,"name":"Victoria Street","ref":"B4053","corridor":"Bus Route 2"},"geometry":{"type":"LineString","coordinates":[[-2.5916214,51.4538032],[-2.5916715,51.4538316]]}},{"type":"Feature","properties":{"osm_id":919940113,"name":"Victoria Street","ref":"B4053","corridor":"Bus Route 2"},"geometry":{"type":"LineString","coordinates":[[-2.5903845,51.4531972],[-2.590517,51.453249],[-2.5906101,51.4532854]]}},{"type":"Feature","properties":{"osm_id":1252323501,"name":"Victoria Street","ref":"B4053","corridor":"Bus Route 2"},"geometry":{"type":"LineString","coordinates":[[-2.5906101,51.4532854],[-2.5907295,51.4533321]]}},{"type":"Feature","properties":{"osm_id":1252323504,"name":"Victoria Street","ref":"B4053","corridor":"Bus Route 2"},"geometry":{"type":"LineString","coordinates":[[-2.5886763,51.4525112],[-2.5887808,51.4525556],[-2.5888406,51.4525833],[-2.5889983,51.4526495]]}},{"type":"Feature","properties":{"osm_id":1344871861,"name":"Victoria Street","ref":"B4053","corridor":"Bus Route 2"},"geometry":{"type":"LineString","coordinates":[[-2.5916715,51.4538316],[-2.591696,51.4538504]]}},{"type":"Feature","properties":{"osm_id":1344871871,"name":"Victoria Street","ref":"B4053","corridor":"Bus Route 2"},"geometry":{"type":"LineString","coordinates":[[-2.5907295,51.4533321],[-2.590866,51.4533937]]}},{"type":"Feature","properties":{"osm_id":3445575,"name":"Victoria Street","ref":"B4053","corridor":"Bus Route 2"},"geometry":{"type":"LineString","coordinates":[[-2.5866407,51.4509741],[-2.586759,51.4510792],[-2.5868755,51.4511843]]}},{"type":"Feature","properties":{"osm_id":25665955,"name":"Victoria Street","ref":"B4053","corridor":"Bus Route 2"},"geometry":{"type":"LineString","coordinates":[[-2.5854778,51.4502135],[-2.5853009,51.4502055],[-2.5852266,51.4502025],[-2.5851718,51.4502023],[-2.5850049,51.4501955]]}},{"type":"Feature","properties":{"osm_id":191318878,"name":"Victoria Street","ref":"B4053","corridor":"Bus Route 2"},"geometry":{"type":"LineString","coordinates":[[-2.5868755,51.4511843],[-2.5874143,51.4516553],[-2.5874719,51.451704],[-2.5875851,51.4517998],[-2.587781,51.4519507],[-2.5881005,51.4521815],[-2.5882768,51.452296]]}},{"type":"Feature","properties":{"osm_id":203154876,"name":"Victoria Street","ref":"B4053","corridor":"Bus Route 2"},"geometry":{"type":"LineString","coordinates":[[-2.5850049,51.4501955],[-2.5848008,51.4501396]]}},{"type":"Feature","properties":{"osm_id":478179926,"name":"Victoria Street","ref":"B4053","corridor":"Bus Route 2"},"geometry":{"type":"LineString","coordinates":[[-2.5858741,51.4502648],[-2.5859706,51.4503355],[-2.5860229,51.450382],[-2.5860535,51.4504092]]}},{"type":"Feature","properties":{"osm_id":563080063,"name":"Temple Gate","ref":"A4044","corridor":"Bus Route 2"},"geometry":{"type":"LineString","coordinates":[[-2.5848106,51.4500476],[-2.5848042,51.4499705],[-2.5847993,51.4499353],[-2.5848155,51.4498115]]}},{"type":"Feature","properties":{"osm_id":571478237,"name":"Victoria Street","ref":"B4053","corridor":"Bus Route 2"},"geometry":{"type":"LineString","coordinates":[[-2.5860535,51.4504092],[-2.5861147,51.4504673],[-2.5863067,51.4506447]]}},{"type":"Feature","properties":{"osm_id":856654387,"name":"Temple Way","ref":"A4044","corridor":"Bus Route 2"},"geometry":{"type":"LineString","coordinates":[[-2.5848008,51.4501396],[-2.5848106,51.4500476]]}},{"type":"Feature","properties":{"osm_id":1370707138,"name":"Temple Gate","ref":"A4044","corridor":"Bus Route 2"},"geometry":{"type":"LineString","coordinates":[[-2.5844176,51.4490525],[-2.5845645,51.4493328],[-2.5846011,51.4494025],[-2.5846314,51.4494604],[-2.5848155,51.4498115]]}},{"type":"Feature","properties":{"osm_id":1458787945,"name":"Victoria Street","ref":"B4053","corridor":"Bus Route 2"},"geometry":{"type":"LineString","coordinates":[[-2.5863067,51.4506447],[-2.5864257,51.4507504],[-2.5864817,51.4507999],[-2.5866407,51.4509741]]}},{"type":"Feature","properties":{"osm_id":1458787946,"name":"Victoria Street","ref":"B4053","corridor":"Bus Route 2"},"geometry":{"type":"LineString","coordinates":[[-2.5856021,51.4501995],[-2.5854778,51.4502135]]}},{"type":"Feature","properties":{"osm_id":1458787947,"name":"Victoria Street","ref":"B4053","corridor":"Bus Route 2"},"geometry":{"type":"LineString","coordinates":[[-2.5856021,51.4501995],[-2.5857732,51.450226],[-2.5858741,51.4502648]]}},{"type":"Feature","properties":{"osm_id":3512235,"name":"The Horsefair","corridor":"Bus Route 2"},"geometry":{"type":"LineString","coordinates":[[-2.5919179,51.4576936],[-2.5919906,51.4577793],[-2.5919914,51.4578095],[-2.591962,51.4578508],[-2.5919169,51.4578754],[-2.5918145,51.4579077],[-2.5917048,51.4579328],[-2.5915244,51.4579741],[-2.5913606,51.4580144],[-2.5912987,51.4580315],[-2.5910454,51.4581015],[-2.5908011,51.4581919],[-2.5906244,51.4582572],[-2.5905499,51.4582821],[-2.5904907,51.4583026],[-2.5904747,51.4583082],[-2.5901335,51.458427],[-2.5900242,51.4584651],[-2.5899495,51.4584927],[-2.5897481,51.4585635],[-2.5891332,51.4587747],[-2.5890608,51.4587996],[-2.5889848,51.4588096],[-2.5888719,51.4588141],[-2.5887195,51.4588196],[-2.5886556,51.4588173],[-2.5885084,51.458809],[-2.5881518,51.4588176],[-2.5876383,51.4588345],[-2.5874252,51.4588242],[-2.5872102,51.4587988],[-2.5871231,51.4587639],[-2.5870329,51.4587086],[-2.5869547,51.4586169],[-2.5868182,51.4584249],[-2.5867257,51.4582949]]}},{"type":"Feature","properties":{"osm_id":20343248,"name":"Wine Street","corridor":"Bus Route 2"},"geometry":{"type":"LineString","coordinates":[[-2.5926651,51.4548932],[-2.5926247,51.4549655],[-2.5925794,51.4550186],[-2.5925344,51.4550563],[-2.5924358,51.455114],[-2.5923431,51.4551604],[-2.5921303,51.4552369],[-2.5920076,51.4552777],[-2.5919256,51.4553049],[-2.5916861,51.4553729],[-2.5916319,51.4553882],[-2.5915798,51.455403],[-2.5912917,51.4554847],[-2.5907457,51.4556338],[-2.5906111,51.4556719]]}},{"type":"Feature","properties":{"osm_id":37222934,"name":"Newgate","corridor":"Bus Route 2"},"geometry":{"type":"LineString","coordinates":[[-2.5881075,51.4563458],[-2.5881319,51.4563393],[-2.5882429,51.4563088],[-2.5885528,51.4562235],[-2.588666,51.4561923],[-2.5889062,51.4561318]]}},{"type":"Feature","properties":{"osm_id":1364559199,"name":"Victoria Street","ref":"B4053","corridor":"Bus Route 2"},"geometry":{"type":"LineString","coordinates":[[-2.5882768,51.452296],[-2.58847,51.4523978],[-2.588547,51.4524395],[-2.5886763,51.4525112]]}},{"type":"Feature","properties":{"osm_id":3512236,"name":"Union Street","corridor":"Bus Route 2"},"geometry":{"type":"LineString","coordinates":[[-2.5914231,51.4570992],[-2.5915109,51.4572225],[-2.5915653,51.4572748],[-2.591787,51.4575362]]}},{"type":"Feature","properties":{"osm_id":22612814,"name":"Broadmead","corridor":"Bus Route 2"},"geometry":{"type":"LineString","coordinates":[[-2.5920411,51.4568576],[-2.5918935,51.4568962],[-2.5916499,51.4569361],[-2.5915603,51.4569655]]}},{"type":"Feature","properties":{"osm_id":171255692,"name":"Broadmead","corridor":"Bus Route 2"},"geometry":{"type":"LineString","coordinates":[[-2.5915603,51.4569655],[-2.5915056,51.4569953],[-2.5914758,51.4570191],[-2.5914531,51.4570501],[-2.5914231,51.4570992]]}},{"type":"Feature","properties":{"osm_id":203032223,"name":"Newgate","corridor":"Bus Route 2"},"geometry":{"type":"LineString","coordinates":[[-2.5901248,51.4558086],[-2.5904834,51.455708],[-2.5906111,51.4556719]]}},{"type":"Feature","properties":{"osm_id":638610873,"name":"Newgate","corridor":"Bus Route 2"},"geometry":{"type":"LineString","coordinates":[[-2.5897423,51.4559128],[-2.5893448,51.456017]]}},{"type":"Feature","properties":{"osm_id":711120987,"name":"Newgate","corridor":"Bus Route 2"},"geometry":{"type":"LineString","coordinates":[[-2.5897423,51.4559128],[-2.5901248,51.4558086]]}},{"type":"Feature","properties":{"osm_id":730204097,"name":"Nelson Street","corridor":"Bus Route 2"},"geometry":{"type":"LineString","coordinates":[[-2.5933603,51.4566039],[-2.5932197,51.4566127]]}},{"type":"Feature","properties":{"osm_id":815885858,"name":"Nelson Street","corridor":"Bus Route 2"},"geometry":{"type":"LineString","coordinates":[[-2.5927293,51.4566902],[-2.5920411,51.4568576]]}},{"type":"Feature","properties":{"osm_id":991647137,"name":"Newgate","corridor":"Bus Route 2"},"geometry":{"type":"LineString","coordinates":[[-2.5889062,51.4561318],[-2.5892888,51.4560316],[-2.5893448,51.456017]]}},{"type":"Feature","properties":{"osm_id":1311021376,"name":"Nelson Street","corridor":"Bus Route 2"},"geometry":{"type":"LineString","coordinates":[[-2.5932197,51.4566127],[-2.5930913,51.456613],[-2.5930118,51.4566234],[-2.5927293,51.4566902]]}},{"type":"Feature","properties":{"osm_id":1458524044,"name":"Union Street","corridor":"Bus Route 2"},"geometry":{"type":"LineString","coordinates":[[-2.591787,51.4575362],[-2.5919179,51.4576936]]}},{"type":"Feature","properties":{"osm_id":20343257,"name":"Broad Weir","corridor":"Bus Route 2"},"geometry":{"type":"LineString","coordinates":[[-2.5881075,51.4563458],[-2.5878871,51.4564085],[-2.5871513,51.4566181],[-2.5869363,51.4566894],[-2.5868296,51.4567248],[-2.5867821,51.4567406],[-2.5866044,51.4568002],[-2.5863137,51.4569149],[-2.5861693,51.4569787],[-2.586109,51.4570058],[-2.5860511,51.4570222],[-2.585998,51.4570386]]}},{"type":"Feature","properties":{"osm_id":22634693,"name":"Penn Street","corridor":"Bus Route 2"},"geometry":{"type":"LineString","coordinates":[[-2.5867257,51.4582949],[-2.5866966,51.4582459],[-2.5864451,51.4578807],[-2.5862506,51.4575891],[-2.5862148,51.4575354],[-2.5861884,51.4574977],[-2.5861662,51.4574662],[-2.5861396,51.457434]]}},{"type":"Feature","properties":{"osm_id":638610869,"name":"Penn Street","corridor":"Bus Route 2"},"geometry":{"type":"LineString","coordinates":[[-2.585966,51.4571757],[-2.5859089,51.4571111],[-2.5858771,51.4570684]]}},{"type":"Feature","properties":{"osm_id":711114416,"name":"Broad Weir","corridor":"Bus Route 2"},"geometry":{"type":"LineString","coordinates":[[-2.585998,51.4570386],[-2.5858771,51.4570684]]}},{"type":"Feature","properties":{"osm_id":711114418,"name":"Penn Street","corridor":"Bus Route 2"},"geometry":{"type":"LineString","coordinates":[[-2.5861396,51.457434],[-2.5860016,51.457239],[-2.5859803,51.4572012],[-2.585966,51.4571757]]}},{"type":"Feature","properties":{"osm_id":81826384,"name":"North View","ref":"B4054","corridor":"Bus Route 2"},"geometry":{"type":"LineString","coordinates":[[-2.6161466,51.4794664],[-2.6162865,51.4794567],[-2.6163602,51.4794516],[-2.6164965,51.4794468]]}},{"type":"Feature","properties":{"osm_id":143866633,"name":"Westbury Road","ref":"A4018","corridor":"Bus Route 2"},"geometry":{"type":"LineString","coordinates":[[-2.6164156,51.4752949],[-2.6168015,51.4769225]]}},{"type":"Feature","properties":{"osm_id":193014373,"name":"Westbury Road","ref":"A4018","corridor":"Bus Route 2"},"geometry":{"type":"LineString","coordinates":[[-2.6167006,51.4793148],[-2.6167224,51.4791943],[-2.6167707,51.4789538]]}},{"type":"Feature","properties":{"osm_id":203027253,"name":"White Tree","ref":"A4018","corridor":"Bus Route 2"},"geometry":{"type":"LineString","coordinates":[[-2.6164965,51.4794468],[-2.6165216,51.4793995],[-2.6165684,51.4793592],[-2.6166325,51.4793295],[-2.6167006,51.4793148]]}},{"type":"Feature","properties":{"osm_id":215091997,"name":"Westbury Road","ref":"A4018","corridor":"Bus Route 2"},"geometry":{"type":"LineString","coordinates":[[-2.6168015,51.4769225],[-2.6168166,51.4770312],[-2.6168203,51.477489],[-2.6167995,51.4784734],[-2.6167739,51.478904],[-2.6167707,51.4789538]]}},{"type":"Feature","properties":{"osm_id":659536602,"name":"North View","ref":"B4054","corridor":"Bus Route 2"},"geometry":{"type":"LineString","coordinates":[[-2.6161466,51.4794664],[-2.6160554,51.4794669],[-2.6157455,51.4794606]]}},{"type":"Feature","properties":{"osm_id":4081783,"name":"Henleaze Road","ref":"B4056","corridor":"Bus Route 2"},"geometry":{"type":"LineString","coordinates":[[-2.6129138,51.4831476],[-2.6129144,51.4831729],[-2.6129089,51.4832935],[-2.6128993,51.4835045],[-2.612842,51.4837239],[-2.6127073,51.4841257],[-2.6125068,51.4844742],[-2.6124128,51.4846329],[-2.6123307,51.4847714],[-2.6122959,51.484829],[-2.6121269,51.485064],[-2.6119811,51.485209],[-2.6117619,51.4853544],[-2.6111403,51.4856753],[-2.6109745,51.4857609],[-2.6108008,51.4858656],[-2.6105171,51.4860434],[-2.6103737,51.4861402],[-2.6099313,51.4864249],[-2.6098276,51.4865103],[-2.6097485,51.4866004],[-2.6095434,51.4869032],[-2.6094705,51.4870273],[-2.6094215,51.4871141],[-2.6092395,51.4874361],[-2.6091786,51.4875439],[-2.6090988,51.4876818],[-2.6090219,51.4878075],[-2.6087888,51.4881948],[-2.6085394,51.4885939],[-2.6084227,51.4887806],[-2.6082993,51.4889905],[-2.6082755,51.4890353],[-2.6081993,51.4891929],[-2.60816,51.4892833],[-2.6081377,51.4893415],[-2.6080853,51.4895289],[-2.6080653,51.4896268],[-2.6080493,51.4897053],[-2.6080257,51.4898207],[-2.6079281,51.4901783],[-2.6078706,51.4903478]]}},{"type":"Feature","properties":{"osm_id":4234846,"name":"Northumbria Drive","corridor":"Bus Route 2"},"geometry":{"type":"LineString","coordinates":[[-2.6128597,51.4825734],[-2.6128541,51.4824405],[-2.6128361,51.4820175],[-2.6128192,51.4819349],[-2.612704,51.4815393],[-2.6124583,51.4810867],[-2.6122633,51.4808373],[-2.6122416,51.4808137],[-2.612197,51.4807653],[-2.6120523,51.4806084],[-2.6119889,51.4805509],[-2.6119302,51.4805015],[-2.6117177,51.4803549],[-2.6116493,51.4803012],[-2.6115747,51.4802426],[-2.6114587,51.4801716],[-2.6111625,51.4799884]]}},{"type":"Feature","properties":{"osm_id":177400757,"name":"North View","ref":"B4054","corridor":"Bus Route 2"},"geometry":{"type":"LineString","coordinates":[[-2.6157455,51.4794606],[-2.6156669,51.4794539],[-2.615493,51.4794345],[-2.61534,51.4794107],[-2.6150909,51.479372],[-2.6147238,51.4793098],[-2.6145536,51.4792924],[-2.614385,51.479306],[-2.6138721,51.4793779],[-2.6134254,51.4794553],[-2.6130186,51.4795249],[-2.6129074,51.4795446],[-2.6125244,51.4796239],[-2.6121624,51.4796974],[-2.6119832,51.4797254],[-2.6113267,51.4798861],[-2.6112292,51.4799287],[-2.6111625,51.4799884]]}},{"type":"Feature","properties":{"osm_id":439782772,"name":"Henleaze Road","ref":"B4056","corridor":"Bus Route 2"},"geometry":{"type":"LineString","coordinates":[[-2.6129138,51.4831476],[-2.612859,51.4829645],[-2.612859,51.4829016],[-2.6129199,51.4828251]]}},{"type":"Feature","properties":{"osm_id":439782781,"name":"Northumbria Drive","corridor":"Bus Route 2"},"geometry":{"type":"LineString","coordinates":[[-2.6129199,51.4828251],[-2.6128423,51.4827403],[-2.6128381,51.4826136],[-2.6128597,51.4825734]]}},{"type":"Feature","properties":{"osm_id":5992323,"name":"Doncaster Road","corridor":"Bus Route 2"},"geometry":{"type":"LineString","coordinates":[[-2.6086002,51.5007231],[-2.6084573,51.5005203],[-2.6083965,51.5004579],[-2.6082909,51.5003857]]}},{"type":"Feature","properties":{"osm_id":737410626,"name":"Greystoke Avenue","corridor":"Bus Route 2"},"geometry":{"type":"LineString","coordinates":[[-2.6086002,51.5007231],[-2.6085009,51.5007656],[-2.6083917,51.5008165],[-2.607912,51.5009825],[-2.6078911,51.5009897],[-2.6077508,51.5010391]]}},{"type":"Feature","properties":{"osm_id":4234849,"name":"Southmead Road","ref":"B4056","corridor":"Bus Route 2"},"geometry":{"type":"LineString","coordinates":[[-2.6055688,51.4924037],[-2.6063568,51.492389],[-2.6064459,51.4923812],[-2.6067011,51.4923445],[-2.606861,51.4923586]]}},{"type":"Feature","properties":{"osm_id":85729109,"name":"Southmead Road","ref":"B4056","corridor":"Bus Route 2"},"geometry":{"type":"LineString","coordinates":[[-2.6033213,51.49325],[-2.6033317,51.4931277],[-2.6034825,51.4929584],[-2.6036238,51.4927991]]}},{"type":"Feature","properties":{"osm_id":85729139,"name":"Southmead Road","ref":"B4056","corridor":"Bus Route 2"},"geometry":{"type":"LineString","coordinates":[[-2.6037118,51.4927261],[-2.6037718,51.4926801],[-2.6039634,51.4926123],[-2.6042246,51.4925339],[-2.6043096,51.4925131],[-2.6044262,51.4925242]]}},{"type":"Feature","properties":{"osm_id":189151538,"name":"Southmead Road","ref":"B4056","corridor":"Bus Route 2"},"geometry":{"type":"LineString","coordinates":[[-2.6052781,51.4924484],[-2.6050504,51.4924537],[-2.6049636,51.492458],[-2.6047791,51.4924672],[-2.6044262,51.4925242]]}},{"type":"Feature","properties":{"osm_id":199237506,"name":"Henleaze Road","ref":"B4056","corridor":"Bus Route 2"},"geometry":{"type":"LineString","coordinates":[[-2.606861,51.4923586],[-2.6068642,51.4922463],[-2.6068989,51.4922186],[-2.6069889,51.4921469],[-2.6070654,51.4920685],[-2.6072303,51.4918246],[-2.6073711,51.491575],[-2.6074194,51.4914689],[-2.6074556,51.4913771],[-2.6075602,51.4910447],[-2.6075821,51.490981],[-2.6076194,51.49087],[-2.6077238,51.4905587],[-2.6077423,51.4905035],[-2.6078149,51.4904132],[-2.6078706,51.4903478]]}},{"type":"Feature","properties":{"osm_id":203007429,"name":"Southmead Road","ref":"B4056","corridor":"Bus Route 2"},"geometry":{"type":"LineString","coordinates":[[-2.6036238,51.4927991],[-2.6036162,51.4927818],[-2.6036164,51.4927712]]}},{"type":"Feature","properties":{"osm_id":203007431,"name":"Southmead Road","ref":"B4056","corridor":"Bus Route 2"},"geometry":{"type":"LineString","coordinates":[[-2.6036649,51.49273],[-2.6036928,51.4927256],[-2.6037118,51.4927261]]}},{"type":"Feature","properties":{"osm_id":203007441,"name":"Southmead Road","ref":"B4056","corridor":"Bus Route 2"},"geometry":{"type":"LineString","coordinates":[[-2.6036164,51.4927712],[-2.6036246,51.492754],[-2.6036343,51.4927446],[-2.6036649,51.49273]]}},{"type":"Feature","properties":{"osm_id":1106538193,"name":"Southmead Road","ref":"B4056","corridor":"Bus Route 2"},"geometry":{"type":"LineString","coordinates":[[-2.6052781,51.4924484],[-2.6054068,51.4924064],[-2.6055688,51.4924037]]}},{"type":"Feature","properties":{"osm_id":85729125,"name":"Southmead Road","ref":"B4056","corridor":"Bus Route 2"},"geometry":{"type":"LineString","coordinates":[[-2.6033213,51.49325],[-2.6031814,51.4934271],[-2.6030923,51.4935452],[-2.6030195,51.4936165],[-2.6028582,51.4937459],[-2.6026426,51.493894],[-2.6025136,51.4939817],[-2.6020349,51.4942903],[-2.6019017,51.4943694],[-2.6014017,51.4946842],[-2.6013685,51.4947063],[-2.6010303,51.4949459],[-2.6009402,51.4950097],[-2.6007314,51.4951393],[-2.6006632,51.495182]]}},{"type":"Feature","properties":{"osm_id":361633603,"name":"Doncaster Road","corridor":"Bus Route 2"},"geometry":{"type":"LineString","coordinates":[[-2.6082909,51.5003857],[-2.6082653,51.5003693],[-2.6082212,51.5003492],[-2.6081789,51.5003336],[-2.6081032,51.5003053],[-2.6079839,51.5002727],[-2.6078949,51.500261],[-2.6077699,51.500247],[-2.60759,51.5002267],[-2.6072476,51.5001759],[-2.6061528,51.5000133],[-2.6060004,51.4999907],[-2.6057899,51.4999594],[-2.6041863,51.4997211],[-2.6039164,51.499681],[-2.6036089,51.4996396],[-2.6032458,51.4995737],[-2.6031944,51.4995647],[-2.6028921,51.4995031],[-2.6025888,51.4994404],[-2.6024602,51.4994149],[-2.6023425,51.4993848],[-2.6021705,51.499337],[-2.6021167,51.4993166],[-2.6019223,51.4992572],[-2.6015873,51.4991662],[-2.6015648,51.49916],[-2.6014583,51.4991306],[-2.6012479,51.4990743],[-2.6011421,51.4990448],[-2.6010643,51.4990211],[-2.6010212,51.4990072],[-2.6007859,51.4989312],[-2.6004553,51.4988135],[-2.599961,51.4986266],[-2.599699,51.4985136],[-2.5995652,51.4984567],[-2.5994569,51.4984033],[-2.5991492,51.4982625],[-2.5987514,51.4980696],[-2.5986367,51.4980045],[-2.598429,51.4978767],[-2.598334,51.4978182],[-2.5981003,51.4976745]]}},{"type":"Feature","properties":{"osm_id":1458324069,"name":"Greystoke Avenue","corridor":"Bus Route 2"},"geometry":{"type":"LineString","coordinates":[[-2.6072032,51.5012297],[-2.6069514,51.5013175],[-2.6069327,51.501324],[-2.6063351,51.5015279]]}},{"type":"Feature","properties":{"osm_id":1458324070,"name":"Greystoke Avenue","corridor":"Bus Route 2"},"geometry":{"type":"LineString","coordinates":[[-2.6077508,51.5010391],[-2.6072032,51.5012297]]}},{"type":"Feature","properties":{"osm_id":583350345,"name":"Southmead Road","ref":"B4056","corridor":"Bus Route 2"},"geometry":{"type":"LineString","coordinates":[[-2.6005223,51.4952789],[-2.600515,51.4952457],[-2.6005153,51.4952384],[-2.6005197,51.4952321],[-2.6005592,51.4952083],[-2.6005889,51.495189],[-2.6005929,51.4951864],[-2.6005986,51.4951851],[-2.6006055,51.4951842],[-2.6006632,51.495182]]}},{"type":"Feature","properties":{"osm_id":583350346,"name":"Southmead Road","ref":"B4056","corridor":"Bus Route 2"},"geometry":{"type":"LineString","coordinates":[[-2.6005223,51.4952789],[-2.6004712,51.495311],[-2.600357,51.4953826],[-2.6003246,51.4954015],[-2.5999707,51.495608],[-2.5998732,51.4956659],[-2.5998145,51.4957007],[-2.5996649,51.4957869],[-2.5993122,51.4960171],[-2.5991092,51.4961495],[-2.5990898,51.4961619],[-2.5987027,51.496409],[-2.5986384,51.496451],[-2.5985353,51.4965147],[-2.5982259,51.4967068],[-2.598097,51.4967868],[-2.5979518,51.4968768]]}},{"type":"Feature","properties":{"osm_id":583819132,"name":"Doncaster Road","corridor":"Bus Route 2"},"geometry":{"type":"LineString","coordinates":[[-2.5981003,51.4976745],[-2.5979105,51.4975633],[-2.5975319,51.4973243],[-2.5973776,51.4972271]]}},{"type":"Feature","properties":{"osm_id":583819133,"name":"Southmead Road","ref":"B4056","corridor":"Bus Route 2"},"geometry":{"type":"LineString","coordinates":[[-2.5979518,51.4968768],[-2.5975394,51.4971323],[-2.5973776,51.4972271]]}},{"type":"Feature","properties":{"osm_id":3532875,"name":"Wyck Beck Road","ref":"A4018","corridor":"Bus Route 2"},"geometry":{"type":"LineString","coordinates":[[-2.6224964,51.5181269],[-2.622422,51.5178831],[-2.622368,51.5177497],[-2.6222859,51.5175747],[-2.6221894,51.5174252],[-2.6220292,51.5171913],[-2.6219788,51.517132],[-2.6217828,51.5169013],[-2.6216514,51.5167454],[-2.6215363,51.5166042]]}},{"type":"Feature","properties":{"osm_id":203016819,"corridor":"Bus Route 2"},"geometry":{"type":"LineString","coordinates":[[-2.6225205,51.5182251],[-2.6224989,51.518194],[-2.6224907,51.5181606],[-2.6224964,51.5181269]]}},{"type":"Feature","properties":{"osm_id":1282912496,"name":"Wyck Beck Road","ref":"A4018","corridor":"Bus Route 2"},"geometry":{"type":"LineString","coordinates":[[-2.6215363,51.5166042],[-2.6215076,51.5165691],[-2.6214826,51.5165372]]}},{"type":"Feature","properties":{"osm_id":1180344337,"name":"Cribbs Causeway","ref":"A4018","corridor":"Bus Route 2"},"geometry":{"type":"LineString","coordinates":[[-2.6212047,51.5196122],[-2.6212371,51.5195787],[-2.6215235,51.5193194],[-2.6221485,51.5187535],[-2.6221966,51.5187042],[-2.6224118,51.5184834],[-2.622488,51.5183739],[-2.6225163,51.5183222],[-2.6225288,51.5182718],[-2.6225205,51.5182251]]}},{"type":"Feature","properties":{"osm_id":1282912497,"name":"Wyck Beck Road","ref":"A4018","corridor":"Bus Route 2"},"geometry":{"type":"LineString","coordinates":[[-2.6214826,51.5165372],[-2.621428,51.5164679],[-2.6213792,51.5164059]]}},{"type":"Feature","properties":{"osm_id":4013153,"name":"Knole Lane","corridor":"Bus Route 2"},"geometry":{"type":"LineString","coordinates":[[-2.6172831,51.5099737],[-2.6171414,51.510005],[-2.6165527,51.5101285],[-2.6164132,51.5101519],[-2.6162667,51.5101679],[-2.6160834,51.5101821],[-2.615899,51.5101861],[-2.6157206,51.5101786],[-2.6155445,51.510163],[-2.6153849,51.5101434],[-2.6151945,51.5101072],[-2.6148002,51.510024],[-2.6144072,51.509941],[-2.6143163,51.509921],[-2.6136089,51.5097656],[-2.6133348,51.5097082],[-2.6131185,51.5096657],[-2.6129593,51.5096457],[-2.6126632,51.5096212]]}},{"type":"Feature","properties":{"osm_id":200338451,"name":"Wyck Beck Road","ref":"A4018","corridor":"Bus Route 2"},"geometry":{"type":"LineString","coordinates":[[-2.6202872,51.5148106],[-2.6198946,51.5142223],[-2.6198163,51.5140632],[-2.619672,51.5137265],[-2.6196258,51.5135981],[-2.6195526,51.513162],[-2.6195264,51.5127239],[-2.6195194,51.5124762],[-2.6195149,51.5123184],[-2.6195147,51.5119901],[-2.6195053,51.5116424],[-2.619497,51.51146],[-2.6194738,51.5113594]]}},{"type":"Feature","properties":{"osm_id":696036546,"name":"Knole Lane","corridor":"Bus Route 2"},"geometry":{"type":"LineString","coordinates":[[-2.6099972,51.5098242],[-2.609809,51.5098627],[-2.6094215,51.5099362],[-2.6090537,51.5100031],[-2.6083187,51.5101368],[-2.6082518,51.5101506],[-2.6079796,51.5101855],[-2.6075895,51.5102183],[-2.6070676,51.5102369],[-2.6067785,51.510242],[-2.6065496,51.510246],[-2.6054625,51.5102948],[-2.6051915,51.5103054],[-2.6047772,51.5103353],[-2.6042105,51.510377],[-2.6029723,51.51046]]}},{"type":"Feature","properties":{"osm_id":4355568,"name":"Wyck Beck Road","ref":"A4018","corridor":"Bus Route 2"},"geometry":{"type":"LineString","coordinates":[[-2.6194738,51.5113594],[-2.6194565,51.5112593]]}},{"type":"Feature","properties":{"osm_id":83534240,"name":"Passage Road","ref":"A4018","corridor":"Bus Route 2"},"geometry":{"type":"LineString","coordinates":[[-2.6194565,51.5112593],[-2.6193618,51.5109918],[-2.6192519,51.5108332],[-2.6190785,51.5106667],[-2.6189149,51.5105408],[-2.6185987,51.5103004],[-2.6183685,51.5101328],[-2.6182942,51.5100786],[-2.6181441,51.5099787],[-2.6180932,51.5099629],[-2.617999,51.5099427]]}},{"type":"Feature","properties":{"osm_id":200185016,"name":"Knole Lane","corridor":"Bus Route 2"},"geometry":{"type":"LineString","coordinates":[[-2.6179471,51.5099311],[-2.6179014,51.5099295],[-2.6177927,51.5099245],[-2.617751,51.5099242],[-2.6176831,51.5099236],[-2.6175508,51.5099319],[-2.6172831,51.5099737]]}},{"type":"Feature","properties":{"osm_id":202760238,"ref":"A4018","corridor":"Bus Route 2"},"geometry":{"type":"LineString","coordinates":[[-2.617999,51.5099427],[-2.6179471,51.5099311]]}},{"type":"Feature","properties":{"osm_id":696036517,"name":"Knole Lane","corridor":"Bus Route 2"},"geometry":{"type":"LineString","coordinates":[[-2.6101796,51.509795],[-2.6101515,51.5098259],[-2.610096,51.5098357],[-2.6100495,51.5098451],[-2.6099972,51.5098242]]}},{"type":"Feature","properties":{"osm_id":696036518,"name":"Knole Lane","corridor":"Bus Route 2"},"geometry":{"type":"LineString","coordinates":[[-2.6124461,51.509613],[-2.6124126,51.509612],[-2.6113949,51.5096367],[-2.6107819,51.5096836],[-2.6101796,51.509795]]}},{"type":"Feature","properties":{"osm_id":696036547,"name":"Knole Lane","corridor":"Bus Route 2"},"geometry":{"type":"LineString","coordinates":[[-2.6126632,51.5096212],[-2.612607,51.5096439],[-2.6125534,51.5096431],[-2.6124971,51.5096423],[-2.6124461,51.509613]]}},{"type":"Feature","properties":{"osm_id":163510201,"corridor":"Bus Route 2"},"geometry":{"type":"LineString","coordinates":[[-2.6030291,51.5026612],[-2.6028604,51.5026459],[-2.6028035,51.5026519],[-2.6027285,51.5026777],[-2.6026265,51.5027127],[-2.6024386,51.5027773],[-2.602404,51.5028039],[-2.6023246,51.5029034]]}},{"type":"Feature","properties":{"osm_id":1458324055,"name":"Greystoke Avenue","corridor":"Bus Route 2"},"geometry":{"type":"LineString","coordinates":[[-2.6023246,51.5029034],[-2.6022449,51.502931],[-2.6021852,51.5029517],[-2.6021436,51.502966],[-2.6020009,51.5030154]]}},{"type":"Feature","properties":{"osm_id":1458324068,"name":"Greystoke Avenue","corridor":"Bus Route 2"},"geometry":{"type":"LineString","coordinates":[[-2.6063351,51.5015279],[-2.6047634,51.5020647],[-2.604595,51.5021222],[-2.6035241,51.5024898],[-2.6030291,51.5026612]]}},{"type":"Feature","properties":{"osm_id":1458324050,"name":"Greystoke Avenue","corridor":"Bus Route 2"},"geometry":{"type":"LineString","coordinates":[[-2.6002798,51.503627],[-2.599157,51.5040162],[-2.5972838,51.5046646],[-2.5972094,51.5046901],[-2.5960454,51.5050884]]}},{"type":"Feature","properties":{"osm_id":1458324051,"name":"Greystoke Avenue","corridor":"Bus Route 2"},"geometry":{"type":"LineString","coordinates":[[-2.6006581,51.5034947],[-2.6002798,51.503627]]}},{"type":"Feature","properties":{"osm_id":1458324052,"name":"Greystoke Avenue","corridor":"Bus Route 2"},"geometry":{"type":"LineString","coordinates":[[-2.6010133,51.5033569],[-2.6006581,51.5034947]]}},{"type":"Feature","properties":{"osm_id":1458324053,"name":"Greystoke Avenue","corridor":"Bus Route 2"},"geometry":{"type":"LineString","coordinates":[[-2.6015812,51.5031605],[-2.6015032,51.5031875],[-2.6010133,51.5033569]]}},{"type":"Feature","properties":{"osm_id":107005067,"name":"Charlton Road","corridor":"Bus Route 2"},"geometry":{"type":"LineString","coordinates":[[-2.6021339,51.5105702],[-2.602084,51.5105838],[-2.6018509,51.5106483],[-2.6016525,51.5107185],[-2.6014727,51.5107903],[-2.6013861,51.5108184]]}},{"type":"Feature","properties":{"osm_id":151853328,"name":"Pen Park Road","corridor":"Bus Route 2"},"geometry":{"type":"LineString","coordinates":[[-2.5998123,51.5099798],[-2.5997446,51.5099371],[-2.5993589,51.50969],[-2.5991155,51.5095341],[-2.5989931,51.5094474],[-2.5980222,51.5088167],[-2.5976291,51.5085608],[-2.5970295,51.5081705],[-2.5966449,51.507919],[-2.5960376,51.5075123],[-2.5959254,51.5074171],[-2.5957259,51.5072478],[-2.5955335,51.5070713],[-2.59549,51.5070257],[-2.5953553,51.5068844],[-2.5952331,51.5067516],[-2.5950832,51.5065661],[-2.5948723,51.506255],[-2.5947439,51.5060123],[-2.5946965,51.5059296],[-2.5945967,51.5057525],[-2.5945427,51.505595]]}},{"type":"Feature","properties":{"osm_id":1458324049,"name":"Greystoke Avenue","corridor":"Bus Route 2"},"geometry":{"type":"LineString","coordinates":[[-2.5960454,51.5050884],[-2.5953764,51.5053184],[-2.595303,51.5053436],[-2.5945427,51.505595]]}},{"type":"Feature","properties":{"osm_id":1458324054,"name":"Greystoke Avenue","corridor":"Bus Route 2"},"geometry":{"type":"LineString","coordinates":[[-2.6020009,51.5030154],[-2.6018367,51.5030722],[-2.601789,51.5030886],[-2.6017737,51.5030939],[-2.6017243,51.503111],[-2.6015812,51.5031605]]}},{"type":"Feature","properties":{"osm_id":203644530,"name":"Knole Lane","corridor":"Bus Route 2"},"geometry":{"type":"LineString","coordinates":[[-2.6029723,51.51046],[-2.6028018,51.5104766]]}},{"type":"Feature","properties":{"osm_id":1507813414,"name":"Knole Lane","corridor":"Bus Route 2"},"geometry":{"type":"LineString","coordinates":[[-2.6028018,51.5104766],[-2.6025071,51.5105052],[-2.6023286,51.5105279],[-2.6022647,51.5105418],[-2.6021339,51.5105702]]}},{"type":"Feature","properties":{"osm_id":566213972,"name":"Charlton Road","corridor":"Bus Route 2"},"geometry":{"type":"LineString","coordinates":[[-2.6013861,51.5108184],[-2.6013062,51.5108705],[-2.6011406,51.5109147]]}},{"type":"Feature","properties":{"osm_id":566213976,"name":"Pen Park Road","corridor":"Bus Route 2"},"geometry":{"type":"LineString","coordinates":[[-2.6010316,51.5108606],[-2.6009545,51.5107697],[-2.6009441,51.5107515],[-2.600936,51.5107211]]}},{"type":"Feature","properties":{"osm_id":566213977,"name":"Charlton Road","corridor":"Bus Route 2"},"geometry":{"type":"LineString","coordinates":[[-2.601105,51.5109267],[-2.601075,51.5109264],[-2.6010479,51.5109183],[-2.6010287,51.510904],[-2.6010209,51.510886]]}},{"type":"Feature","properties":{"osm_id":566213982,"name":"Pen Park Road","corridor":"Bus Route 2"},"geometry":{"type":"LineString","coordinates":[[-2.599928,51.5100547],[-2.5998712,51.5100529],[-2.5998412,51.5100334],[-2.5998142,51.5100158],[-2.5998123,51.5099798]]}},{"type":"Feature","properties":{"osm_id":566213983,"name":"Pen Park Road","corridor":"Bus Route 2"},"geometry":{"type":"LineString","coordinates":[[-2.600936,51.5107211],[-2.6004865,51.5104168],[-2.6004446,51.5103895],[-2.6001005,51.5101652],[-2.6000142,51.510111],[-2.599928,51.5100547]]}},{"type":"Feature","properties":{"osm_id":1409212330,"name":"Charlton Road","corridor":"Bus Route 2"},"geometry":{"type":"LineString","coordinates":[[-2.6010209,51.510886],[-2.6010316,51.5108606]]}},{"type":"Feature","properties":{"osm_id":1409212331,"name":"Charlton Road","corridor":"Bus Route 2"},"geometry":{"type":"LineString","coordinates":[[-2.6011406,51.5109147],[-2.601105,51.5109267]]}},{"type":"Feature","properties":{"osm_id":22663542,"name":"Wyck Beck Road","ref":"A4018","corridor":"Bus Route 2"},"geometry":{"type":"LineString","coordinates":[[-2.6205211,51.5151298],[-2.620436,51.5150158]]}},{"type":"Feature","properties":{"osm_id":200338453,"name":"Wyck Beck Road","ref":"A4018","corridor":"Bus Route 2"},"geometry":{"type":"LineString","coordinates":[[-2.620436,51.5150158],[-2.6202872,51.5148106]]}},{"type":"Feature","properties":{"osm_id":1282912477,"name":"Wyck Beck Road","ref":"A4018","corridor":"Bus Route 2"},"geometry":{"type":"LineString","coordinates":[[-2.6213792,51.5164059],[-2.6213101,51.5163116],[-2.6212034,51.5161657],[-2.6210384,51.5159236],[-2.6209357,51.5157687],[-2.620847,51.5156254],[-2.6207396,51.515452],[-2.6206585,51.5153267],[-2.6205211,51.5151298]]}},{"type":"Feature","properties":{"osm_id":154496431,"name":"Cribbs Causeway","ref":"A4018","corridor":"Bus Route 2"},"geometry":{"type":"LineString","coordinates":[[-2.6148349,51.524743],[-2.615535,51.52443],[-2.6158812,51.5242433],[-2.6160039,51.5241656],[-2.6162595,51.5239954],[-2.6165688,51.5237514],[-2.6169765,51.5233722],[-2.6175845,51.5228075],[-2.61769,51.5227081],[-2.6177435,51.5226558],[-2.6178131,51.522591],[-2.6179734,51.5224554],[-2.6191948,51.5213767],[-2.619789,51.5208504],[-2.6202389,51.5204601],[-2.6202758,51.5204281],[-2.6206162,51.5201296],[-2.6211363,51.5196734],[-2.6212047,51.5196122]]}},{"type":"Feature","properties":{"osm_id":154496435,"name":"Lysander Road","corridor":"Bus Route 2"},"geometry":{"type":"LineString","coordinates":[[-2.6036657,51.524898],[-2.6038192,51.5247881],[-2.604489,51.5245233],[-2.6045662,51.5244687],[-2.6048615,51.5243937],[-2.6051438,51.5243295],[-2.6057458,51.5242233],[-2.6061785,51.5241791],[-2.6064449,51.5241606],[-2.6069255,51.52414],[-2.6091857,51.5241075],[-2.6105404,51.5240963],[-2.6108751,51.524101],[-2.6114499,51.524141],[-2.6120192,51.5241985],[-2.6125077,51.5242639],[-2.6127652,51.5243012],[-2.613079,51.5243578],[-2.6132034,51.5243883],[-2.6133654,51.5244276],[-2.6138613,51.5245627],[-2.614371,51.5247407],[-2.6144725,51.5247496],[-2.6145528,51.5247566],[-2.6147727,51.5247571]]}},{"type":"Feature","properties":{"osm_id":1384055533,"ref":"A4018","corridor":"Bus Route 2"},"geometry":{"type":"LineString","coordinates":[[-2.6147727,51.5247571],[-2.6148349,51.524743]]}},{"type":"Feature","properties":{"osm_id":3532956,"name":"Lysander Road","corridor":"Bus Route 2"},"geometry":{"type":"LineString","coordinates":[[-2.6004354,51.5289249],[-2.6006946,51.528697],[-2.6010297,51.5282259],[-2.6011414,51.5281106],[-2.6013692,51.5278364],[-2.6015624,51.5276608],[-2.6017776,51.5275232],[-2.6021354,51.5273699],[-2.6023062,51.5272564]]}},{"type":"Feature","properties":{"osm_id":202758341,"name":"Pegasus Road","corridor":"Bus Route 2"},"geometry":{"type":"LineString","coordinates":[[-2.5959101,51.527504],[-2.5960628,51.5275949],[-2.5961584,51.5276493],[-2.5963702,51.5277702],[-2.5965246,51.5278603],[-2.5966153,51.5279115],[-2.5967119,51.5279608],[-2.5968869,51.528045],[-2.5969813,51.5280892],[-2.5970828,51.5281312],[-2.5971684,51.5281655],[-2.5972629,51.5281988],[-2.5975426,51.528293],[-2.5976172,51.528316],[-2.5977559,51.5283607],[-2.5979145,51.5284117]]}},{"type":"Feature","properties":{"osm_id":3529206,"corridor":"Bus Route 2"},"geometry":{"type":"LineString","coordinates":[[-2.6035664,51.5253441],[-2.6035043,51.5252844],[-2.6034742,51.5252351],[-2.6034589,51.5251281],[-2.6035158,51.5250138],[-2.6035781,51.5249398],[-2.6036657,51.524898]]}},{"type":"Feature","properties":{"osm_id":3532918,"name":"Lysander Road","corridor":"Bus Route 2"},"geometry":{"type":"LineString","coordinates":[[-2.6025189,51.5270486],[-2.6027369,51.5267139],[-2.6028523,51.5265213],[-2.6030668,51.5262093],[-2.6033085,51.5258991],[-2.603433,51.5257393],[-2.6035297,51.5256287],[-2.603571,51.5255376],[-2.6035783,51.5254493],[-2.6035664,51.5253441]]}},{"type":"Feature","properties":{"osm_id":1485755179,"corridor":"Bus Route 2"},"geometry":{"type":"LineString","coordinates":[[-2.6023062,51.5272564],[-2.6022944,51.5272217],[-2.6022953,51.5271862]]}},{"type":"Feature","properties":{"osm_id":1485755180,"corridor":"Bus Route 2"},"geometry":{"type":"LineString","coordinates":[[-2.6022953,51.5271862],[-2.6023159,51.527141],[-2.6023567,51.5271016],[-2.6024144,51.5270713]]}},{"type":"Feature","properties":{"osm_id":1485755181,"corridor":"Bus Route 2"},"geometry":{"type":"LineString","coordinates":[[-2.6024144,51.5270713],[-2.6024646,51.5270564],[-2.6025189,51.5270486]]}},{"type":"Feature","properties":{"osm_id":1410010914,"corridor":"Bus Route 2"},"geometry":{"type":"LineString","coordinates":[[-2.5961141,51.5273247],[-2.5960379,51.527416],[-2.5960195,51.5274336],[-2.5959101,51.527504]]}},{"type":"Feature","properties":{"osm_id":3532953,"corridor":"Bus Route 2"},"geometry":{"type":"LineString","coordinates":[[-2.6003347,51.5291842],[-2.600304,51.5291491],[-2.6002904,51.5291222],[-2.6002835,51.5290912],[-2.6002864,51.5290555],[-2.6003011,51.5290202],[-2.6003277,51.5289869]]}},{"type":"Feature","properties":{"osm_id":4904318,"corridor":"Bus Route 2"},"geometry":{"type":"LineString","coordinates":[[-2.6006696,51.529249],[-2.6006278,51.5293696],[-2.6005523,51.5295012],[-2.6004872,51.5295911],[-2.6004027,51.5296554],[-2.6003732,51.5296779],[-2.6002782,51.529741],[-2.6002448,51.5297568],[-2.6001236,51.529814],[-2.6000157,51.5298564]]}},{"type":"Feature","properties":{"osm_id":111023445,"name":"Pegasus Road","corridor":"Bus Route 2"},"geometry":{"type":"LineString","coordinates":[[-2.5995678,51.5289658],[-2.5996932,51.5289976],[-2.5998417,51.5290344],[-2.5999222,51.5290448],[-2.5999993,51.5290469],[-2.6001346,51.529038],[-2.600237,51.5290156],[-2.6003277,51.5289869]]}},{"type":"Feature","properties":{"osm_id":127954092,"corridor":"Bus Route 2"},"geometry":{"type":"LineString","coordinates":[[-2.5993783,51.5300126],[-2.5990081,51.5300934],[-2.5987248,51.5300977],[-2.5986408,51.5300895],[-2.5985912,51.5300698],[-2.5985623,51.530007],[-2.5985777,51.5299513],[-2.5986035,51.5298875],[-2.5986488,51.5298454],[-2.5987139,51.5298013],[-2.5988195,51.5297653],[-2.5989406,51.5297393]]}},{"type":"Feature","properties":{"osm_id":203016816,"corridor":"Bus Route 2"},"geometry":{"type":"LineString","coordinates":[[-2.6004354,51.5289249],[-2.60052,51.5289069],[-2.6005831,51.5289045],[-2.6006652,51.5289146],[-2.6007241,51.5289326],[-2.6007772,51.5289601]]}},{"type":"Feature","properties":{"osm_id":203016818,"corridor":"Bus Route 2"},"geometry":{"type":"LineString","coordinates":[[-2.6007772,51.5289601],[-2.600806,51.5289824],[-2.6008277,51.529006]]}},{"type":"Feature","properties":{"osm_id":203016821,"corridor":"Bus Route 2"},"geometry":{"type":"LineString","coordinates":[[-2.5989406,51.5297393],[-2.5990188,51.5297879],[-2.5990433,51.5298063],[-2.5991163,51.5298521],[-2.5992066,51.529881],[-2.5993083,51.5299105],[-2.599417,51.5299209],[-2.5995173,51.5299148],[-2.5996447,51.5298923],[-2.599681,51.5298842],[-2.5997993,51.5298576],[-2.5999872,51.5297979],[-2.600158,51.529725],[-2.6002767,51.5296464],[-2.6002991,51.5296259],[-2.6003234,51.5295896],[-2.6003588,51.5295368],[-2.6003984,51.529462],[-2.6004156,51.5294151],[-2.6004255,51.5293565],[-2.6004236,51.5293234],[-2.600405,51.529228]]}},{"type":"Feature","properties":{"osm_id":203016835,"corridor":"Bus Route 2"},"geometry":{"type":"LineString","coordinates":[[-2.6003277,51.5289869],[-2.6003724,51.5289531],[-2.6004354,51.5289249]]}},{"type":"Feature","properties":{"osm_id":550257318,"corridor":"Bus Route 2"},"geometry":{"type":"LineString","coordinates":[[-2.6000157,51.5298564],[-2.5998137,51.5299353],[-2.5997351,51.5299593],[-2.5996331,51.5299849],[-2.5993783,51.5300126]]}},{"type":"Feature","properties":{"osm_id":1229462591,"name":"Pegasus Road","corridor":"Bus Route 2"},"geometry":{"type":"LineString","coordinates":[[-2.5992265,51.5288746],[-2.5993619,51.5289231]]}},{"type":"Feature","properties":{"osm_id":1278516086,"corridor":"Bus Route 2"},"geometry":{"type":"LineString","coordinates":[[-2.600405,51.529228],[-2.6003673,51.5292084],[-2.6003347,51.5291842]]}},{"type":"Feature","properties":{"osm_id":1384055531,"name":"Pegasus Road","corridor":"Bus Route 2"},"geometry":{"type":"LineString","coordinates":[[-2.5982637,51.5285435],[-2.5985467,51.5286413],[-2.5987318,51.5287047],[-2.5990078,51.5287984],[-2.5992265,51.5288746]]}},{"type":"Feature","properties":{"osm_id":1384055535,"name":"Pegasus Road","corridor":"Bus Route 2"},"geometry":{"type":"LineString","coordinates":[[-2.5993619,51.5289231],[-2.5994793,51.528943],[-2.5995678,51.5289658]]}},{"type":"Feature","properties":{"osm_id":1512528541,"corridor":"Bus Route 2"},"geometry":{"type":"LineString","coordinates":[[-2.6008277,51.529006],[-2.6008466,51.5290388],[-2.600855,51.5290744],[-2.6008526,51.5291068],[-2.6008412,51.5291375],[-2.6008109,51.5291775]]}},{"type":"Feature","properties":{"osm_id":1512528542,"corridor":"Bus Route 2"},"geometry":{"type":"LineString","coordinates":[[-2.6008109,51.5291775],[-2.6007696,51.5292093],[-2.6007286,51.5292301],[-2.6006696,51.529249]]}},{"type":"Feature","properties":{"osm_id":1526486495,"name":"Pegasus Road","corridor":"Bus Route 2"},"geometry":{"type":"LineString","coordinates":[[-2.5979145,51.5284117],[-2.5980082,51.5284229],[-2.5981537,51.5284826],[-2.598185,51.5284999],[-2.5982637,51.5285435]]}}]}