{
"type": "FeatureCollection",
"name": "East_Bristol_Liveable_Neighbourhood_project_boundary",
"crs": { "type": "name", "properties": { "name": "urn:ogc:def:crs:OGC:1.3:CRS84" } },
"features": [
{ "type": "Feature", "id": 1, "properties": { "OBJECTID": 1, "Name": "Project Area boundary", "Shape__Area_3": 4509111.4135742188, "Shape__Length_3": 12107.234163902045 }, "geometry": { "type": "Polygon", "coordinates": [ [ [ -2.56875209542197, 51.458217807862503 ], [ -2.56861451513887, 51.458196701301297 ], [ -2.56855303743288, 51.4581819754398 ], [ -2.56847492505656, 51.458178785564698 ], [ -2.56825038225334, 51.4581659500369 ], [ -2.56778212161271, 51.458133714085299 ], [ -2.56744624758078, 51.458078232222299 ], [ -2.56721213704265, 51.458038121770997 ], [ -2.56699845805602, 51.458007428748203 ], [ -2.56688671587064, 51.458006383159002 ], [ -2.56669112607186, 51.458000983644098 ], [ -2.56653877862049, 51.458001720173201 ], [ -2.56613708631694, 51.4579624166293 ], [ -2.56567683995599, 51.457910703556699 ], [ -2.56494010433057, 51.457882530171503 ], [ -2.56427948439006, 51.4578492273466 ], [ -2.56367234332659, 51.457828354390102 ], [ -2.56327348814774, 51.457812821935697 ], [ -2.56266380920704, 51.457791955955599 ], [ -2.56181627231689, 51.4578388524926 ], [ -2.56144819740438, 51.457848547836399 ], [ -2.56081708656952, 51.457943576258202 ], [ -2.56037367393204, 51.458021841860699 ], [ -2.56019911532833, 51.458075024685797 ], [ -2.55975380069053, 51.458205645364799 ], [ -2.55909271544652, 51.458342052215698 ], [ -2.55891528580653, 51.458368280040098 ], [ -2.5586495090593, 51.458437759440699 ], [ -2.55816823208091, 51.458535232424403 ], [ -2.55775281786652, 51.458619698334601 ], [ -2.55755263072535, 51.458653964801002 ], [ -2.55753968234294, 51.458633404112497 ], [ -2.55713436343345, 51.458713061435198 ], [ -2.55649076751855, 51.458827162031902 ], [ -2.55627807433261, 51.458877347817598 ], [ -2.5562733438995, 51.458905924063501 ], [ -2.55589581703901, 51.4589743414273 ], [ -2.5555133062148, 51.459050711805901 ], [ -2.55520921989986, 51.459102915818598 ], [ -2.55513856614514, 51.459139735799504 ], [ -2.55478127243392, 51.459201708340899 ], [ -2.55453291182599, 51.459242542149603 ], [ -2.55434789644611, 51.459271971182901 ], [ -2.55398284807895, 51.459322873313504 ], [ -2.55373175518274, 51.459347855320701 ], [ -2.5532853747874, 51.459392794124099 ], [ -2.55329091305367, 51.459430839396603 ], [ -2.55319698096416, 51.459432868919201 ], [ -2.55303718439233, 51.459447899950398 ], [ -2.55175855346908, 51.459547520188799 ], [ -2.55124416865956, 51.459586525763903 ], [ -2.55099018752624, 51.459582762079897 ], [ -2.55074813910243, 51.459581421661198 ], [ -2.55043446644779, 51.459563066019598 ], [ -2.55014820854476, 51.4595148374815 ], [ -2.54989020021948, 51.459506134139197 ], [ -2.54962381193383, 51.459460288286202 ], [ -2.54895817002907, 51.459379829076397 ], [ -2.54859233462363, 51.459365679025701 ], [ -2.54829303212643, 51.459394046372303 ], [ -2.54799348220754, 51.459401793633297 ], [ -2.54783135265538, 51.459434277609198 ], [ -2.54748204296317, 51.459527916588598 ], [ -2.54722370821423, 51.459584645401499 ], [ -2.54715535842655, 51.459602413645797 ], [ -2.54695032629238, 51.459657305978098 ], [ -2.54675783786114, 51.4596994486649 ], [ -2.54662130815404, 51.4597492615652 ], [ -2.54656317177417, 51.459771741090599 ], [ -2.54655792194495, 51.459757488683302 ], [ -2.5464920915935, 51.459773659568299 ], [ -2.54648976117789, 51.459791119566603 ], [ -2.54602889035801, 51.459899551227203 ], [ -2.54585635447551, 51.459911459572098 ], [ -2.5454402993921, 51.459945122595002 ], [ -2.54507737602782, 51.459962674938701 ], [ -2.54481858231128, 51.459981328272697 ], [ -2.54465343726662, 51.459974163439803 ], [ -2.54450938069596, 51.460031941255103 ], [ -2.54443602544285, 51.460056076548298 ], [ -2.5439978695492, 51.460153290942401 ], [ -2.54337718494423, 51.4602767316184 ], [ -2.54295903623937, 51.460348467828901 ], [ -2.54229452161997, 51.4604165834821 ], [ -2.54175985736229, 51.4604734869027 ], [ -2.54149408625364, 51.460479672194097 ], [ -2.541263818947, 51.4604683427049 ], [ -2.54096592566996, 51.460442453692799 ], [ -2.54062033405991, 51.460409346990097 ], [ -2.54025076120634, 51.460361478585199 ], [ -2.53980945062066, 51.460286674178903 ], [ -2.5396306172343, 51.460262711435597 ], [ -2.53897876430836, 51.460166565822803 ], [ -2.53854941898504, 51.4600966587291 ], [ -2.53819548853335, 51.460028881866897 ], [ -2.53786953573512, 51.459978327559398 ], [ -2.53765053230131, 51.459912408744103 ], [ -2.53742759194747, 51.4598489865609 ], [ -2.53701678149199, 51.459667450592903 ], [ -2.5365660942247, 51.4594687455374 ], [ -2.53616313668136, 51.459279734560702 ], [ -2.53592389502612, 51.4591792046674 ], [ -2.53585615772238, 51.459154728108103 ], [ -2.53555355477605, 51.4590644012941 ], [ -2.53512775657856, 51.458957286048602 ], [ -2.53488104944665, 51.458896446530503 ], [ -2.53433235113973, 51.458797325297397 ], [ -2.53393105788371, 51.458749581607499 ], [ -2.53350972585904, 51.458684576648302 ], [ -2.5332990176779, 51.458648357109503 ], [ -2.53293245266378, 51.458516177168001 ], [ -2.53259328622456, 51.458351651023698 ], [ -2.53201029406588, 51.458032076294899 ], [ -2.53203352235803, 51.457982397379503 ], [ -2.53183837048066, 51.457918838425002 ], [ -2.53154296916385, 51.457764024782797 ], [ -2.53126056609967, 51.457703339543798 ], [ -2.53122112136178, 51.457723347549702 ], [ -2.53092592476983, 51.457585881646096 ], [ -2.53082168011595, 51.457492164876797 ], [ -2.53025489743231, 51.457199773269302 ], [ -2.53026222838334, 51.457147688536601 ], [ -2.53010681301153, 51.457088903983298 ], [ -2.53037541322345, 51.4569860646018 ], [ -2.53052961976406, 51.456940751140202 ], [ -2.53083058950512, 51.456892294731396 ], [ -2.53128953024116, 51.456781154901599 ], [ -2.53141584936176, 51.456726051633098 ], [ -2.53159719232782, 51.456626084051699 ], [ -2.531702494572, 51.4564694516448 ], [ -2.53184327012742, 51.456292829849303 ], [ -2.53190596687249, 51.456225622501002 ], [ -2.53203460978378, 51.456029226315202 ], [ -2.53218666865654, 51.455745177657199 ], [ -2.53243797538347, 51.455303036864102 ], [ -2.53251566952019, 51.455215435482899 ], [ -2.53273693796583, 51.455028830255202 ], [ -2.53298859851733, 51.454835740100499 ], [ -2.53311488829192, 51.454765168618501 ], [ -2.53344659532188, 51.454632290760003 ], [ -2.53387304693587, 51.454459322850099 ], [ -2.53410177751008, 51.4543417852204 ], [ -2.53433033320433, 51.4542093757955 ], [ -2.53443176878958, 51.454062673539099 ], [ -2.53446654638021, 51.4539831980466 ], [ -2.5345039579054, 51.453789694063602 ], [ -2.53461665463831, 51.453588409679597 ], [ -2.53491268099802, 51.453459875089301 ], [ -2.53503409604305, 51.453420741391902 ], [ -2.5350139819169, 51.453368039803202 ], [ -2.53532093995953, 51.4533544553301 ], [ -2.53562115074485, 51.453319580852799 ], [ -2.53569745009353, 51.453313140287001 ], [ -2.53577996152974, 51.453282305770799 ], [ -2.53581053688223, 51.453256784430103 ], [ -2.53581777014277, 51.453180607594 ], [ -2.53581977107799, 51.453073997352199 ], [ -2.53582357506927, 51.452982607078802 ], [ -2.53580259081676, 51.452855796137598 ], [ -2.53574566084633, 51.452850980632 ], [ -2.53574251345635, 51.452839676363702 ], [ -2.53570454783833, 51.452646516506398 ], [ -2.5355168743701, 51.452203696900099 ], [ -2.53549142035137, 51.452062531401801 ], [ -2.5353960619102, 51.451710999798799 ], [ -2.5353160234757, 51.451312304478897 ], [ -2.53521968360844, 51.450876504051998 ], [ -2.53509581070164, 51.450460657572499 ], [ -2.53506332295588, 51.450396361113903 ], [ -2.53473115751356, 51.450147535017003 ], [ -2.53485067097368, 51.450084713613599 ], [ -2.53514930699607, 51.450180172133997 ], [ -2.53551037758921, 51.450314073353702 ], [ -2.53597460936011, 51.450788314956398 ], [ -2.53634027249688, 51.451313353561403 ], [ -2.53670680725271, 51.451911970870697 ], [ -2.53730509901387, 51.452714787280101 ], [ -2.53786608489297, 51.4535061537064 ], [ -2.53818270555532, 51.454074011975898 ], [ -2.5383662897638, 51.454398491086799 ], [ -2.53883515179334, 51.454733275789799 ], [ -2.53950255817699, 51.455082637362302 ], [ -2.54060893926, 51.4553331483555 ], [ -2.54232248584012, 51.455553731128397 ], [ -2.54370039584752, 51.4556983890078 ], [ -2.54456072876934, 51.455585953837698 ], [ -2.54524721775316, 51.4554510842122 ], [ -2.54601733969079, 51.4550524661718 ], [ -2.54677491416385, 51.454642281686603 ], [ -2.54767758893276, 51.454444424082297 ], [ -2.54846220634211, 51.454223873201499 ], [ -2.54943599245156, 51.453754566257103 ], [ -2.55031077084988, 51.453301208677097 ], [ -2.55107218860163, 51.452701208009103 ], [ -2.55211077778294, 51.451956599936501 ], [ -2.55269387812976, 51.451992580217599 ], [ -2.5542564399728, 51.452035548451001 ], [ -2.55591845972078, 51.452101260299898 ], [ -2.55746191361865, 51.452101675006503 ], [ -2.55852072449288, 51.452007558170799 ], [ -2.55984463105495, 51.451795978502197 ], [ -2.56180631903754, 51.451530980451402 ], [ -2.56374967403703, 51.451289275700503 ], [ -2.56518557968809, 51.451115826485001 ], [ -2.56547660347419, 51.4510911846426 ], [ -2.56603572463658, 51.451193053736198 ], [ -2.56654791031, 51.451293265122601 ], [ -2.56674637202014, 51.451436977384397 ], [ -2.56707648768888, 51.4516848642551 ], [ -2.56737686402127, 51.451910415980997 ], [ -2.56771426868563, 51.452176524175599 ], [ -2.56791278288719, 51.452370696158702 ], [ -2.56811068038073, 51.452514952828601 ], [ -2.56827237732584, 51.452668460857403 ], [ -2.56848592940079, 51.452903401647902 ], [ -2.56861258779886, 51.453051180645403 ], [ -2.56875760575269, 51.453247993504597 ], [ -2.56899666061288, 51.453529553493098 ], [ -2.56931419500521, 51.453920721041897 ], [ -2.5694189727489, 51.454051579782202 ], [ -2.56950284905641, 51.454168740535799 ], [ -2.56960827423068, 51.454359250947803 ], [ -2.5697220653254, 51.454536850868401 ], [ -2.5698618593477, 51.454811145242999 ], [ -2.56990809536254, 51.4550394202763 ], [ -2.56991680252731, 51.455240767115498 ], [ -2.56992695724206, 51.4555582940731 ], [ -2.56992994868678, 51.455798398341202 ], [ -2.57012136565426, 51.456235102603699 ], [ -2.57045588988612, 51.456713711505699 ], [ -2.57079748818262, 51.457261997075598 ], [ -2.57079467231487, 51.457533111998302 ], [ -2.57079305964213, 51.457622678272102 ], [ -2.57080147752033, 51.457686876166903 ], [ -2.57081941582025, 51.457751027692503 ], [ -2.57081498020455, 51.457853355143499 ], [ -2.57074943156283, 51.457963525091699 ], [ -2.57064973448029, 51.458039738943803 ], [ -2.57048938584135, 51.458103717218897 ], [ -2.57030829739525, 51.458146085910798 ], [ -2.57020809231185, 51.458168246887901 ], [ -2.57005813991823, 51.458204021204601 ], [ -2.56984844881024, 51.458224457452403 ], [ -2.5695018188172, 51.458241485603999 ], [ -2.56927561954687, 51.458242706807503 ], [ -2.56915470342087, 51.458233405069699 ], [ -2.56901342263213, 51.458232678485999 ], [ -2.56875209542197, 51.458217807862503 ] ] ] } }
]
}
