{"type":"FeatureCollection","features":[{"type":"Feature","properties":{"name":"Filwood Broadway cycle route","route_status":"Planned","prog_status":"Priority improvement identified"},"geometry":{"type":"LineString","coordinates":[[-2.585646847251012,51.423232290726844],[-2.585407102898952,51.42249529023018],[-2.58514459771502,51.422206355214186],[-2.58435214586037,51.42134670361239],[-2.584209902668869,51.42093821026294],[-2.584125031106653,51.42084822809834],[-2.584041521564291,51.42076537493684],[-2.583675134699988,51.420384164106416],[-2.583590389484254,51.420303696826664],[-2.583463928160906,51.42033287301788],[-2.58320171729062,51.42006295947653],[-2.583348616223457,51.4200059966649]]}}]}