{"type":"FeatureCollection","features":[{"type":"Feature","properties":{"osm_id":106895617,"name":"Hawkfield Road","corridor":"Hawkfield Road cycle path"},"geometry":{"type":"LineString","coordinates":[[-2.5947232,51.4125046],[-2.5948143,51.4122014],[-2.5948313,51.4118806],[-2.5948309,51.4113594],[-2.5947826,51.4109442],[-2.5947143,51.4106306],[-2.5945122,51.4100036],[-2.5943309,51.4096056],[-2.5941272,51.4092512],[-2.5938918,51.4089161],[-2.5937618,51.4087498],[-2.593573,51.4085005],[-2.5934549,51.4083012],[-2.5933859,51.4081221],[-2.5933551,51.4080422],[-2.5933488,51.4078066],[-2.5933554,51.4077438]]}}]}