{"type": "FeatureCollection", "features": [{"type": "Feature", "properties": {"osm_id": 3811884, "name": "Avonmouth and Filton Railway", "ref": "AFR", "corridor": "Henbury Line"}, "geometry": {"type": "LineString", "coordinates": [[-2.5707205, 51.5167956], [-2.5693587, 51.5166529], [-2.5680756, 51.5165343], [-2.5662523, 51.5163752], [-2.5644031, 51.516218], [-2.5606988, 51.5159055], [-2.5599261, 51.5158308], [-2.5590202, 51.5157647], [-2.5580396, 51.515679], [-2.5559995, 51.51554], [-2.5520428, 51.5151842], [-2.5512277, 51.5151124], [-2.550139, 51.5150011]]}}, {"type": "Feature", "properties": {"osm_id": 3994993, "name": "Avonmouth and Filton Railway", "ref": "AFR", "corridor": "Henbury Line"}, "geometry": {"type": "LineString", "coordinates": [[-2.584877, 51.5174608], [-2.5825605, 51.5175262], [-2.5813836, 51.5175253], [-2.5797906, 51.5174953], [-2.578688, 51.5174506], [-2.5772956, 51.517341], [-2.5732427, 51.5169978], [-2.5720089, 51.5168876], [-2.5710056, 51.5168206], [-2.5707205, 51.5167956]]}}, {"type": "Feature", "properties": {"osm_id": 4758479, "name": "Avonmouth and Filton Railway", "ref": "AFR", "corridor": "Henbury Line"}, "geometry": {"type": "LineString", "coordinates": [[-2.5964871, 51.5156017], [-2.5927533, 51.5164642]]}}, {"type": "Feature", "properties": {"osm_id": 26390259, "name": "Avonmouth and Filton Railway", "ref": "AFR", "corridor": "Henbury Line"}, "geometry": {"type": "LineString", "coordinates": [[-2.6509521, 51.5130839], [-2.6500631, 51.5128916], [-2.6489635, 51.5126879], [-2.6478061, 51.5125136], [-2.6464331, 51.5123524], [-2.6450367, 51.51224], [-2.6438748, 51.5121804], [-2.6426842, 51.5121584], [-2.6416302, 51.5121601], [-2.6405625, 51.5121917], [-2.6396699, 51.5122453], [-2.639139, 51.5122878]]}}, {"type": "Feature", "properties": {"osm_id": 85270457, "name": "Avonmouth and Filton Railway", "ref": "AFR", "corridor": "Henbury Line"}, "geometry": {"type": "LineString", "coordinates": [[-2.639139, 51.5122878], [-2.6377268, 51.5124301], [-2.6359455, 51.5127239], [-2.6343947, 51.5130529], [-2.6308539, 51.513957], [-2.6300042, 51.5141634], [-2.6295069, 51.5142995], [-2.6289807, 51.5144203], [-2.6284182, 51.5145384], [-2.627815, 51.5146454], [-2.6271474, 51.5147446], [-2.6263029, 51.5148634], [-2.625903, 51.5149127], [-2.6255659, 51.5149502]]}}, {"type": "Feature", "properties": {"osm_id": 267053355, "name": "Avonmouth and Filton Railway", "ref": "AFR", "corridor": "Henbury Line"}, "geometry": {"type": "LineString", "coordinates": [[-2.6509892, 51.5130254], [-2.6500854, 51.5128416], [-2.6489804, 51.5126489], [-2.6478197, 51.5124741], [-2.6464433, 51.5123125], [-2.6450435, 51.5121998], [-2.6438691, 51.5121487], [-2.6426851, 51.5121266], [-2.6416216, 51.5121284], [-2.6405578, 51.5121514], [-2.6396637, 51.5122051], [-2.6391161, 51.5122469]]}}, {"type": "Feature", "properties": {"osm_id": 310314820, "name": "Avonmouth and Filton Railway", "ref": "AFR", "corridor": "Henbury Line"}, "geometry": {"type": "LineString", "coordinates": [[-2.550139, 51.5150011], [-2.5489787, 51.5148348]]}}, {"type": "Feature", "properties": {"osm_id": 678488585, "name": "Avonmouth and Filton Railway", "ref": "AFR", "corridor": "Henbury Line"}, "geometry": {"type": "LineString", "coordinates": [[-2.5717263, 51.5168932], [-2.5732273, 51.5170194], [-2.5772796, 51.5173738], [-2.5782803, 51.5174476], [-2.5786756, 51.5174749], [-2.578789, 51.5174828], [-2.5798898, 51.5175296], [-2.5813635, 51.5175544], [-2.582191, 51.5175659], [-2.5832595, 51.5175563]]}}, {"type": "Feature", "properties": {"osm_id": 678488586, "name": "Avonmouth and Filton Railway", "ref": "AFR", "corridor": "Henbury Line"}, "geometry": {"type": "LineString", "coordinates": [[-2.5927765, 51.5165062], [-2.5965058, 51.5156306]]}}, {"type": "Feature", "properties": {"osm_id": 678488587, "name": "Avonmouth and Filton Railway", "ref": "AFR", "corridor": "Henbury Line"}, "geometry": {"type": "LineString", "coordinates": [[-2.5965058, 51.5156306], [-2.5972653, 51.5154448], [-2.5987645, 51.515083], [-2.5999183, 51.5147996], [-2.6012629, 51.5144775], [-2.6026092, 51.5141948], [-2.6037727, 51.513993], [-2.6047902, 51.5138516], [-2.6057962, 51.5137419], [-2.6065852, 51.513674], [-2.6077918, 51.513606], [-2.6086757, 51.5135782], [-2.6100378, 51.5135803], [-2.6107693, 51.5136027], [-2.6114878, 51.5136357], [-2.6126583, 51.5137266], [-2.6137484, 51.5138432], [-2.6148802, 51.5139989], [-2.6158259, 51.5141537], [-2.6169235, 51.5143518], [-2.6182596, 51.5145945], [-2.6190934, 51.5147368], [-2.6196506, 51.5148127], [-2.6202023, 51.5148791], [-2.6208396, 51.5149386], [-2.6213414, 51.5149734], [-2.6219924, 51.5150125], [-2.6223767, 51.5150243], [-2.623072, 51.5150415], [-2.6236863, 51.5150434], [-2.6245115, 51.5150129], [-2.6252705, 51.5149672], [-2.6255659, 51.5149502]]}}, {"type": "Feature", "properties": {"osm_id": 678488590, "name": "Avonmouth and Filton Railway", "ref": "AFR", "corridor": "Henbury Line"}, "geometry": {"type": "LineString", "coordinates": [[-2.6391161, 51.5122469], [-2.6387436, 51.5122875], [-2.6383946, 51.5123255], [-2.6378624, 51.5123807], [-2.6370745, 51.5125051], [-2.6360188, 51.5126761], [-2.6351214, 51.5128677], [-2.6345579, 51.5129803], [-2.6337961, 51.5131751], [-2.6326048, 51.5134825], [-2.6315734, 51.5137336], [-2.630776, 51.51394], [-2.6300975, 51.5141047], [-2.62946, 51.5142866], [-2.6288608, 51.5144281], [-2.6283688, 51.5145228], [-2.6278577, 51.5146096], [-2.6273519, 51.5146939], [-2.6268291, 51.5147745], [-2.626465, 51.5148261], [-2.6261325, 51.5148647], [-2.6258171, 51.5148996], [-2.6247472, 51.5149753], [-2.6241685, 51.5150007], [-2.6236388, 51.5150192], [-2.6227811, 51.5150108], [-2.6220171, 51.5149837], [-2.621359, 51.5149466], [-2.620203, 51.5148469], [-2.6196595, 51.5147834], [-2.6191018, 51.5147039], [-2.6182714, 51.5145653], [-2.6169418, 51.5143262], [-2.615846, 51.5141278], [-2.6148811, 51.5139663], [-2.6137528, 51.5138112], [-2.6126477, 51.5136942], [-2.6114917, 51.5136062], [-2.6107718, 51.5135712], [-2.6100366, 51.5135479], [-2.6086609, 51.5135458], [-2.6077792, 51.5135745], [-2.6065758, 51.5136454], [-2.6057804, 51.5137114], [-2.6047642, 51.5138209], [-2.603754, 51.5139628], [-2.6025902, 51.5141633], [-2.6012448, 51.5144448], [-2.5998921, 51.5147711], [-2.598749, 51.5150531], [-2.5972347, 51.5154188], [-2.5964871, 51.5156017]]}}, {"type": "Feature", "properties": {"osm_id": 906775016, "name": "Avonmouth and Filton Railway", "ref": "AFR", "corridor": "Henbury Line"}, "geometry": {"type": "LineString", "coordinates": [[-2.5927533, 51.5164642], [-2.5911795, 51.5167768], [-2.5902261, 51.5169253], [-2.5889398, 51.5170979], [-2.5880139, 51.5172267], [-2.5870386, 51.5173259], [-2.5859439, 51.5173998], [-2.584877, 51.5174608]]}}, {"type": "Feature", "properties": {"osm_id": 906775017, "name": "Avonmouth and Filton Railway", "ref": "AFR", "corridor": "Henbury Line"}, "geometry": {"type": "LineString", "coordinates": [[-2.5832595, 51.5175563], [-2.5845695, 51.5175094], [-2.5855431, 51.5174602], [-2.5867578, 51.5173745], [-2.5875452, 51.5173075], [-2.5882779, 51.5172196], [-2.589083, 51.5171043], [-2.5899093, 51.5169966], [-2.5908679, 51.5168615], [-2.5915212, 51.5167439], [-2.5927765, 51.5165062]]}}, {"type": "Feature", "properties": {"osm_id": 1359147113, "name": "Avonmouth and Filton Railway", "ref": "AFR", "corridor": "Henbury Line"}, "geometry": {"type": "LineString", "coordinates": [[-2.5710056, 51.5168206], [-2.5712008, 51.5168485], [-2.5717263, 51.5168932]]}}]}