{"type":"FeatureCollection","features":[{"type":"Feature","properties":{"osm_id":23422044,"name":"Hengrove Way","ref":"A4174","corridor":"m1 MetroBus extension"},"geometry":{"type":"LineString","coordinates":[[-2.5950185,51.4138263],[-2.5954601,51.4138669],[-2.5956629,51.4138706],[-2.5958643,51.4138434],[-2.5960332,51.4138042],[-2.5960975,51.4137892],[-2.5962929,51.4137437]]}},{"type":"Feature","properties":{"osm_id":23422048,"corridor":"m1 MetroBus extension"},"geometry":{"type":"LineString","coordinates":[[-2.5962929,51.4137437],[-2.5966646,51.413637],[-2.5972562,51.4135208],[-2.59805,51.4133789],[-2.5985176,51.4133075],[-2.5989887,51.4132481],[-2.5993101,51.4132097],[-2.599774,51.4131756],[-2.6004133,51.4131394],[-2.6009453,51.4131312],[-2.6012886,51.4131372],[-2.601385,51.4131464],[-2.6014972,51.4131746],[-2.6015454,51.413194],[-2.6016025,51.4132289]]}},{"type":"Feature","properties":{"osm_id":23422051,"corridor":"m1 MetroBus extension"},"geometry":{"type":"LineString","coordinates":[[-2.601505,51.4137742],[-2.6015312,51.4136039],[-2.6015693,51.4133007],[-2.6015749,51.4132786],[-2.6015832,51.4132565],[-2.6016025,51.4132289]]}},{"type":"Feature","properties":{"osm_id":23422052,"name":"Wills Way","corridor":"m1 MetroBus extension"},"geometry":{"type":"LineString","coordinates":[[-2.6009916,51.4146752],[-2.6010735,51.4146284],[-2.6011382,51.4145847],[-2.6012526,51.4144798],[-2.6012876,51.4144467],[-2.6013421,51.41438],[-2.6013789,51.414322],[-2.6014063,51.4142596],[-2.6014337,51.4141797],[-2.6014544,51.4141037],[-2.601467,51.4140261],[-2.6014735,51.4139841]]}},{"type":"Feature","properties":{"osm_id":40780756,"name":"Hartcliffe Way","corridor":"m1 MetroBus extension"},"geometry":{"type":"LineString","coordinates":[[-2.5944079,51.4134284],[-2.5944161,51.4133597],[-2.5944524,51.4132174],[-2.5944924,51.413073],[-2.5947232,51.4125046]]}},{"type":"Feature","properties":{"osm_id":106895617,"name":"Hawkfield Road","corridor":"m1 MetroBus extension"},"geometry":{"type":"LineString","coordinates":[[-2.5947232,51.4125046],[-2.5948143,51.4122014],[-2.5948313,51.4118806],[-2.5948309,51.4113594],[-2.5947826,51.4109442],[-2.5947143,51.4106306],[-2.5945122,51.4100036],[-2.5943309,51.4096056],[-2.5941272,51.4092512],[-2.5938918,51.4089161],[-2.5937618,51.4087498],[-2.593573,51.4085005],[-2.5934549,51.4083012],[-2.5933859,51.4081221],[-2.5933551,51.4080422],[-2.5933488,51.4078066],[-2.5933554,51.4077438]]}},{"type":"Feature","properties":{"osm_id":137812679,"name":"Hengrove Promenade","corridor":"m1 MetroBus extension"},"geometry":{"type":"LineString","coordinates":[[-2.5844278,51.4125942],[-2.5841823,51.4124764],[-2.5841308,51.4124561]]}},{"type":"Feature","properties":{"osm_id":137816743,"name":"The Boulevard","corridor":"m1 MetroBus extension"},"geometry":{"type":"LineString","coordinates":[[-2.5853931,51.4115961],[-2.5851662,51.4118333],[-2.5850856,51.4119208]]}},{"type":"Feature","properties":{"osm_id":137816744,"name":"The Boulevard","corridor":"m1 MetroBus extension"},"geometry":{"type":"LineString","coordinates":[[-2.5853931,51.4115961],[-2.5854188,51.4115035],[-2.5855521,51.4113592],[-2.5856571,51.4112456],[-2.5860638,51.4108115],[-2.5862133,51.4106424]]}},{"type":"Feature","properties":{"osm_id":143700363,"name":"The Boulevard","corridor":"m1 MetroBus extension"},"geometry":{"type":"LineString","coordinates":[[-2.5849289,51.4120838],[-2.5848586,51.4121561],[-2.5844278,51.4125942]]}},{"type":"Feature","properties":{"osm_id":178375602,"name":"Hengrove Promenade","corridor":"m1 MetroBus extension"},"geometry":{"type":"LineString","coordinates":[[-2.5841308,51.4124561],[-2.5840764,51.4124512],[-2.5839764,51.4124541]]}},{"type":"Feature","properties":{"osm_id":178375604,"name":"The Boulevard","corridor":"m1 MetroBus extension"},"geometry":{"type":"LineString","coordinates":[[-2.5863466,51.4106895],[-2.5861906,51.4108528],[-2.5857016,51.4113495],[-2.5855207,51.4115274],[-2.5853931,51.4115961]]}},{"type":"Feature","properties":{"osm_id":178375613,"name":"The Boulevard","corridor":"m1 MetroBus extension"},"geometry":{"type":"LineString","coordinates":[[-2.5850856,51.4119208],[-2.5851297,51.4119488],[-2.5851529,51.4119908],[-2.5851384,51.4120413]]}},{"type":"Feature","properties":{"osm_id":178375616,"name":"Hengrove Promenade","corridor":"m1 MetroBus extension"},"geometry":{"type":"LineString","coordinates":[[-2.5841308,51.4124561],[-2.5840304,51.4123602],[-2.583301,51.4120864],[-2.5831392,51.4120284],[-2.5829557,51.4120216]]}},{"type":"Feature","properties":{"osm_id":182930299,"name":"Hengrove Promenade","corridor":"m1 MetroBus extension"},"geometry":{"type":"LineString","coordinates":[[-2.5829557,51.4120216],[-2.5829182,51.4120081],[-2.5828764,51.4119931],[-2.5827843,51.4119716]]}},{"type":"Feature","properties":{"osm_id":192966059,"name":"William Jessop Way","corridor":"m1 MetroBus extension"},"geometry":{"type":"LineString","coordinates":[[-2.5863498,51.4105875],[-2.586417,51.4105083],[-2.5874344,51.4093816],[-2.5876135,51.4091467],[-2.5876457,51.4091069]]}},{"type":"Feature","properties":{"osm_id":192976609,"name":"William Jessop Way","corridor":"m1 MetroBus extension"},"geometry":{"type":"LineString","coordinates":[[-2.5878659,51.4088336],[-2.5879163,51.4087858],[-2.5879818,51.4087489],[-2.5880943,51.4087079],[-2.5887627,51.4085099],[-2.5888803,51.4084744],[-2.589441,51.408313],[-2.5896057,51.4082656],[-2.5896368,51.4082567],[-2.5898028,51.4082087],[-2.5904105,51.408033],[-2.5912497,51.4077974],[-2.591279,51.4077891],[-2.5913759,51.4077617],[-2.5914891,51.4077231],[-2.5915628,51.4076757],[-2.591641,51.407606]]}},{"type":"Feature","properties":{"osm_id":192976616,"name":"William Jessop Way","corridor":"m1 MetroBus extension"},"geometry":{"type":"LineString","coordinates":[[-2.5876457,51.4091069],[-2.5878072,51.4088953],[-2.5878659,51.4088336]]}},{"type":"Feature","properties":{"osm_id":203136414,"name":"Hengrove Way Roundabout","ref":"A4174","corridor":"m1 MetroBus extension"},"geometry":{"type":"LineString","coordinates":[[-2.5947228,51.4137881],[-2.5948844,51.4137976],[-2.5950185,51.4138263]]}},{"type":"Feature","properties":{"osm_id":293489974,"name":"Hartcliffe Way","corridor":"m1 MetroBus extension"},"geometry":{"type":"LineString","coordinates":[[-2.5944079,51.4134284],[-2.5944659,51.4136248],[-2.5945212,51.4136876],[-2.5945987,51.4137318],[-2.5946657,51.4137661],[-2.5947228,51.4137881]]}},{"type":"Feature","properties":{"osm_id":628420425,"name":"Wills Way","corridor":"m1 MetroBus extension"},"geometry":{"type":"LineString","coordinates":[[-2.6014735,51.4139841],[-2.601505,51.4137742]]}},{"type":"Feature","properties":{"osm_id":1123537426,"name":"Butterfly Lane","corridor":"m1 MetroBus extension"},"geometry":{"type":"LineString","coordinates":[[-2.5933554,51.4077438],[-2.5925068,51.4076874],[-2.5924677,51.4076848],[-2.591889,51.4076572],[-2.5918407,51.4076531],[-2.5917944,51.4076459],[-2.591641,51.407606]]}},{"type":"Feature","properties":{"osm_id":1367349910,"name":"The Boulevard","corridor":"m1 MetroBus extension"},"geometry":{"type":"LineString","coordinates":[[-2.5862133,51.4106424],[-2.5863498,51.4105875]]}},{"type":"Feature","properties":{"osm_id":1367349911,"name":"The Boulevard","corridor":"m1 MetroBus extension"},"geometry":{"type":"LineString","coordinates":[[-2.5863498,51.4105875],[-2.5863466,51.4106895]]}},{"type":"Feature","properties":{"osm_id":1458314807,"name":"The Boulevard","corridor":"m1 MetroBus extension"},"geometry":{"type":"LineString","coordinates":[[-2.5851384,51.4120413],[-2.5850898,51.4120773],[-2.5850107,51.4120949],[-2.5849289,51.4120838]]}},{"type":"Feature","properties":{"osm_id":1458314808,"name":"The Boulevard","corridor":"m1 MetroBus extension"},"geometry":{"type":"LineString","coordinates":[[-2.5848699,51.4119504],[-2.5849138,51.4119218],[-2.5850023,51.4119048],[-2.5850856,51.4119208]]}},{"type":"Feature","properties":{"osm_id":1458314809,"name":"The Boulevard","corridor":"m1 MetroBus extension"},"geometry":{"type":"LineString","coordinates":[[-2.5849289,51.4120838],[-2.5848666,51.4120451],[-2.5848484,51.411999],[-2.5848595,51.4119642],[-2.5848699,51.4119504]]}},{"type":"Feature","properties":{"osm_id":1470017825,"name":"Hengrove Promenade","corridor":"m1 MetroBus extension"},"geometry":{"type":"LineString","coordinates":[[-2.5839764,51.4124541],[-2.5836518,51.4123353],[-2.5831577,51.4121482],[-2.5830722,51.4121159],[-2.5829557,51.4120216]]}}]}