{"type": "FeatureCollection", "features": [{"type": "Feature", "properties": {"osm_id": 23170261, "name": "Pill Viaduct", "ref": "POD", "corridor": "Portishead Branch Line"}, "geometry": {"type": "LineString", "coordinates": [[-2.6860132, 51.4806542], [-2.6855459, 51.4804341], [-2.6851222, 51.480237], [-2.6847654, 51.4800649], [-2.6845428, 51.4799363], [-2.684229, 51.4797609]]}}, {"type": "Feature", "properties": {"osm_id": 23170262, "name": "Portishead Branch Line", "ref": "POD", "corridor": "Portishead Branch Line"}, "geometry": {"type": "LineString", "coordinates": [[-2.684229, 51.4797609], [-2.6838566, 51.4795243], [-2.6832527, 51.4790794], [-2.6828798, 51.4788154], [-2.6823889, 51.4784916], [-2.6819057, 51.4782184], [-2.6816585, 51.4781008], [-2.6813453, 51.4779676], [-2.6810297, 51.4778592]]}}, {"type": "Feature", "properties": {"osm_id": 24056991, "name": "Portishead Branch Line", "ref": "POD", "corridor": "Portishead Branch Line"}, "geometry": {"type": "LineString", "coordinates": [[-2.6913157, 51.4831944], [-2.6917875, 51.4832958], [-2.6920549, 51.4833532]]}}, {"type": "Feature", "properties": {"osm_id": 24056993, "name": "Portishead Branch Line", "ref": "POD", "corridor": "Portishead Branch Line"}, "geometry": {"type": "LineString", "coordinates": [[-2.6920549, 51.4833532], [-2.6924066, 51.4833971], [-2.6928271, 51.4834386], [-2.6934269, 51.4834788], [-2.6939867, 51.4834935], [-2.6945514, 51.4835011], [-2.6950729, 51.4834833], [-2.6958511, 51.4834141], [-2.6961703, 51.4833709], [-2.6986194, 51.4829857], [-2.7009967, 51.4826472]]}}, {"type": "Feature", "properties": {"osm_id": 24057034, "name": "Pill Tunnel", "ref": "POD", "corridor": "Portishead Branch Line"}, "geometry": {"type": "LineString", "coordinates": [[-2.6810297, 51.4778592], [-2.6809488, 51.4778272], [-2.6807694, 51.4777685], [-2.6806095, 51.4777164], [-2.6803938, 51.4776613], [-2.6801546, 51.4776035], [-2.6798474, 51.47754], [-2.67963, 51.477508], [-2.6768562, 51.4771697], [-2.6753217, 51.4769654], [-2.6730792, 51.4766996], [-2.6728484, 51.4766838], [-2.6726072, 51.4766663]]}}, {"type": "Feature", "properties": {"osm_id": 39514431, "name": "Portishead Branch Line", "ref": "POD", "corridor": "Portishead Branch Line"}, "geometry": {"type": "LineString", "coordinates": [[-2.6322196, 51.4591876], [-2.6322422, 51.4588797], [-2.6322551, 51.4586443], [-2.6322339, 51.4584454], [-2.6321828, 51.4581868], [-2.6320956, 51.4579294], [-2.6319583, 51.4576452], [-2.6318857, 51.4575084], [-2.6317625, 51.4573269], [-2.6315007, 51.4570183]]}}, {"type": "Feature", "properties": {"osm_id": 39514432, "name": "No.2 Tunnel", "ref": "POD", "corridor": "Portishead Branch Line"}, "geometry": {"type": "LineString", "coordinates": [[-2.6318573, 51.4610545], [-2.6318354, 51.460697], [-2.6318339, 51.4604676], [-2.6318763, 51.4602656], [-2.6319891, 51.4598879], [-2.6322196, 51.4591876]]}}, {"type": "Feature", "properties": {"osm_id": 41814909, "name": "Portishead Branch Line", "ref": "POD", "corridor": "Portishead Branch Line"}, "geometry": {"type": "LineString", "coordinates": [[-2.6726072, 51.4766663], [-2.6723385, 51.4766547], [-2.6720866, 51.4766371], [-2.6716531, 51.4766468], [-2.6713678, 51.4766705], [-2.6710406, 51.4767173], [-2.6707241, 51.4767707], [-2.6701515, 51.4768936], [-2.6698014, 51.4769845], [-2.6694205, 51.4771215], [-2.6689372, 51.4773089], [-2.668707, 51.4774155], [-2.6685354, 51.4775024], [-2.6683423, 51.4776127], [-2.668216, 51.477699], [-2.6670439, 51.4785459], [-2.6663097, 51.4790698], [-2.6660517, 51.4792364], [-2.665821, 51.4793667], [-2.6655077, 51.4795228], [-2.6648799, 51.4798253], [-2.664614, 51.4799413], [-2.6642629, 51.4800587], [-2.6632682, 51.4803488], [-2.6628384, 51.4804458], [-2.6623366, 51.4805388], [-2.6617368, 51.4806222], [-2.6611339, 51.480689], [-2.6608482, 51.4807097], [-2.6603563, 51.4807182], [-2.6600167, 51.4807198], [-2.6595754, 51.4807156], [-2.6593193, 51.4806964], [-2.6589374, 51.4806622], [-2.6583549, 51.4805917], [-2.6580801, 51.4805427], [-2.6576495, 51.4804589], [-2.6570474, 51.4803273], [-2.6564952, 51.4801787], [-2.655966, 51.48001], [-2.6556447, 51.4798845], [-2.6553385, 51.4797464], [-2.6549956, 51.4795905], [-2.6547274, 51.4794583], [-2.6543304, 51.4792164], [-2.6540309, 51.4790162], [-2.6536214, 51.4787097], [-2.6534184, 51.4785315], [-2.6532277, 51.4783466], [-2.6528453, 51.4779118], [-2.6525258, 51.4774628], [-2.6522049, 51.4769014], [-2.6520831, 51.4765884], [-2.6520236, 51.4762715], [-2.6519455, 51.4756108], [-2.6519218, 51.4752304], [-2.651885, 51.4749458], [-2.6518402, 51.4746258], [-2.6517574, 51.4743296], [-2.6516474, 51.4740716]]}}, {"type": "Feature", "properties": {"osm_id": 108050066, "name": "Portishead Branch Line", "ref": "POD", "corridor": "Portishead Branch Line"}, "geometry": {"type": "LineString", "coordinates": [[-2.6516474, 51.4740716], [-2.6513697, 51.4736253]]}}, {"type": "Feature", "properties": {"osm_id": 108050070, "name": "Portishead Branch Line", "ref": "POD", "corridor": "Portishead Branch Line"}, "geometry": {"type": "LineString", "coordinates": [[-2.6513697, 51.4736253], [-2.6511525, 51.4733898], [-2.6509884, 51.4732123], [-2.6506343, 51.4729115], [-2.6504078, 51.4727463]]}}, {"type": "Feature", "properties": {"osm_id": 120809129, "name": "Portishead Branch Line", "ref": "POD", "corridor": "Portishead Branch Line"}, "geometry": {"type": "LineString", "coordinates": [[-2.6155982, 51.4314652], [-2.6161914, 51.4315149], [-2.6167432, 51.4315878], [-2.6171449, 51.4316549], [-2.617765, 51.431795], [-2.6181925, 51.4319189], [-2.6186004, 51.4320544], [-2.6191087, 51.4322564], [-2.6194834, 51.4324352], [-2.6198333, 51.432623], [-2.6201522, 51.432825], [-2.6204027, 51.432998], [-2.6207278, 51.4332529], [-2.6210133, 51.4335147], [-2.6211987, 51.4337099], [-2.6213225, 51.4338264]]}}, {"type": "Feature", "properties": {"osm_id": 123270319, "name": "Portishead Branch Line", "ref": "POD", "corridor": "Portishead Branch Line"}, "geometry": {"type": "LineString", "coordinates": [[-2.6212745, 51.4338347], [-2.6211542, 51.4337224], [-2.6209725, 51.4335327], [-2.6208524, 51.4334186], [-2.6205114, 51.433129], [-2.6201745, 51.4328846], [-2.6199576, 51.4327424], [-2.6197038, 51.4325968], [-2.6195228, 51.4324933], [-2.6193255, 51.432396], [-2.6189284, 51.4322144], [-2.6184157, 51.4320228], [-2.6178839, 51.4318616], [-2.6173522, 51.4317316], [-2.6168162, 51.4316312], [-2.6161734, 51.4315463], [-2.6155316, 51.4314926]]}}, {"type": "Feature", "properties": {"osm_id": 123270616, "name": "Portishead Branch Line", "ref": "POD", "corridor": "Portishead Branch Line"}, "geometry": {"type": "LineString", "coordinates": [[-2.6225103, 51.4367292], [-2.6223079, 51.436199], [-2.6221274, 51.4356603], [-2.621959, 51.4351101], [-2.6218306, 51.4347708], [-2.6216796, 51.4344326], [-2.6213551, 51.4339332]]}}, {"type": "Feature", "properties": {"osm_id": 123270617, "name": "Portishead Branch Line", "ref": "POD", "corridor": "Portishead Branch Line"}, "geometry": {"type": "LineString", "coordinates": [[-2.6225103, 51.4367292], [-2.6223504, 51.4361947], [-2.6221714, 51.4356546], [-2.6220029, 51.4351042], [-2.6218742, 51.4347639], [-2.621722, 51.4344232], [-2.6213968, 51.4339196]]}}, {"type": "Feature", "properties": {"osm_id": 140108395, "name": "Portishead Branch Line", "ref": "POD", "corridor": "Portishead Branch Line"}, "geometry": {"type": "LineString", "coordinates": [[-2.6913157, 51.4831944], [-2.6911067, 51.4831481]]}}, {"type": "Feature", "properties": {"osm_id": 140108396, "name": "Portishead Branch Line", "ref": "POD", "corridor": "Portishead Branch Line"}, "geometry": {"type": "LineString", "coordinates": [[-2.6911067, 51.4831481], [-2.6908186, 51.4830769], [-2.690612, 51.48302], [-2.6902241, 51.4828907], [-2.6897714, 51.4827236], [-2.6893318, 51.4825349], [-2.6888736, 51.4823236], [-2.6884956, 51.4821307], [-2.6880619, 51.4818881], [-2.6876602, 51.4816441], [-2.686829, 51.481134], [-2.6865474, 51.4809536], [-2.6862765, 51.4807891], [-2.6861437, 51.48072], [-2.6860132, 51.4806542]]}}, {"type": "Feature", "properties": {"osm_id": 164248537, "name": "Portishead Branch Line", "ref": "POD", "corridor": "Portishead Branch Line"}, "geometry": {"type": "LineString", "coordinates": [[-2.6328776, 51.4630023], [-2.6327799, 51.4628124]]}}, {"type": "Feature", "properties": {"osm_id": 164248538, "name": "No.1 Tunnel", "ref": "POD", "corridor": "Portishead Branch Line"}, "geometry": {"type": "LineString", "coordinates": [[-2.6289119, 51.4549736], [-2.6287223, 51.4547406], [-2.6285909, 51.4545403]]}}, {"type": "Feature", "properties": {"osm_id": 164248539, "name": "Portishead Branch Line", "ref": "POD", "corridor": "Portishead Branch Line"}, "geometry": {"type": "LineString", "coordinates": [[-2.6359494, 51.4676772], [-2.6357857, 51.4675954]]}}, {"type": "Feature", "properties": {"osm_id": 164248540, "name": "Portishead Branch Line", "ref": "POD", "corridor": "Portishead Branch Line"}, "geometry": {"type": "LineString", "coordinates": [[-2.6339295, 51.4660077], [-2.6338437, 51.4658406]]}}, {"type": "Feature", "properties": {"osm_id": 164248541, "name": "Portishead Branch Line", "ref": "POD", "corridor": "Portishead Branch Line"}, "geometry": {"type": "LineString", "coordinates": [[-2.6320093, 51.4616075], [-2.6319727, 51.4614795]]}}, {"type": "Feature", "properties": {"osm_id": 164248542, "name": "Portishead Branch Line", "ref": "POD", "corridor": "Portishead Branch Line"}, "geometry": {"type": "LineString", "coordinates": [[-2.6303687, 51.4561179], [-2.630248, 51.4560347]]}}, {"type": "Feature", "properties": {"osm_id": 164248543, "name": "Portishead Branch Line", "ref": "POD", "corridor": "Portishead Branch Line"}, "geometry": {"type": "LineString", "coordinates": [[-2.6315007, 51.4570183], [-2.6314168, 51.4569338]]}}, {"type": "Feature", "properties": {"osm_id": 164248544, "name": "Portishead Branch Line", "ref": "POD", "corridor": "Portishead Branch Line"}, "geometry": {"type": "LineString", "coordinates": [[-2.6319727, 51.4614795], [-2.6319211, 51.4612934], [-2.6318573, 51.4610545]]}}, {"type": "Feature", "properties": {"osm_id": 164248545, "name": "Portishead Branch Line", "ref": "POD", "corridor": "Portishead Branch Line"}, "geometry": {"type": "LineString", "coordinates": [[-2.6314168, 51.4569338], [-2.6309821, 51.4565635], [-2.6303687, 51.4561179]]}}, {"type": "Feature", "properties": {"osm_id": 164248546, "name": "Portishead Branch Line", "ref": "POD", "corridor": "Portishead Branch Line"}, "geometry": {"type": "LineString", "coordinates": [[-2.6285909, 51.4545403], [-2.6284737, 51.4543463], [-2.6284066, 51.454211], [-2.6283559, 51.4540855], [-2.628303, 51.4539065], [-2.6282593, 51.4537512], [-2.6281842, 51.4533735], [-2.628115, 51.452931], [-2.6280694, 51.4527376], [-2.628004, 51.4525512], [-2.627891, 51.4523058], [-2.6277402, 51.4520363], [-2.6270467, 51.4509795], [-2.6268903, 51.4507093], [-2.626762, 51.4504562], [-2.6264259, 51.4497137], [-2.6263311, 51.4494692], [-2.6261869, 51.4490081], [-2.6258935, 51.447835], [-2.6258321, 51.4475022], [-2.625779, 51.4471433], [-2.6257371, 51.4467764], [-2.6257159, 51.4463635], [-2.625784, 51.4457892], [-2.6259023, 51.4452331], [-2.6260364, 51.4444218], [-2.6259626, 51.4432092], [-2.625838, 51.4424719], [-2.625771, 51.4422399], [-2.625644, 51.441918], [-2.6255324, 51.4415916], [-2.625147, 51.4407832]]}}, {"type": "Feature", "properties": {"osm_id": 164248547, "name": "Portishead Branch Line", "ref": "POD", "corridor": "Portishead Branch Line"}, "geometry": {"type": "LineString", "coordinates": [[-2.630248, 51.4560347], [-2.630153, 51.4559841], [-2.6300054, 51.4558906], [-2.6298825, 51.4558155], [-2.6297506, 51.4557218], [-2.6295714, 51.455588], [-2.6292669, 51.4553544], [-2.6290754, 51.4551744], [-2.6289119, 51.4549736]]}}, {"type": "Feature", "properties": {"osm_id": 164248548, "name": "Portishead Branch Line", "ref": "POD", "corridor": "Portishead Branch Line"}, "geometry": {"type": "LineString", "coordinates": [[-2.6338437, 51.4658406], [-2.6335498, 51.4650305], [-2.633317, 51.4642553], [-2.6330822, 51.4635266], [-2.6329481, 51.4631558], [-2.6328776, 51.4630023]]}}, {"type": "Feature", "properties": {"osm_id": 164248549, "name": "Portishead Branch Line", "ref": "POD", "corridor": "Portishead Branch Line"}, "geometry": {"type": "LineString", "coordinates": [[-2.6357857, 51.4675954], [-2.6355335, 51.4674647], [-2.6352982, 51.4673377], [-2.6349704, 51.467106], [-2.6345173, 51.4667248], [-2.634275, 51.4664917], [-2.634123, 51.4663131], [-2.6339763, 51.4660912], [-2.6339295, 51.4660077]]}}, {"type": "Feature", "properties": {"osm_id": 164248550, "name": "Portishead Branch Line", "ref": "POD", "corridor": "Portishead Branch Line"}, "geometry": {"type": "LineString", "coordinates": [[-2.6327799, 51.4628124], [-2.6327172, 51.4627057], [-2.6325995, 51.4625615], [-2.6323956, 51.4622957], [-2.6322132, 51.4620283], [-2.6320764, 51.4617775], [-2.6320093, 51.4616075]]}}, {"type": "Feature", "properties": {"osm_id": 164250893, "name": "Portishead Branch Line", "ref": "POD", "corridor": "Portishead Branch Line"}, "geometry": {"type": "LineString", "coordinates": [[-2.6466344, 51.4706596], [-2.6464175, 51.4705311]]}}, {"type": "Feature", "properties": {"osm_id": 164250894, "name": "Portishead Branch Line", "ref": "POD", "corridor": "Portishead Branch Line"}, "geometry": {"type": "LineString", "coordinates": [[-2.639022, 51.4683817], [-2.6388237, 51.4683552]]}}, {"type": "Feature", "properties": {"osm_id": 164250895, "name": "Portishead Branch Line", "ref": "POD", "corridor": "Portishead Branch Line"}, "geometry": {"type": "LineString", "coordinates": [[-2.6388237, 51.4683552], [-2.6378155, 51.468205], [-2.6375407, 51.4681555], [-2.6373091, 51.468103], [-2.6368625, 51.4679844], [-2.6363947, 51.4678372], [-2.6359494, 51.4676772]]}}, {"type": "Feature", "properties": {"osm_id": 164250896, "name": "Portishead Branch Line", "ref": "POD", "corridor": "Portishead Branch Line"}, "geometry": {"type": "LineString", "coordinates": [[-2.6464175, 51.4705311], [-2.6460929, 51.4703817], [-2.6456619, 51.4702182], [-2.6434811, 51.4695473], [-2.6399239, 51.4685591], [-2.6395497, 51.4684759], [-2.639022, 51.4683817]]}}, {"type": "Feature", "properties": {"osm_id": 275565867, "name": "Portishead Branch Line", "ref": "POD", "corridor": "Portishead Branch Line"}, "geometry": {"type": "LineString", "coordinates": [[-2.7009967, 51.4826472], [-2.7011913, 51.4826214]]}}, {"type": "Feature", "properties": {"osm_id": 359580799, "name": "Portishead Branch Line", "ref": "POD", "corridor": "Portishead Branch Line"}, "geometry": {"type": "LineString", "coordinates": [[-2.6495813, 51.4722822], [-2.6492037, 51.4721033], [-2.6489386, 51.4720067], [-2.6484602, 51.4718064], [-2.6480051, 51.4715657], [-2.6474878, 51.4712597], [-2.6466344, 51.4706596]]}}, {"type": "Feature", "properties": {"osm_id": 359580800, "name": "Sandstone Tunnel", "ref": "POD", "corridor": "Portishead Branch Line"}, "geometry": {"type": "LineString", "coordinates": [[-2.6504078, 51.4727463], [-2.6500481, 51.4725294], [-2.6495813, 51.4722822]]}}, {"type": "Feature", "properties": {"osm_id": 378764311, "name": "Portishead Branch Line", "ref": "POD", "corridor": "Portishead Branch Line"}, "geometry": {"type": "LineString", "coordinates": [[-2.6213551, 51.4339332], [-2.6212745, 51.4338347]]}}, {"type": "Feature", "properties": {"osm_id": 378764312, "name": "Pill Branch Line", "ref": "POD", "corridor": "Portishead Branch Line"}, "geometry": {"type": "LineString", "coordinates": [[-2.6213968, 51.4339196], [-2.6213225, 51.4338264]]}}, {"type": "Feature", "properties": {"osm_id": 499996896, "name": "Portishead Branch Line", "ref": "POD", "corridor": "Portishead Branch Line"}, "geometry": {"type": "LineString", "coordinates": [[-2.708204, 51.4813144], [-2.7102468, 51.4808261], [-2.7124759, 51.4802755], [-2.7132381, 51.4800787], [-2.7182092, 51.4788833], [-2.7193679, 51.478616], [-2.7198221, 51.4785151], [-2.7203335, 51.4784356], [-2.7212362, 51.4783032], [-2.7234944, 51.4780723], [-2.7251268, 51.477932], [-2.7259917, 51.4778847], [-2.7264553, 51.4778785], [-2.7269441, 51.4778784], [-2.7275786, 51.4778783], [-2.728187, 51.4778876], [-2.7290561, 51.4779478], [-2.7300002, 51.4780413], [-2.7308585, 51.4781416], [-2.7316055, 51.4782378], [-2.7324571, 51.4783687], [-2.7336266, 51.4785892], [-2.7416381, 51.4803251]]}}, {"type": "Feature", "properties": {"osm_id": 823795624, "name": "Portishead Branch Line", "ref": "POD", "corridor": "Portishead Branch Line"}, "geometry": {"type": "LineString", "coordinates": [[-2.625147, 51.4407832], [-2.6246441, 51.4400459], [-2.624097, 51.4394657], [-2.6236028, 51.4389057], [-2.6234573, 51.4387264], [-2.6233101, 51.438515], [-2.6231997, 51.4383477], [-2.6230777, 51.4381501], [-2.6229497, 51.4378924], [-2.6227635, 51.4374477], [-2.6226703, 51.4372256], [-2.6225103, 51.4367292]]}}, {"type": "Feature", "properties": {"osm_id": 1052310831, "name": "Portishead Branch Line", "ref": "POD", "corridor": "Portishead Branch Line"}, "geometry": {"type": "LineString", "coordinates": [[-2.7011913, 51.4826214], [-2.7033123, 51.4823147], [-2.7038623, 51.482236], [-2.7040871, 51.4822039], [-2.7048618, 51.4820602], [-2.7064722, 51.4816985], [-2.7079505, 51.4813707]]}}, {"type": "Feature", "properties": {"osm_id": 1085984498, "name": "Portishead Branch Line", "ref": "POD", "corridor": "Portishead Branch Line"}, "geometry": {"type": "LineString", "coordinates": [[-2.7421874, 51.4804415], [-2.7416381, 51.4803251]]}}, {"type": "Feature", "properties": {"osm_id": 1085984499, "name": null, "ref": "POD", "corridor": "Portishead Branch Line"}, "geometry": {"type": "LineString", "coordinates": [[-2.708204, 51.4813144], [-2.7079505, 51.4813707]]}}, {"type": "Feature", "properties": {"osm_id": 1137366773, "name": "Portishead Branch Line", "ref": "POD", "corridor": "Portishead Branch Line"}, "geometry": {"type": "LineString", "coordinates": [[-2.6155316, 51.4314926], [-2.6151014, 51.431472], [-2.6146702, 51.4314723], [-2.6141963, 51.4315038], [-2.6139763, 51.4315215], [-2.6137218, 51.4315543], [-2.6134078, 51.4315973], [-2.6129954, 51.4316678], [-2.6125652, 51.4317623]]}}, {"type": "Feature", "properties": {"osm_id": 1137366774, "name": "Portishead Branch Line", "ref": "POD", "corridor": "Portishead Branch Line"}, "geometry": {"type": "LineString", "coordinates": [[-2.6129954, 51.4316678], [-2.6133883, 51.431575], [-2.6137187, 51.4315167], [-2.613974, 51.431485], [-2.6141902, 51.4314668], [-2.6146723, 51.4314372], [-2.6151059, 51.4314402], [-2.6155982, 51.4314652]]}}]}