{"type":"FeatureCollection","features":[{"type":"Feature","properties":{"osm_id":3575503,"name":"Bristol & Bath Railway Path","corridor":"Bristol & Bath Railway Path"},"geometry":{"type":"LineString","coordinates":[[-2.4819003,51.4681249],[-2.4818842,51.4681005],[-2.4818848,51.4680765],[-2.4819628,51.467943],[-2.4820179,51.4676914],[-2.4820457,51.4672051],[-2.4820249,51.4670867],[-2.4819821,51.4669696],[-2.4818088,51.466667],[-2.4813931,51.4661385],[-2.4813604,51.4660676],[-2.4813701,51.4659958],[-2.4814425,51.4658397]]}},{"type":"Feature","properties":{"osm_id":5973056,"name":"Bristol & Bath Railway Path","corridor":"Bristol & Bath Railway Path"},"geometry":{"type":"LineString","coordinates":[[-2.4751645,51.4381294],[-2.4751506,51.4381446],[-2.474834,51.4384693],[-2.4745782,51.4387107],[-2.4739336,51.439248],[-2.4738629,51.4393052],[-2.4738035,51.4393494],[-2.4733535,51.4396687],[-2.4729763,51.4399129],[-2.4726564,51.4401055],[-2.472321,51.4402864],[-2.4719152,51.4405164],[-2.4702369,51.4413888],[-2.4694276,51.4418619],[-2.4691472,51.4420389],[-2.4685332,51.4424746],[-2.4682247,51.4426993],[-2.4680468,51.442812],[-2.467985,51.4428701],[-2.4678704,51.4430566],[-2.467826,51.4431226],[-2.4674004,51.4435426],[-2.4670112,51.4439288],[-2.4668476,51.4441357],[-2.4666853,51.4442963],[-2.4665826,51.4444337],[-2.4664788,51.4445874],[-2.4664252,51.4446796],[-2.4662961,51.4448085],[-2.4661986,51.4449287],[-2.4658646,51.445648],[-2.4656576,51.4461558],[-2.4655343,51.4466443],[-2.46546,51.4469388],[-2.4653618,51.4476381],[-2.4653564,51.4476768],[-2.4653657,51.4482435],[-2.4654328,51.4487606],[-2.465577,51.4496166],[-2.4655501,51.4496435],[-2.4655802,51.449676],[-2.4655925,51.4497086]]}},{"type":"Feature","properties":{"osm_id":5973059,"name":"Bristol & Bath Railway Path","corridor":"Bristol & Bath Railway Path"},"geometry":{"type":"LineString","coordinates":[[-2.4753622,51.4378923],[-2.4751645,51.4381294]]}},{"type":"Feature","properties":{"osm_id":30425572,"name":"Bristol & Bath Railway Path","corridor":"Bristol & Bath Railway Path"},"geometry":{"type":"LineString","coordinates":[[-2.4515511,51.4077302],[-2.45191,51.4082281],[-2.4556203,51.4130094],[-2.4563846,51.4139926]]}},{"type":"Feature","properties":{"osm_id":31129609,"name":"Bristol & Bath Railway Path","corridor":"Bristol & Bath Railway Path"},"geometry":{"type":"LineString","coordinates":[[-2.4762256,51.4302932],[-2.4762923,51.4304077]]}},{"type":"Feature","properties":{"osm_id":31171896,"name":"Bristol & Bath Railway Path","corridor":"Bristol & Bath Railway Path"},"geometry":{"type":"LineString","coordinates":[[-2.4671586,51.4522621],[-2.4678591,51.4529628],[-2.4679094,51.4530003],[-2.4683781,51.4533686],[-2.4690675,51.4538915],[-2.4701195,51.4546449],[-2.4704631,51.4549058],[-2.4705702,51.4549854],[-2.4712081,51.4555248],[-2.4718837,51.4561235],[-2.4724296,51.45667],[-2.4726923,51.4569542],[-2.4729485,51.4572576],[-2.4730832,51.4574172],[-2.4735039,51.4579151],[-2.4739072,51.4584757],[-2.4746689,51.4595162],[-2.4746498,51.4595529],[-2.474699,51.4595654],[-2.4747525,51.4596329],[-2.4748305,51.4596516],[-2.4748139,51.4597066],[-2.4748022,51.4597448],[-2.474888,51.4598174],[-2.4749023,51.4598335],[-2.4751395,51.4601268],[-2.4755426,51.4606106],[-2.4755541,51.4606243],[-2.4756336,51.4607198]]}},{"type":"Feature","properties":{"osm_id":34784852,"name":"Bristol & Bath Railway Path","corridor":"Bristol & Bath Railway Path"},"geometry":{"type":"LineString","coordinates":[[-2.450358,51.4056108],[-2.4509525,51.4067502],[-2.4511136,51.4070384],[-2.4515511,51.4077302]]}},{"type":"Feature","properties":{"osm_id":34784855,"name":"Bristol & Bath Railway Path","corridor":"Bristol & Bath Railway Path"},"geometry":{"type":"LineString","coordinates":[[-2.4588173,51.4164775],[-2.45926,51.4168939]]}},{"type":"Feature","properties":{"osm_id":34784856,"name":"Bristol & Bath Railway Path","corridor":"Bristol & Bath Railway Path"},"geometry":{"type":"LineString","coordinates":[[-2.45926,51.4168939],[-2.4595476,51.4171584]]}},{"type":"Feature","properties":{"osm_id":34856175,"name":"Bristol & Bath Railway Path","corridor":"Bristol & Bath Railway Path"},"geometry":{"type":"LineString","coordinates":[[-2.4762923,51.4304077],[-2.4762409,51.4304213],[-2.4761337,51.4304494],[-2.4760068,51.4305155],[-2.4759645,51.4305367]]}},{"type":"Feature","properties":{"osm_id":37558547,"name":"Bristol & Bath Railway Path","corridor":"Bristol & Bath Railway Path"},"geometry":{"type":"LineString","coordinates":[[-2.4795318,51.4638261],[-2.479386,51.4637149]]}},{"type":"Feature","properties":{"osm_id":38757885,"name":"Bristol & Bath Railway Path","corridor":"Bristol & Bath Railway Path"},"geometry":{"type":"LineString","coordinates":[[-2.4814425,51.4658397],[-2.4814762,51.465737],[-2.4814935,51.4656492],[-2.4814805,51.4655591],[-2.4814577,51.4654755]]}},{"type":"Feature","properties":{"osm_id":38757886,"name":"Bristol & Bath Railway Path","corridor":"Bristol & Bath Railway Path"},"geometry":{"type":"LineString","coordinates":[[-2.480451,51.4645141],[-2.4803482,51.464436],[-2.480247,51.4643591],[-2.4801808,51.4643098],[-2.4795318,51.4638261]]}},{"type":"Feature","properties":{"osm_id":39358425,"name":"Bristol & Bath Railway Path","corridor":"Bristol & Bath Railway Path"},"geometry":{"type":"LineString","coordinates":[[-2.4602477,51.4177576],[-2.4605349,51.4179994]]}},{"type":"Feature","properties":{"osm_id":39358426,"name":"Bristol & Bath Railway Path","corridor":"Bristol & Bath Railway Path"},"geometry":{"type":"LineString","coordinates":[[-2.4605349,51.4179994],[-2.4610162,51.4183872],[-2.4614095,51.418699],[-2.4619146,51.4190839]]}},{"type":"Feature","properties":{"osm_id":167291448,"name":"Bristol & Bath Railway Path","corridor":"Bristol & Bath Railway Path"},"geometry":{"type":"LineString","coordinates":[[-2.4563846,51.4139926],[-2.4565287,51.4141132],[-2.4569479,51.4145676],[-2.4570702,51.4146695],[-2.4571476,51.414734],[-2.45819,51.4158414],[-2.4582931,51.4159689],[-2.4583398,51.4160216],[-2.4584118,51.4161051]]}},{"type":"Feature","properties":{"osm_id":168889654,"name":"Bristol & Bath Railway Path","corridor":"Bristol & Bath Railway Path"},"geometry":{"type":"LineString","coordinates":[[-2.4814577,51.4654755],[-2.4812944,51.4652891],[-2.4807555,51.4647815],[-2.480451,51.4645141]]}},{"type":"Feature","properties":{"osm_id":180851986,"name":"Bristol & Bath Railway Path","corridor":"Bristol & Bath Railway Path"},"geometry":{"type":"LineString","coordinates":[[-2.4803482,51.464436],[-2.4802568,51.4644089],[-2.4802246,51.4643818],[-2.4801808,51.4643098]]}},{"type":"Feature","properties":{"osm_id":186767507,"name":"Bristol & Bath Railway Path","corridor":"Bristol & Bath Railway Path"},"geometry":{"type":"LineString","coordinates":[[-2.4694418,51.4245348],[-2.4719393,51.4263592],[-2.4735199,51.427502],[-2.4740185,51.4278621],[-2.474515,51.4282677],[-2.4749714,51.4287],[-2.4755388,51.4293239],[-2.4757923,51.4296485],[-2.4759209,51.4298372],[-2.4762256,51.4302932]]}},{"type":"Feature","properties":{"osm_id":186767508,"name":"Bristol & Bath Railway Path","corridor":"Bristol & Bath Railway Path"},"geometry":{"type":"LineString","coordinates":[[-2.4623337,51.419388],[-2.4642181,51.4207631],[-2.4667261,51.4225664],[-2.468741,51.4240304],[-2.4692622,51.4244082],[-2.4692944,51.4244327]]}},{"type":"Feature","properties":{"osm_id":190444369,"name":"Bristol & Bath Railway Path","corridor":"Bristol & Bath Railway Path"},"geometry":{"type":"LineString","coordinates":[[-2.4663957,51.4512585],[-2.4667914,51.4518133],[-2.4671586,51.4522621]]}},{"type":"Feature","properties":{"osm_id":350604936,"name":"Bristol & Bath Railway Path","corridor":"Bristol & Bath Railway Path"},"geometry":{"type":"LineString","coordinates":[[-2.4771453,51.4336057],[-2.4771467,51.4337686],[-2.4771287,51.4339973],[-2.4770991,51.4342895],[-2.4770354,51.4346801],[-2.4768731,51.435307],[-2.4767169,51.4357629],[-2.4764882,51.4362927],[-2.4763246,51.4365995],[-2.4761318,51.4369129],[-2.4755452,51.4376757]]}},{"type":"Feature","properties":{"osm_id":367512883,"name":"Bristol & Bath Railway Path","corridor":"Bristol & Bath Railway Path"},"geometry":{"type":"LineString","coordinates":[[-2.4692944,51.4244327],[-2.4694418,51.4245348]]}},{"type":"Feature","properties":{"osm_id":367704729,"name":"Bristol & Bath Railway Path","corridor":"Bristol & Bath Railway Path"},"geometry":{"type":"LineString","coordinates":[[-2.4619146,51.4190839],[-2.4623337,51.419388]]}},{"type":"Feature","properties":{"osm_id":371274086,"name":"Bristol & Bath Railway Path","corridor":"Bristol & Bath Railway Path"},"geometry":{"type":"LineString","coordinates":[[-2.4755452,51.4376757],[-2.4753622,51.4378923]]}},{"type":"Feature","properties":{"osm_id":383679363,"name":"Bristol & Bath Railway Path","corridor":"Bristol & Bath Railway Path"},"geometry":{"type":"LineString","coordinates":[[-2.4595476,51.4171584],[-2.4602477,51.4177576]]}},{"type":"Feature","properties":{"osm_id":383679369,"name":"Bristol & Bath Railway Path","corridor":"Bristol & Bath Railway Path"},"geometry":{"type":"LineString","coordinates":[[-2.4584118,51.4161051],[-2.4588173,51.4164775]]}},{"type":"Feature","properties":{"osm_id":993049591,"name":"Bristol & Bath Railway Path","corridor":"Bristol & Bath Railway Path"},"geometry":{"type":"LineString","coordinates":[[-2.4756336,51.4607198],[-2.4758514,51.4609681],[-2.4770573,51.4620058],[-2.4779922,51.4626616],[-2.4785706,51.4630987],[-2.479386,51.4637149]]}},{"type":"Feature","properties":{"osm_id":996338313,"name":"Bristol & Bath Railway Path","corridor":"Bristol & Bath Railway Path"},"geometry":{"type":"LineString","coordinates":[[-2.4655925,51.4497086],[-2.4656049,51.4497523],[-2.4655844,51.4498042],[-2.4656425,51.4498464],[-2.4659074,51.4503992],[-2.4661546,51.4508451],[-2.4663957,51.4512585]]}},{"type":"Feature","properties":{"osm_id":1361726994,"name":"Bristol & Bath Railway Path","corridor":"Bristol & Bath Railway Path"},"geometry":{"type":"LineString","coordinates":[[-2.4759645,51.4305367],[-2.4758983,51.4307334],[-2.4758859,51.4308394],[-2.4758843,51.4308649],[-2.4758966,51.4308696],[-2.4759069,51.430899],[-2.4758975,51.4309458],[-2.4759337,51.4311223],[-2.4759447,51.4311665],[-2.4759726,51.4312778],[-2.476029,51.4314057],[-2.4760869,51.4315077],[-2.476202,51.43169],[-2.4764082,51.4320205],[-2.476784,51.4328112],[-2.4768014,51.4328421],[-2.4768565,51.4329049],[-2.4768645,51.432914],[-2.476972,51.4331556],[-2.4770407,51.4333872],[-2.4770457,51.4336008],[-2.4770658,51.4336031],[-2.4771023,51.4336038],[-2.4771279,51.4336034],[-2.4771453,51.4336057]]}}]}