{"type":"FeatureCollection","features":[{"type":"Feature","properties":{"osm_id":16902284,"name":"Patchway"},"geometry":{"type":"Point","coordinates":[-2.5623447,51.5258271]}},{"type":"Feature","properties":{"osm_id":17207692,"name":"Yate"},"geometry":{"type":"Point","coordinates":[-2.4321734,51.5413993]}},{"type":"Feature","properties":{"osm_id":18154990,"name":"Caldicot"},"geometry":{"type":"Point","coordinates":[-2.7597685,51.5845063]}},{"type":"Feature","properties":{"osm_id":21277558,"name":"Yatton"},"geometry":{"type":"Point","coordinates":[-2.8277046,51.3908826]}},{"type":"Feature","properties":{"osm_id":21659771,"name":"Montpelier"},"geometry":{"type":"Point","coordinates":[-2.5881158,51.4683357]}},{"type":"Feature","properties":{"osm_id":21671870,"name":"Stapleton Road"},"geometry":{"type":"Point","coordinates":[-2.5663184,51.467446]}},{"type":"Feature","properties":{"osm_id":21671934,"name":"Lawrence Hill"},"geometry":{"type":"Point","coordinates":[-2.56417,51.45858]}},{"type":"Feature","properties":{"osm_id":26152727,"name":"Keynsham"},"geometry":{"type":"Point","coordinates":[-2.4958797,51.418071]}},{"type":"Feature","properties":{"osm_id":26200582,"name":"Clifton Down"},"geometry":{"type":"Point","coordinates":[-2.6114362,51.4644315]}},{"type":"Feature","properties":{"osm_id":26512125,"name":"Oldfield Park"},"geometry":{"type":"Point","coordinates":[-2.3801536,51.379209]}},{"type":"Feature","properties":{"osm_id":26949699,"name":"Freshford"},"geometry":{"type":"Point","coordinates":[-2.3005891,51.3417702]}},{"type":"Feature","properties":{"osm_id":27225052,"name":"Bedminster"},"geometry":{"type":"Point","coordinates":[-2.5936286,51.4406058]}},{"type":"Feature","properties":{"osm_id":27225053,"name":"Parson Street"},"geometry":{"type":"Point","coordinates":[-2.6085368,51.432994]}},{"type":"Feature","properties":{"osm_id":27536595,"name":"Severn Beach"},"geometry":{"type":"Point","coordinates":[-2.6645392,51.5596758]}},{"type":"Feature","properties":{"osm_id":30336696,"name":"St Andrews Road"},"geometry":{"type":"Point","coordinates":[-2.6964411,51.5124477]}},{"type":"Feature","properties":{"osm_id":30351396,"name":"Shirehampton"},"geometry":{"type":"Point","coordinates":[-2.6789317,51.4842773]}},{"type":"Feature","properties":{"osm_id":40683212,"name":"Redland"},"geometry":{"type":"Point","coordinates":[-2.5989091,51.4683779]}},{"type":"Feature","properties":{"osm_id":40773624,"name":"Pilning"},"geometry":{"type":"Point","coordinates":[-2.6267285,51.556377]}},{"type":"Feature","properties":{"osm_id":278435766,"name":"Filton Abbey Wood"},"geometry":{"type":"Point","coordinates":[-2.563826,51.503393]}},{"type":"Feature","properties":{"osm_id":492098581,"name":"Nailsea and Backwell"},"geometry":{"type":"Point","coordinates":[-2.7496898,51.4196718]}},{"type":"Feature","properties":{"osm_id":1069493538,"name":"Severn Tunnel Junction"},"geometry":{"type":"Point","coordinates":[-2.7772968,51.584253]}},{"type":"Feature","properties":{"osm_id":6605149667,"name":"Bristol Parkway"},"geometry":{"type":"Point","coordinates":[-2.542979,51.5138815]}},{"type":"Feature","properties":{"osm_id":6605149668,"name":"Bath Spa"},"geometry":{"type":"Point","coordinates":[-2.3567189,51.3776019]}},{"type":"Feature","properties":{"osm_id":7167219009,"name":"Avonmouth"},"geometry":{"type":"Point","coordinates":[-2.6988623,51.4997221]}},{"type":"Feature","properties":{"osm_id":7167219010,"name":"Sea Mills"},"geometry":{"type":"Point","coordinates":[-2.6496514,51.4795006]}},{"type":"Feature","properties":{"osm_id":7167271113,"name":"Bristol Temple Meads"},"geometry":{"type":"Point","coordinates":[-2.5804029,51.4490991]}},{"type":"Feature","properties":{"osm_id":9377381079,"name":"Portway Park and Ride"},"geometry":{"type":"Point","coordinates":[-2.6875586,51.4881079]}},{"type":"Feature","properties":{"osm_id":11824533457,"name":"Ashley Down"},"geometry":{"type":"Point","coordinates":[-2.5766511,51.4781307]}}]}