{"type":"FeatureCollection","features":[{"type":"Feature","properties":{"osm_id":3445490,"name":"Redcliffe Way","ref":"A4044","corridor":"Redcliffe Way"},"geometry":{"type":"LineString","coordinates":[[-2.5899258,51.4490524],[-2.5898667,51.4490077],[-2.5898077,51.4489687],[-2.5897582,51.448944],[-2.5897064,51.4489208],[-2.5896456,51.4488992],[-2.5895893,51.4488827],[-2.5894877,51.4488633],[-2.5894066,51.4488543],[-2.5893271,51.4488482]]}},{"type":"Feature","properties":{"osm_id":3512363,"name":"Redcliffe Way","corridor":"Redcliffe Way"},"geometry":{"type":"LineString","coordinates":[[-2.5906487,51.4489541],[-2.5907563,51.4490641],[-2.5907959,51.4491198],[-2.5908322,51.4491583],[-2.5908716,51.4491892],[-2.5909129,51.4492139],[-2.5909684,51.4492397],[-2.5910475,51.4492746],[-2.5911062,51.4492935],[-2.5913133,51.4493417],[-2.5913674,51.4493726]]}},{"type":"Feature","properties":{"osm_id":3512364,"name":"Redcliffe Way","corridor":"Redcliffe Way"},"geometry":{"type":"LineString","coordinates":[[-2.5926575,51.4495548],[-2.5925539,51.4495717],[-2.5924449,51.4495736]]}},{"type":"Feature","properties":{"osm_id":25661547,"name":"Redcliffe Way","corridor":"Redcliffe Way"},"geometry":{"type":"LineString","coordinates":[[-2.5924726,51.4495177],[-2.5926575,51.4495548]]}},{"type":"Feature","properties":{"osm_id":25661548,"name":"Redcliffe Way","corridor":"Redcliffe Way"},"geometry":{"type":"LineString","coordinates":[[-2.5924449,51.4495736],[-2.5916186,51.4494597]]}},{"type":"Feature","properties":{"osm_id":25661563,"name":"Redcliffe Way","corridor":"Redcliffe Way"},"geometry":{"type":"LineString","coordinates":[[-2.5916186,51.4494597],[-2.5915004,51.449443],[-2.5912826,51.4493908]]}},{"type":"Feature","properties":{"osm_id":25661566,"name":"Redcliffe Way","corridor":"Redcliffe Way"},"geometry":{"type":"LineString","coordinates":[[-2.5916358,51.4494072],[-2.5924726,51.4495177]]}},{"type":"Feature","properties":{"osm_id":229984481,"name":"Redcliffe Way","ref":"A4044","corridor":"Redcliffe Way"},"geometry":{"type":"LineString","coordinates":[[-2.5893271,51.4488482],[-2.5891809,51.4488443],[-2.5887932,51.4488683]]}},{"type":"Feature","properties":{"osm_id":229984482,"name":"Redcliffe Way","ref":"A4044","corridor":"Redcliffe Way"},"geometry":{"type":"LineString","coordinates":[[-2.586576,51.4490235],[-2.5864316,51.4490181],[-2.586157,51.4490013],[-2.5859799,51.4489897],[-2.5857437,51.4489742]]}},{"type":"Feature","properties":{"osm_id":560842564,"name":"Redcliffe Way","corridor":"Redcliffe Way"},"geometry":{"type":"LineString","coordinates":[[-2.5913674,51.4493726],[-2.5912826,51.4493908]]}},{"type":"Feature","properties":{"osm_id":560842565,"name":"Redcliffe Way","corridor":"Redcliffe Way"},"geometry":{"type":"LineString","coordinates":[[-2.5912826,51.4493908],[-2.5911282,51.4493674],[-2.5910062,51.4493373],[-2.590895,51.4492985],[-2.5908272,51.4492693],[-2.5907456,51.4492402],[-2.5906939,51.4492263],[-2.5906406,51.4492173],[-2.5905726,51.4492136],[-2.5904389,51.4492122]]}},{"type":"Feature","properties":{"osm_id":689185463,"name":"Redcliffe Way","ref":"A4044","corridor":"Redcliffe Way"},"geometry":{"type":"LineString","coordinates":[[-2.5847669,51.4488212],[-2.5849923,51.4488414],[-2.5851803,51.4488582],[-2.5855128,51.4488883],[-2.5857286,51.4489079],[-2.5859503,51.448921],[-2.5861533,51.4489317],[-2.5863988,51.4489465],[-2.5865737,51.4489485],[-2.5867024,51.4489467],[-2.5868518,51.4489363],[-2.5873618,51.44889],[-2.5878872,51.4488484],[-2.5882523,51.448819],[-2.5889012,51.4487659],[-2.5890876,51.4487609],[-2.5892736,51.4487601],[-2.5894054,51.4487648],[-2.5895424,51.4487771],[-2.5896784,51.4487936],[-2.5898083,51.4488115],[-2.5898424,51.4488152],[-2.5898892,51.4488156],[-2.589936,51.4488121],[-2.5899868,51.4488056],[-2.5900315,51.4487962]]}},{"type":"Feature","properties":{"osm_id":1023250996,"name":"Redcliffe Way","ref":"A4044","corridor":"Redcliffe Way"},"geometry":{"type":"LineString","coordinates":[[-2.5887932,51.4488683],[-2.5879622,51.4489415],[-2.5871341,51.4490109]]}},{"type":"Feature","properties":{"osm_id":1149252658,"name":"Redcliffe Way","ref":"A4044","corridor":"Redcliffe Way"},"geometry":{"type":"LineString","coordinates":[[-2.5871341,51.4490109],[-2.5871285,51.4490114],[-2.5868277,51.449026],[-2.586576,51.4490235]]}},{"type":"Feature","properties":{"osm_id":1267506478,"name":"Redcliffe Way","ref":"A4044","corridor":"Redcliffe Way"},"geometry":{"type":"LineString","coordinates":[[-2.5842589,51.4487249],[-2.5843515,51.4487542],[-2.5844411,51.448776],[-2.5845051,51.448787],[-2.5846571,51.4488111],[-2.5847669,51.4488212]]}},{"type":"Feature","properties":{"osm_id":1350947972,"name":"Redcliffe Way","corridor":"Redcliffe Way"},"geometry":{"type":"LineString","coordinates":[[-2.5926575,51.4495548],[-2.5927494,51.4495429]]}},{"type":"Feature","properties":{"osm_id":1389333852,"name":"Redcliffe Way","corridor":"Redcliffe Way"},"geometry":{"type":"LineString","coordinates":[[-2.5855021,51.4497715],[-2.5855151,51.4497121],[-2.5855555,51.4496265],[-2.5855845,51.4495893],[-2.5856354,51.4495238],[-2.5857205,51.4494413],[-2.5859416,51.449297]]}},{"type":"Feature","properties":{"osm_id":1391922488,"name":"Redcliffe Way","corridor":"Redcliffe Way"},"geometry":{"type":"LineString","coordinates":[[-2.5913674,51.4493726],[-2.5916358,51.4494072]]}}]}