{"type":"FeatureCollection","features":[{"type":"Feature","properties":{"osm_id":3445490,"name":"Redcliffe Way","ref":"A4044","corridor":"Redcliffe Way cycle track"},"geometry":{"type":"LineString","coordinates":[[-2.5899258,51.4490524],[-2.5898667,51.4490077],[-2.5898077,51.4489687],[-2.5897582,51.448944],[-2.5897064,51.4489208],[-2.5896456,51.4488992],[-2.5895893,51.4488827],[-2.5894877,51.4488633],[-2.5894066,51.4488543],[-2.5893271,51.4488482]]}},{"type":"Feature","properties":{"osm_id":3512363,"name":"Redcliffe Way","corridor":"Redcliffe Way cycle track"},"geometry":{"type":"LineString","coordinates":[[-2.5906487,51.4489541],[-2.5907563,51.4490641],[-2.5907959,51.4491198],[-2.5908322,51.4491583],[-2.5908716,51.4491892],[-2.5909129,51.4492139],[-2.5909684,51.4492397],[-2.5910475,51.4492746],[-2.5911062,51.4492935],[-2.5913133,51.4493417],[-2.5913674,51.4493726]]}},{"type":"Feature","properties":{"osm_id":3512364,"name":"Redcliffe Way","corridor":"Redcliffe Way cycle track"},"geometry":{"type":"LineString","coordinates":[[-2.5926575,51.4495548],[-2.5925539,51.4495717],[-2.5924449,51.4495736]]}},{"type":"Feature","properties":{"osm_id":25661547,"name":"Redcliffe Way","corridor":"Redcliffe Way cycle track"},"geometry":{"type":"LineString","coordinates":[[-2.5924726,51.4495177],[-2.5926575,51.4495548]]}},{"type":"Feature","properties":{"osm_id":25661548,"name":"Redcliffe Way","corridor":"Redcliffe Way cycle track"},"geometry":{"type":"LineString","coordinates":[[-2.5924449,51.4495736],[-2.5916186,51.4494597]]}},{"type":"Feature","properties":{"osm_id":25661563,"name":"Redcliffe Way","corridor":"Redcliffe Way cycle track"},"geometry":{"type":"LineString","coordinates":[[-2.5916186,51.4494597],[-2.5915004,51.449443],[-2.5912826,51.4493908]]}},{"type":"Feature","properties":{"osm_id":25661566,"name":"Redcliffe Way","corridor":"Redcliffe Way cycle track"},"geometry":{"type":"LineString","coordinates":[[-2.5916358,51.4494072],[-2.5924726,51.4495177]]}},{"type":"Feature","properties":{"osm_id":229984481,"name":"Redcliffe Way","ref":"A4044","corridor":"Redcliffe Way cycle track"},"geometry":{"type":"LineString","coordinates":[[-2.5893271,51.4488482],[-2.5891809,51.4488443],[-2.5887932,51.4488683]]}},{"type":"Feature","properties":{"osm_id":229984482,"name":"Redcliffe Way","ref":"A4044","corridor":"Redcliffe Way cycle track"},"geometry":{"type":"LineString","coordinates":[[-2.586576,51.4490235],[-2.5864316,51.4490181],[-2.586157,51.4490013],[-2.5859799,51.4489897],[-2.5857437,51.4489742]]}},{"type":"Feature","properties":{"osm_id":560842564,"name":"Redcliffe Way","corridor":"Redcliffe Way cycle track"},"geometry":{"type":"LineString","coordinates":[[-2.5913674,51.4493726],[-2.5912826,51.4493908]]}},{"type":"Feature","properties":{"osm_id":560842565,"name":"Redcliffe Way","corridor":"Redcliffe Way cycle track"},"geometry":{"type":"LineString","coordinates":[[-2.5912826,51.4493908],[-2.5911282,51.4493674],[-2.5910062,51.4493373],[-2.590895,51.4492985],[-2.5908272,51.4492693],[-2.5907456,51.4492402],[-2.5906939,51.4492263],[-2.5906406,51.4492173],[-2.5905726,51.4492136],[-2.5904389,51.4492122]]}},{"type":"Feature","properties":{"osm_id":689185463,"name":"Redcliffe Way","ref":"A4044","corridor":"Redcliffe Way cycle track"},"geometry":{"type":"LineString","coordinates":[[-2.5847669,51.4488212],[-2.5849923,51.4488414],[-2.5851803,51.4488582],[-2.5855128,51.4488883],[-2.5857286,51.4489079],[-2.5859503,51.448921],[-2.5861533,51.4489317],[-2.5863988,51.4489465],[-2.5865737,51.4489485],[-2.5867024,51.4489467],[-2.5868518,51.4489363],[-2.5873618,51.44889],[-2.5878872,51.4488484],[-2.5882523,51.448819],[-2.5889012,51.4487659],[-2.5890876,51.4487609],[-2.5892736,51.4487601],[-2.5894054,51.4487648],[-2.5895424,51.4487771],[-2.5896784,51.4487936],[-2.5898083,51.4488115],[-2.5898424,51.4488152],[-2.5898892,51.4488156],[-2.589936,51.4488121],[-2.5899868,51.4488056],[-2.5900315,51.4487962]]}},{"type":"Feature","properties":{"osm_id":1023250996,"name":"Redcliffe Way","ref":"A4044","corridor":"Redcliffe Way cycle track"},"geometry":{"type":"LineString","coordinates":[[-2.5887932,51.4488683],[-2.5879622,51.4489415],[-2.5871341,51.4490109]]}},{"type":"Feature","properties":{"osm_id":1149252658,"name":"Redcliffe Way","ref":"A4044","corridor":"Redcliffe Way cycle track"},"geometry":{"type":"LineString","coordinates":[[-2.5871341,51.4490109],[-2.5871285,51.4490114],[-2.5868277,51.449026],[-2.586576,51.4490235]]}},{"type":"Feature","properties":{"osm_id":1267506478,"name":"Redcliffe Way","ref":"A4044","corridor":"Redcliffe Way cycle track"},"geometry":{"type":"LineString","coordinates":[[-2.5842589,51.4487249],[-2.5843515,51.4487542],[-2.5844411,51.448776],[-2.5845051,51.448787],[-2.5846571,51.4488111],[-2.5847669,51.4488212]]}},{"type":"Feature","properties":{"osm_id":1350947972,"name":"Redcliffe Way","corridor":"Redcliffe Way cycle track"},"geometry":{"type":"LineString","coordinates":[[-2.5926575,51.4495548],[-2.5927494,51.4495429]]}},{"type":"Feature","properties":{"osm_id":1389333852,"name":"Redcliffe Way","corridor":"Redcliffe Way cycle track"},"geometry":{"type":"LineString","coordinates":[[-2.5855021,51.4497715],[-2.5855151,51.4497121],[-2.5855555,51.4496265],[-2.5855845,51.4495893],[-2.5856354,51.4495238],[-2.5857205,51.4494413],[-2.5859416,51.449297]]}},{"type":"Feature","properties":{"osm_id":1391922488,"name":"Redcliffe Way","corridor":"Redcliffe Way cycle track"},"geometry":{"type":"LineString","coordinates":[[-2.5913674,51.4493726],[-2.5916358,51.4494072]]}},{"type":"Feature","properties":{"osm_id":3994824,"name":"Redcliff Hill","ref":"A38","corridor":"Redcliffe Way cycle track"},"geometry":{"type":"LineString","coordinates":[[-2.5900815,51.4487727],[-2.5901484,51.4487333],[-2.5902184,51.4486839],[-2.5902655,51.4486358],[-2.5903052,51.4485805],[-2.5903282,51.4485317],[-2.5903569,51.4483918]]}},{"type":"Feature","properties":{"osm_id":3994825,"name":"Redcliff Hill","ref":"A38","corridor":"Redcliffe Way cycle track"},"geometry":{"type":"LineString","coordinates":[[-2.5912361,51.4460378],[-2.5911983,51.4460655],[-2.5911486,51.4461053],[-2.5911065,51.4461427]]}},{"type":"Feature","properties":{"osm_id":121389308,"name":"Redcliff Hill","ref":"A38","corridor":"Redcliffe Way cycle track"},"geometry":{"type":"LineString","coordinates":[[-2.5905169,51.4482143],[-2.5904316,51.4485969],[-2.59043,51.4486263],[-2.5904375,51.4486663],[-2.5904521,51.4487058],[-2.5904737,51.4487451],[-2.5905076,51.4487939]]}},{"type":"Feature","properties":{"osm_id":203794617,"name":"Redcliff Hill","ref":"A38","corridor":"Redcliffe Way cycle track"},"geometry":{"type":"LineString","coordinates":[[-2.5906557,51.4471841],[-2.5907105,51.4470055],[-2.5907311,51.4468939],[-2.5907758,51.4466772],[-2.5907887,51.4465969]]}},{"type":"Feature","properties":{"osm_id":229612935,"name":"Redcliff Hill","ref":"A38","corridor":"Redcliffe Way cycle track"},"geometry":{"type":"LineString","coordinates":[[-2.5908544,51.4462147],[-2.5908599,51.4461429],[-2.5908418,51.446025],[-2.5908154,51.4459682]]}},{"type":"Feature","properties":{"osm_id":229612936,"name":"Redcliff Hill","ref":"A38","corridor":"Redcliffe Way cycle track"},"geometry":{"type":"LineString","coordinates":[[-2.5907887,51.4465969],[-2.5908252,51.4463946],[-2.590842,51.4462926],[-2.5908515,51.4462424],[-2.5908544,51.4462147]]}},{"type":"Feature","properties":{"osm_id":229612938,"name":"Redcliff Hill","ref":"A38","corridor":"Redcliffe Way cycle track"},"geometry":{"type":"LineString","coordinates":[[-2.5903569,51.4483918],[-2.5904135,51.4481339],[-2.5904998,51.4477909],[-2.5905738,51.4474804],[-2.5906256,51.4472853],[-2.5906557,51.4471841]]}},{"type":"Feature","properties":{"osm_id":248853632,"name":"Redcliff Hill","ref":"A38","corridor":"Redcliffe Way cycle track"},"geometry":{"type":"LineString","coordinates":[[-2.5910421,51.4462241],[-2.5909976,51.4463109],[-2.5909719,51.4463663],[-2.5909583,51.4464261],[-2.5909286,51.4466366]]}},{"type":"Feature","properties":{"osm_id":1392740514,"name":"Redcliff Hill","ref":"A38","corridor":"Redcliffe Way cycle track"},"geometry":{"type":"LineString","coordinates":[[-2.5911065,51.4461427],[-2.5910801,51.4461687],[-2.5910655,51.4461877],[-2.5910421,51.4462241]]}},{"type":"Feature","properties":{"osm_id":1392740515,"name":"Redcliff Hill","ref":"A38","corridor":"Redcliffe Way cycle track"},"geometry":{"type":"LineString","coordinates":[[-2.5908453,51.4470263],[-2.5907943,51.447199],[-2.5907511,51.4473202],[-2.590742,51.4473527],[-2.5906758,51.4475429],[-2.5905169,51.4482143]]}},{"type":"Feature","properties":{"osm_id":1392740516,"name":"Redcliff Hill","ref":"A38","corridor":"Redcliffe Way cycle track"},"geometry":{"type":"LineString","coordinates":[[-2.5909286,51.4466366],[-2.590914,51.4467375],[-2.590889,51.4468653],[-2.5908453,51.4470263]]}}]}