{"type":"FeatureCollection","features":[{"type":"Feature","properties":{"osm_id":3511616,"name":"Temple Way","ref":"A420","corridor":"Temple Way"},"geometry":{"type":"LineString","coordinates":[[-2.5833937,51.454566],[-2.5835119,51.4541909],[-2.5835814,51.453977],[-2.5837555,51.45351],[-2.5837832,51.4534488],[-2.5838426,51.4533793]]}},{"type":"Feature","properties":{"osm_id":3526941,"name":"Temple Way","ref":"A4044","corridor":"Temple Way"},"geometry":{"type":"LineString","coordinates":[[-2.5849746,51.4503687],[-2.5849589,51.4504335],[-2.5849148,51.4505976],[-2.5848978,51.4506608],[-2.5847688,51.4511383]]}},{"type":"Feature","properties":{"osm_id":24041615,"name":"Temple Way","ref":"A4044","corridor":"Temple Way"},"geometry":{"type":"LineString","coordinates":[[-2.5842281,51.4525359],[-2.5842867,51.4523007],[-2.5843385,51.4520826],[-2.5843508,51.452031],[-2.5843567,51.4519996],[-2.5843456,51.4519279],[-2.5843352,51.451861]]}},{"type":"Feature","properties":{"osm_id":24041616,"name":"Temple Way","ref":"A4044","corridor":"Temple Way"},"geometry":{"type":"LineString","coordinates":[[-2.5841063,51.4529587],[-2.5842281,51.4525359]]}},{"type":"Feature","properties":{"osm_id":24041617,"name":"Temple Way","ref":"A420","corridor":"Temple Way"},"geometry":{"type":"LineString","coordinates":[[-2.5842176,51.4531578],[-2.5842123,51.4533015],[-2.5841588,51.4534425],[-2.5839114,51.4540954]]}},{"type":"Feature","properties":{"osm_id":24041618,"name":"Temple Way","ref":"A4044","corridor":"Temple Way"},"geometry":{"type":"LineString","coordinates":[[-2.5843818,51.4525826],[-2.5843612,51.4526556],[-2.5842176,51.4531578]]}},{"type":"Feature","properties":{"osm_id":37372545,"name":"Temple Way","ref":"A4044","corridor":"Temple Way"},"geometry":{"type":"LineString","coordinates":[[-2.5839359,51.4535052],[-2.5840607,51.4531032]]}},{"type":"Feature","properties":{"osm_id":157061628,"name":"Temple Way","ref":"A4044","corridor":"Temple Way"},"geometry":{"type":"LineString","coordinates":[[-2.5843352,51.451861],[-2.5843439,51.4518378],[-2.5843969,51.4516859],[-2.5845082,51.4513129],[-2.584575,51.4510628],[-2.5846018,51.4509626]]}},{"type":"Feature","properties":{"osm_id":203633543,"name":"Temple Way","ref":"A420","corridor":"Temple Way"},"geometry":{"type":"LineString","coordinates":[[-2.5838426,51.4533793],[-2.5839468,51.4531681],[-2.5840009,51.4530825]]}},{"type":"Feature","properties":{"osm_id":518443537,"name":"Temple Way","ref":"A4044","corridor":"Temple Way"},"geometry":{"type":"LineString","coordinates":[[-2.5850082,51.4500815],[-2.5850049,51.4501955]]}},{"type":"Feature","properties":{"osm_id":661280489,"name":"Temple Way","ref":"A420","corridor":"Temple Way"},"geometry":{"type":"LineString","coordinates":[[-2.5840009,51.4530825],[-2.5841063,51.4529587]]}},{"type":"Feature","properties":{"osm_id":661280491,"name":"Temple Way","ref":"A4044","corridor":"Temple Way"},"geometry":{"type":"LineString","coordinates":[[-2.5840607,51.4531032],[-2.5841063,51.4529587]]}},{"type":"Feature","properties":{"osm_id":856654387,"name":"Temple Way","ref":"A4044","corridor":"Temple Way"},"geometry":{"type":"LineString","coordinates":[[-2.5848008,51.4501396],[-2.5848106,51.4500476]]}},{"type":"Feature","properties":{"osm_id":1101792380,"name":"Temple Way","ref":"A420","corridor":"Temple Way"},"geometry":{"type":"LineString","coordinates":[[-2.5832586,51.4554804],[-2.5832896,51.455352],[-2.5832957,51.4553241],[-2.5833383,51.4550124]]}},{"type":"Feature","properties":{"osm_id":1364559188,"name":"Temple Way","ref":"A420","corridor":"Temple Way"},"geometry":{"type":"LineString","coordinates":[[-2.5837433,51.45458],[-2.5837063,51.4547734],[-2.5836983,51.4548926]]}},{"type":"Feature","properties":{"osm_id":1364559189,"name":"Temple Way","ref":"A420","corridor":"Temple Way"},"geometry":{"type":"LineString","coordinates":[[-2.5836983,51.4548926],[-2.5836948,51.4549452],[-2.5836907,51.4550065],[-2.5837097,51.4551782],[-2.5837172,51.4551952],[-2.583734,51.4552329],[-2.583752,51.4552583],[-2.5838766,51.4553881]]}},{"type":"Feature","properties":{"osm_id":1364559191,"name":"Temple Way","ref":"A4044","corridor":"Temple Way"},"geometry":{"type":"LineString","coordinates":[[-2.5847688,51.4511383],[-2.5846953,51.4514656],[-2.5846708,51.451575]]}},{"type":"Feature","properties":{"osm_id":1364559192,"name":"Temple Way","ref":"A4044","corridor":"Temple Way"},"geometry":{"type":"LineString","coordinates":[[-2.5850049,51.4501955],[-2.585002,51.4502558],[-2.5849746,51.4503687]]}},{"type":"Feature","properties":{"osm_id":1364559194,"name":"Temple Way","ref":"A4044","corridor":"Temple Way"},"geometry":{"type":"LineString","coordinates":[[-2.5846708,51.451575],[-2.5846503,51.4516959],[-2.5846402,51.451741],[-2.5846289,51.4517804],[-2.5845615,51.4519936],[-2.5845429,51.4520474],[-2.58449,51.4522302],[-2.5843818,51.4525826]]}},{"type":"Feature","properties":{"osm_id":1408817039,"name":"Temple Way","ref":"A420","corridor":"Temple Way"},"geometry":{"type":"LineString","coordinates":[[-2.5839114,51.4540954],[-2.5838348,51.4542885],[-2.583762,51.4544827],[-2.5837433,51.45458]]}},{"type":"Feature","properties":{"osm_id":1413912988,"name":"Temple Way","ref":"A4044","corridor":"Temple Way"},"geometry":{"type":"LineString","coordinates":[[-2.5846018,51.4509626],[-2.5847081,51.4505837]]}},{"type":"Feature","properties":{"osm_id":1413912989,"name":"Temple Way","ref":"A4044","corridor":"Temple Way"},"geometry":{"type":"LineString","coordinates":[[-2.5847081,51.4505837],[-2.584774,51.4503119],[-2.5847828,51.450278],[-2.5847917,51.4502441],[-2.5847989,51.4501923],[-2.5848008,51.4501396]]}},{"type":"Feature","properties":{"osm_id":1413912992,"name":"Temple Way","ref":"A420","corridor":"Temple Way"},"geometry":{"type":"LineString","coordinates":[[-2.5833383,51.4550124],[-2.5833453,51.4549377],[-2.583363,51.4547502],[-2.5833937,51.454566]]}}]}